id,nombre,id_usig,periodo,domicilio,telefono,email,web,funciones,calle,altura,direccion,barrio,comuna,Long,Lat
254,Share Argentina Empresa de Viajes y Turismo,254,2021,Av. Córdoba 875 – Piso 12 – Oficina “E”,(011) 4894-4004,info@shareargentina.com.ar ,http://shareargentina.com.ar/ ,Agencias de viajes,Córdoba,875,CORDOBA AV. 875,Retiro,Comuna 1,-58.379350,-34.598870
253,Les Amis Viajes Tribunales,253,2021,Cerrito 844,(54-11) 5238-1690,cerrito@lesamis.com.ar,http://lesamisviajes.com/,"Agencias de viajes,Operadores de vi",Cerrito,844,CERRITO 844,Retiro,Comuna 1,-58.382630,-34.598581
252,Les Amis Viajes Recoleta,252,2021,Vicente López 1621,(54-11) 5246-9600,recoleta@lesamis.com.ar,http://lesamisviajes.com/,"Agencias de viajes,Operadores de vi",Vicente López,1621,"LOPEZ, VICENTE 1621",Recoleta,Comuna 2,-58.389141,-34.592320
251,Les Amis Viajes Catalinas,251,2021,Leandro N Alem 1036 ,(54-11) 5246-6670  ,cat@lesamis.com.ar,http://lesamisviajes.com/,"Agencias de viajes,Operadores de vi",Leandro N Alem,1036,"ALEM, LEANDRO N. AV. 1036",Retiro,Comuna 1,-58.372826,-34.595527
250,Les Amis Viajes Plaza San Martin,250,2021,Av. Santa Fe 816,(54-11) 5246-6620,santafe@lesamis.com.ar,http://lesamisviajes.com/,"Agencias de viajes,Operadores de vi",Santa Fe,816,SANTA FE AV. 816,Retiro,Comuna 1,-58.378758,-34.595202
249,Les Amis Viajes Belgrano,249,2021,La Pampa 2525,(54-11) 5246-6610,belgrano@lesamis.com.ar,http://lesamisviajes.com/,"Agencias de viajes,Operadores de vi",La Pampa,2525,LA PAMPA 2525,Belgrano,Comuna 13,-58.455470,-34.565533
248,Abimay Viajes,248,2021,Corrientes 848 Piso 12 ofic. 1208,4328-4198,abigail@abimayviajes.com,http://www.abimayviajes.tur.ar/,Agencias de viajes,Corrientes,848,CORRIENTES AV. 848,San Nicolas,Comuna 1,-58.378718,-34.603614
247,Confluencia Viajes,247,2021,Dean Funes 2176,4308 4515,info@confluenciaviajes.com,www.confluenciaviajes.com,,DEAN FUNES,2176,DEAN FUNES 2176,Parque Patricios,Comuna 4,-58.403777,-34.636547
246,TTS Viajes,246,2021,Paraguay  935,6333 3333,,www.ttsviajes.com,"Agencias de viajes,Operadores de vi",PARAGUAY,935,PARAGUAY 935,Retiro,Comuna 1,-58.380336,-34.597732
245,Tangol,245,2021,Florida 971 PB lo,4312 7276,,www.tangol.com,"Agencias de viajes,Operadores de vi",FLORIDA,971,FLORIDA 971,Retiro,Comuna 1,-58.375330,-34.596701
244,Fullmen Turismo,244,2021,Bartolomé Mitre 2017 Piso 1,4953  983/1584,,www.fullmen.com.ar,"Agencias de viajes,Operadores de vi",MITRE BARTOLOME,2017,"MITRE, BARTOLOME 2017",Balvanera,Comuna 3,-58.395230,-34.608136
243,Equinoxe,243,2021,Av Callao  384 Piso 3  8,4371 5050,,www.equinoxe.com.ar,"Agencias de viajes,Operadores de vi",CALLAO AV,384,CALLAO AV. 384,Balvanera,Comuna 3,-58.392373,-34.604692
242,UP Travel,242,2021,Lavalle 652 Piso 6 A,5031 3932 al 34,,www.up-travel.com,"Agencias de viajes,Operadores de vi",LAVALLE,652,LAVALLE 652,San Nicolas,Comuna 1,-58.375950,-34.602306
241,Turismo Pecom SACFI,241,2021,Av. Corrientes  880 Piso 10,4324 4400,,www.turismo-pecom.com.ar,"Agencias de viajes,Operadores de vi",CORRIENTES AV,880,CORRIENTES AV. 880,San Nicolas,Comuna 1,-58.379256,-34.603647
240,Tucano Tours SRL,240,2021,Av. Corrientes  753 Piso 5  C,4322 4038,,www.tucanotours.com.ar,"Agencias de viajes,Operadores de vi",CORRIENTES AV,753,CORRIENTES AV. 753,San Nicolas,Comuna 1,-58.377415,-34.603368
239,Travel Mark,239,2021,Carabelas 291 Piso 1 A,4330  524/951,,www.travelmark.com,"Agencias de viajes,Operadores de vi",CARABELAS,291,CARABELAS 291,San Nicolas,Comuna 1,-58.380278,-34.604994
238,Top Dest Empresa de Viajes y Turismo Wholesaler & Tour Ope,238,2021,Av. Corrientes  753 Piso 4  A,5032 1100 / 1111/ 1150,,www.topdest.com.ar,"Agencias de viajes,Operadores de vi",CORRIENTES AV,753,CORRIENTES AV. 753,San Nicolas,Comuna 1,-58.377415,-34.603368
237,Sintec Tur SA,237,2021,25 de Mayo  704 Piso 4,12554,,www.sintectur.com.ar,"Agencias de viajes,Operadores de vi",25 DE MAYO,704,25 DE MAYO 704,San Nicolas,Comuna 1,-58.371445,-34.599449
236,Scenery Travel Service,236,2021,Av. Córdoba  669 Piso 15  A,4394 5080,,www.scenery.com.ar,"Agencias de viajes,Operadores de vi",CORDOBA,669,CORDOBA AV. 669,Retiro,Comuna 1,-58.376327,-34.598686
235,Quimbaya Tours,235,2021,Arenales 1123 Piso 4,4816 5002,,www.quimbaya-tours.com,"Agencias de viajes,Operadores de vi",ARENALES,1123,ARENALES 1123,Retiro,Comuna 1,-58.383318,-34.594310
234,Mai 10 S.R.L.,234,2021,Av. Córdoba 657 Piso 3,4314 3390,,www.mai10.com.ar,"Agencias de viajes,Operadores de vi",CORDOBA,657,CORDOBA AV. 657,Retiro,Comuna 1,-58.376131,-34.598672
233,Logan Travel Service S.A.,233,2021,Cerrito 520 Piso 1,4382 7090,,www.logantravel.com,"Agencias de viajes,Operadores de vi",CERRITO,520,CERRITO 520,San Nicolas,Comuna 1,-58.382352,-34.602256
232,Les Amis Viajes Palermo,232,2021,Arenales 3398,(54-11) 5246-6681,altopalermo@lesamis.com.ar,http://lesamisviajes.com/,"Agencias de viajes,Operadores de vi",Arenales,3398,ARENALES 3398,Palermo,Comuna 14,-58.410855,-34.587372
231,Julia Tours,231,2021,Suipacha  570 Piso 1,4021 5800,,www.juliatours.com.ar,"Agencias de viajes,Operadores de vi",SUIPACHA,570,SUIPACHA 570,San Nicolas,Comuna 1,-58.379620,-34.601653
230,Hellingïs Travel,230,2021,Maipú 464 Piso 9 914,4322 0808,,www.hellingstravel.com,"Agencias de viajes,Operadores de vi",MAIPU,464,MAIPU 464,San Nicolas,Comuna 1,-58.376723,-34.602858
229,Furlong Incoming SA,229,2021,Talcahuano  1287 Piso 1,4816 0628,,www.furlongincoming.com.ar,"Agencias de viajes,Operadores de vi",TALCAHUANO,1287,TALCAHUANO 1287,Retiro,Comuna 1,-58.385881,-34.593287
228,Eurotur SRL,228,2021,Viamonte  486,4312 6070 / 77 / 78,,www.eurotur.com.ar,"Agencias de viajes,Operadores de vi",VIAMONTE,486,VIAMONTE 486,San Nicolas,Comuna 1,-58.373757,-34.599790
227,Delfino Turismo SRL,227,2021,San Martín  427,5238  565/567,,www.delfinoturismo.com.ar,"Agencias de viajes,Operadores de vi",SAN MARTIN,427,SAN MARTIN 427,San Nicolas,Comuna 1,-58.373841,-34.602903
226,City Service Travel Agency,226,2021,San Martín  344 Piso 26,5550 7770,,www.cityservice.com.ar,"Agencias de viajes,Operadores de vi",SAN MARTIN,344,SAN MARTIN 344,San Nicolas,Comuna 1,-58.373860,-34.603839
225,Biblos Travel Argentina,225,2021,Perú  143 Piso 13,5031 7777,,www.biblostravel.com,"Agencias de viajes,Operadores de vi",PERU,143,PERU 143,Monserrat,Comuna 1,-58.374956,-34.609589
224,Barcelo Berger Business Travel,224,2021,Tucumán 1000,5217 5400,,www.barcelovergerbusiness.com,"Agencias de viajes,Operadores de vi",TUCUMAN,1000,TUCUMAN 1000,San Nicolas,Comuna 1,-58.380848,-34.601377
223,Affinity Travel,223,2021,Lavalle 357 Piso 11 118,4894 1277,,www.affinitytravel.com.ar,"Agencias de viajes,Operadores de vi",LAVALLE,357,LAVALLE 357,San Nicolas,Comuna 1,-58.371875,-34.601959
222,Abax Travel,222,2021,Av. Corrientes 524 Piso 5,5031 8000,operaciones@abaxtravel.com.a,www.abaxtravel.com,"Agencias de viajes,Operadores de vi",CORRIENTES AV,524,CORRIENTES AV. 524,San Nicolas,Comuna 1,-58.374063,-34.603326
221,Say Hueque,221,2021,viamonte 749 Piso 6 601,5199 2517 / 18 / 19 / 20,rafael@sayhueque.com,www.sayhueque.com,Agencias de viajes,VIAMONTE,749,VIAMONTE 749,San Nicolas,Comuna 1,-58.377467,-34.599981
220,Travel Palace,220,2021,Av. Corrientes  1856 Piso 1  C,4372 0875,,no posee aun,Agencias de viajes,CORRIENTES AV,1856,CORRIENTES AV. 1856,Balvanera,Comuna 3,-58.393141,-34.604518
219,Clouds Travel,219,2021,Lavalle  1474 Piso 2,5290 42/67,,wwww.cloudstravel.com.ar,Agencias de viajes,LAVALLE,1474,LAVALLE 1474,San Nicolas,Comuna 1,-58.387604,-34.602932
218,Trips and Tours,218,2021,Av. Santa Fé  2441 Piso 5  A,4823 0844,,www.tripsandtours.com.ar,Agencias de viajes,SANTA FE AV,2441,SANTA FE AV. 2441,Recoleta,Comuna 2,-58.401643,-34.594556
217,Jac Travel,217,2021,Viamonte  920,4322 8726/9455,,en actualizacion,Agencias de viajes,VIAMONTE,920,VIAMONTE 920,San Nicolas,Comuna 1,-58.379964,-34.600138
216,Amadeo Gentili Turismo,216,2021,Juncal  954,4326 5280,,www.amadeogentili.com.ar,Agencias de viajes,JUNCAL,954,JUNCAL 954,Retiro,Comuna 1,-58.380884,-34.592887
215,Royal Crisley,215,2021,Esmeralda  740 Piso 9  907/,4393 1422,,www.royalcrisley.com,Agencias de viajes,ESMERALDA,740,ESMERALDA 740,San Nicolas,Comuna 1,-58.378282,-34.599597
214,Neptuno Viajes,214,2021,Arenales  963,5463  2/9,,www.neptuno.com.ar,Agencias de viajes,ARENALES,963,ARENALES 963,Retiro,Comuna 1,-58.380855,-34.594100
213,Olitravel,213,2021,Tucumán  320 Piso 4  B,4312 6150,,www.olitravel.com.ar,Agencias de viajes,TUCUMAN,320,TUCUMAN 320,San Nicolas,Comuna 1,-58.371591,-34.600798
212,Grama Travel,212,2021,Av. Cordoba  679 Piso 4  412,4311 3232,,www.gramatravel.com.ar,Agencias de viajes,CORDOBA,679,CORDOBA AV. 679,Retiro,Comuna 1,-58.376519,-34.598699
211,Red Travel,211,2021,Carlos Pellegrini  651 Piso 9,4322 8300,,www.redtravel.com.ar,Agencias de viajes,PELLEGRINI CARLOS,651,"PELLEGRINI, CARLOS 651",San Nicolas,Comuna 1,-58.381097,-34.600796
210,Kuyen Turismo,210,2021,Carlos Pellegrini  743 Piso 1  5,4328 1848/3007,,www.kuyenturismo.com,Agencias de viajes,PELLEGRINI CARLOS,743,"PELLEGRINI, CARLOS 743",San Nicolas,Comuna 1,-58.381169,-34.599656
209,Erica Tour,209,2021,Av. Santa Fe  1752 Piso 7  A,4816 9177,,www.ericatour.com.ar,Agencias de viajes,SANTA FE AV,1752,SANTA FE AV. 1752,Recoleta,Comuna 2,-58.392584,-34.595931
208,Refasi Turismo,208,2021,Av. de los Constituyentes  6023,4571 1222/2277,,,Agencias de viajes,DE LOS CONSTITUYENTES AV,6023,DE LOS CONSTITUYENTES AV. 6023,Villa Urquiza,Comuna 12,-58.505627,-34.571888
207,Barneos Representaciones Turísticas,207,2021,San Martin  991 Piso 3  C,4312 5240,,www.barneos.com.ar,Agencias de viajes,SAN MARTIN,991,SAN MARTIN 991,Retiro,Comuna 1,-58.374289,-34.596347
206,Hub Travel,206,2021,Av. Córdoba  645 Piso 5,5219 1414,,www.hubtravel.com.ar,Agencias de viajes,CORDOBA,645,CORDOBA AV. 645,Retiro,Comuna 1,-58.376019,-34.598664
205,Confidence Tours,205,2021,Esmeralda  517 Piso 3  C,4390 3695,,www.confidencetours.com.ar,Agencias de viajes,ESMERALDA,517,ESMERALDA 517,San Nicolas,Comuna 1,-58.378096,-34.602201
204,Visit-ar.com,204,2021,Av. Córdoba  679 Piso 2  206,4311 3838,,www.visit-ar.com,Agencias de viajes,CORDOBA,679,CORDOBA AV. 679,Retiro,Comuna 1,-58.376519,-34.598699
203,Bambú Servicios Turísticos,203,2021,Maipú  216 Piso 6  B,4326 3499,,www.bsastangooff.com.ar,Agencias de viajes,MAIPU,216,MAIPU 216,San Nicolas,Comuna 1,-58.376585,-34.605591
202,Geographica Viajes y Turismo,202,2021,Florida  253 Piso 8  E,5031 9818/9819,,www.geographica.com.ar,Agencias de viajes,FLORIDA,253,FLORIDA 253,San Nicolas,Comuna 1,-58.375087,-34.605084
201,Rincones Turísticos Viajes,201,2021,Paraguay  523 Piso 7  O,4312 8356,,www.rinconesturisticos.com,Agencias de viajes,PARAGUAY,523,PARAGUAY 523,Retiro,Comuna 1,-58.374608,-34.597416
200,Turismo Recrear,200,2021,Av. Nazca  2166 Piso 1,4584 2517,,www.turismorecrear.com,Agencias de viajes,NAZCA,2166,NAZCA AV. 2166,Villa Santa Rita,Comuna 11,-58.482873,-34.609744
199,Moreno Tours,199,2021,Av. Corrientes  534 Piso 10  D,4393 7198,,,Agencias de viajes,CORRIENTES AV,534,CORRIENTES AV. 534,San Nicolas,Comuna 1,-58.374282,-34.603340
198,Swan Turismo,198,2021,Cerrito  822 Piso 6  A,4129 7626,,www.swanturismo.com.ar,Agencias de viajes,CERRITO,822,CERRITO 822,Retiro,Comuna 1,-58.382612,-34.598855
197,Today Travel,197,2021,Suipacha 463 3 B,5353 5333,,www.todaytravel.com.ar,Agencias de viajes,SUIPACHA,463,SUIPACHA 463,San Nicolas,Comuna 1,-58.379484,-34.602883
196,CVC Argentina,196,2021,Av. Leandro N. Alem  896 Piso 11,5218 4306,,,Agencias de viajes,ALEM LEANDRO N AV,896,"ALEM, LEANDRO N. AV. 896",Retiro,Comuna 1,-58.372071,-34.597365
195,Búsqueda Viajes,195,2021,Av. Roque Saenz Peña  615 Piso 8  825,5031 8008,,www.busquedaviajes.com.ar,Agencias de viajes,SAENZ PEÑA ROQUE PRES   AV,615,"SAENZ PEÑA, ROQUE, PRES. AV. 615",San Nicolas,Comuna 1,-58.375697,-34.606735
194,Sciaria Viajes y Servicios,194,2021,Sarmiento  1371 Piso 9  905,5238 6635,,www.sciariaviajes.com.ar,Agencias de viajes,SARMIENTO,1371,SARMIENTO 1371,San Nicolas,Comuna 1,-58.386052,-34.605216
193,Megaholidays,193,2021,Av. Córdoba  950 Piso 6,4328 5005,,www.megaholidays.com.ar,Agencias de viajes,CORDOBA,950,CORDOBA AV. 950,San Nicolas,Comuna 1,-58.380689,-34.599088
192,Pentágono Operadora Turística,192,2021,Esmeralda  740 Piso 2,5218 5055,,www.e-pentagono.com,Agencias de viajes,ESMERALDA,740,ESMERALDA 740,San Nicolas,Comuna 1,-58.378282,-34.599597
191,Operadora Grupo Ocho,191,2021,Av. Córdoba  966 Piso 10  J,4393 5512,,www.grupoocho.com.ar,Agencias de viajes,CORDOBA,966,CORDOBA AV. 966,San Nicolas,Comuna 1,-58.380689,-34.599088
190,Dorto Viajes,190,2021,Lavalle  643 Piso 4  of.A,4831 9641/ 4322-2433,,,Agencias de viajes,LAVALLE,643,LAVALLE 643,San Nicolas,Comuna 1,-58.375815,-34.602206
189,Milonga Travel,189,2021,"Sarmiento  983 Piso 4 ""C""",4326 3158,,www.milongatravel.com,Agencias de viajes,SARMIENTO,983,SARMIENTO 983,San Nicolas,Comuna 1,-58.380543,-34.604878
188,Class Adventure Travel,188,2021,Av. Pte. Roque Sáenz Peña  615 718,5238  991/992,,www.cat-travel.com,Agencias de viajes,SAENZ PEÑA ROQUE PRES   AV,615,"SAENZ PEÑA, ROQUE, PRES. AV. 615",San Nicolas,Comuna 1,-58.375697,-34.606735
187,Oremar,187,2021,Julio A. Roca  636 Piso 13,4346 7777,,www.oremar.com,Agencias de viajes,ROCA JULIO A   PRESIDENTE AV,636,"ROCA, JULIO A., PRESIDENTE AV. 636",Monserrat,Comuna 1,-58.375510,-34.611062
186,Amichi Viajes,186,2021,San Martín  344 Piso 1,4131 5000,,www.amichi.com.ar,Agencias de viajes,SAN MARTIN,344,SAN MARTIN 344,San Nicolas,Comuna 1,-58.373860,-34.603839
185,Viajes Melytour Argentina,185,2021,Lavalle  715 Piso 1  A,5238 0360,,www.melytour.com.ar,Agencias de viajes,LAVALLE,715,LAVALLE 715,San Nicolas,Comuna 1,-58.376910,-34.602312
184,García Fernández Turismo,184,2021,Viamonte 752 Piso 3 6,4322 5252,,www.gft.com.ar,Agencias de viajes,VIAMONTE,752,VIAMONTE 752,San Nicolas,Comuna 1,-58.377602,-34.600057
183,Tripnow,183,2021,Av. Córdoba  2302 Piso 1  A,5217 9777,,www.tripnowarg.com,Agencias de viajes,CORDOBA,2302,CORDOBA AV. 2302,Balvanera,Comuna 3,-58.400032,-34.599692
182,CB Tours,182,2021,Lavalle  710 Piso 3  C,5235 7253,,,Agencias de viajes,LAVALLE,710,LAVALLE 710,San Nicolas,Comuna 1,-58.376913,-34.602359
181,Joytur,181,2021,Zapiola 1514,4554 4990,,www.joytur.com.ar,Agencias de viajes,ZAPIOLA,1514,ZAPIOLA 1514,Colegiales,Comuna 13,-58.457383,-34.571326
180,Stock Travel,180,2021,Reconquista  950 Piso 1,5217 9428 al 31,,www.stocktravel.com.ar,Agencias de viajes,RECONQUISTA,950,RECONQUISTA 950,Retiro,Comuna 1,-58.373085,-34.596808
179,Lan y Kramer Bike Tours,179,2021,Florida 868 Piso 14 H,4311 5199,,www.biketours.com.ar,Agencias de viajes,FLORIDA,868,FLORIDA 868,Retiro,Comuna 1,-58.375454,-34.598012
178,Alojargentina,178,2021,Av. Córdoba  2415 Piso 7,5219 0606,,www.alojargentina.com.ar,Agencias de viajes,CORDOBA,2415,CORDOBA AV. 2415,Recoleta,Comuna 2,-58.401326,-34.599368
177,Cristina Barone Viajes,177,2021,Sarmiento 747 Piso 7 32,4326 0662,,www.cbaroneviajes.com.ar,Agencias de viajes,SARMIENTO,747,SARMIENTO 747,San Nicolas,Comuna 1,-58.377247,-34.604665
176,Opciones Argentinas,176,2021,Tucumán  994 Piso 7,4393 0181,,www.opciones-ar.com.ar,Agencias de viajes,TUCUMAN,994,TUCUMAN 994,San Nicolas,Comuna 1,-58.380848,-34.601377
175,Evecon Tour Operator,175,2021,C. Pellegrini  763 Piso 2,4326 1025,,www.evecon.com.ar,Agencias de viajes,PELLEGRINI CARLOS,763,"PELLEGRINI, CARLOS 763",San Nicolas,Comuna 1,-58.381177,-34.599520
174,Brighton Travel,174,2021,Av. Corrientes  534 Piso 14  D,5032 5750/5751,,www.brighton.com.ar,Agencias de viajes,CORRIENTES AV,534,CORRIENTES AV. 534,San Nicolas,Comuna 1,-58.374282,-34.603340
173,Costantino Viajes,173,2021,"Maipú  464 Piso 10 ""B""",5219 2000,,www.costantinoviajes.com,Agencias de viajes,MAIPU,464,MAIPU 464,San Nicolas,Comuna 1,-58.376723,-34.602858
172,Bianca Travel,172,2021,Viamonte  611 Piso 3  I,4393 6688,,,Agencias de viajes,VIAMONTE,611,VIAMONTE 611,San Nicolas,Comuna 1,-58.375597,-34.599854
171,Troelsen Travel Services,171,2021,Av. Leandro N. Alem  424 Piso 2  203,4314 8884/ 4515 0090,,www.troelsen.com.ar,Agencias de viajes,ALEM LEANDRO N AV,424,"ALEM, LEANDRO N. AV. 424",San Nicolas,Comuna 1,-58.370631,-34.602722
170,F.M. Travel,170,2021,Alte Donofre Betbeder  1252,4789 0100/ 0200/ 0300,,www.fmtravel.com.ar,Agencias de viajes,BETBEDER ONOFRE Alte,1252,"BETBEDER, ONOFRE, Alte. 1252",Belgrano,Comuna 13,-58.451739,-34.546793
169,All Terra Ecoturismo en Argentina,169,2021,Maipú  388 Piso 9  B,4328 8821,,www.allterraecoturismo.com.ar,Agencias de viajes,MAIPU,388,MAIPU 388,San Nicolas,Comuna 1,-58.376689,-34.603718
168,Hoteldo.com,168,2021,Av. Córdoba  950 Piso 3  C,4322 2212,,www.hoteldo.com,Agencias de viajes,CORDOBA,950,CORDOBA AV. 950,San Nicolas,Comuna 1,-58.380689,-34.599088
167,Dunas Tour,167,2021,Viamonte  1842 Piso 3  G,4811 9292,,www.dunastours.com,Agencias de viajes,VIAMONTE,1842,VIAMONTE 1842,Balvanera,Comuna 3,-58.393389,-34.600868
166,Olas de Luna,166,2021,Alicia Moreau de Justo  2030 Piso 2  224,4313 1418,,www.olasdeluna.com.ar,Agencias de viajes,MOREAU DE JUSTO ALICIA AV,2030,"MOREAU DE JUSTO, ALICIA AV. 2030",Puerto Madero,Comuna 1,-58.365213,-34.622691
165,Huechulafquen,165,2021,Diagonal R. Saenz Peña  615 Piso 8  824,5239 5054,,,Agencias de viajes,SAENZ PEÑA ROQUE PRES   AV,615,"SAENZ PEÑA, ROQUE, PRES. AV. 615",San Nicolas,Comuna 1,-58.375697,-34.606735
164,Savarin Turismo,164,2021,Florida 250 10,4326 5747,,www.savarinturismo.com.ar,Agencias de viajes,FLORIDA,250,FLORIDA 250,San Nicolas,Comuna 1,-58.375197,-34.605134
163,Village Tour,163,2021,Florida  253 Piso 3  O,4328 6849,,www.villagetour.com.ar,Agencias de viajes,FLORIDA,253,FLORIDA 253,San Nicolas,Comuna 1,-58.375087,-34.605084
162,Amienstour,162,2021,Av. Callao  420 Piso 4,4371 4999,,www.amiens-tour.com.ar,Agencias de viajes,CALLAO AV,420,CALLAO AV. 420,Balvanera,Comuna 3,-58.392419,-34.604048
161,Sumampa Viajes y Turismo,161,2021,Suipacha  536,4326 7022 al 25,,"no posee. cambiar  el nombre de la empresa, e",Agencias de viajes,SUIPACHA,536,SUIPACHA 536,San Nicolas,Comuna 1,-58.379604,-34.601993
160,Villa de Merlo Turismo,160,2021,Viamonte  749 Piso 10  6,4325 8100,,www.vilmacarbajo.com.ar,Agencias de viajes,VIAMONTE,749,VIAMONTE 749,San Nicolas,Comuna 1,-58.377467,-34.599981
159,Vilma Carbajo,159,2021,Av. Cabildo  2230 Piso 7  C,4786 8592,,www.vilmacarbajo.com.ar,Agencias de viajes,CABILDO AV,2230,CABILDO AV. 2230,Belgrano,Comuna 13,-58.457925,-34.560786
158,Saint Etienne Tour,158,2021,Av. Corrientes  848 Piso 11  1110,4393 4759 / 4394 1028,,www.saintetienne.com.ar,Agencias de viajes,CORRIENTES AV,848,CORRIENTES AV. 848,San Nicolas,Comuna 1,-58.378718,-34.603614
157,Argentina Diferente,157,2021,Tucumán  540 Piso 2  13,4328 7426,,www.argentinadiferente.com,Agencias de viajes,TUCUMAN,540,TUCUMAN 540,San Nicolas,Comuna 1,-58.374891,-34.601050
156,Dominor Tour Operator,156,2021,Suipacha  1087 Piso 5  B,4312 3100,,www.dominor.com.ar,Agencias de viajes,SUIPACHA,1087,SUIPACHA 1087,Retiro,Comuna 1,-58.379930,-34.595455
155,Holyland Travel,155,2021,Lavalle  1718 Piso 9  A,4371 0052,,www.holyland.com.ar,Agencias de viajes,LAVALLE,1718,LAVALLE 1718,San Nicolas,Comuna 1,-58.391171,-34.603159
154,Nap Travel,154,2021,Florida  890 Piso 2,5235 8877,,www.naptravel.com,Agencias de viajes,FLORIDA,890,FLORIDA 890,Retiro,Comuna 1,-58.375462,-34.597708
153,Eternautas,153,2021,Av. Pte Roque Saenz Peña  1124 Piso 4  B,4384 7874,,www.eternautas.com,Agencias de viajes,SAENZ PEÑA ROQUE PRES   AV,1124,"SAENZ PEÑA, ROQUE, PRES. AV. 1124",San Nicolas,Comuna 1,-58.382552,-34.603309
152,Púrpura Travel,152,2021,Florida  259 Piso 1  101,4327 3183,,www.purpura-travel.com.ar,Agencias de viajes,FLORIDA,259,FLORIDA 259,San Nicolas,Comuna 1,-58.375092,-34.604989
151,De la Paz Tur,151,2021,Av. Corrientes  745 Piso 1  10,4325 2296,,www.delapaztur.com.ar,Agencias de viajes,CORRIENTES AV,745,CORRIENTES AV. 745,San Nicolas,Comuna 1,-58.377315,-34.603362
150,Servicios BArgentina,150,2021,Armenia  2407 Piso 1  C,4831 3395,,www.bargentina.com,Agencias de viajes,ARMENIA,2407,ARMENIA 2407,Palermo,Comuna 14,-58.419471,-34.584415
149,Liberty South America,149,2021,Viamonte 749 Piso 19 5,5217 6799,,www.libertysouthamerica.com,Agencias de viajes,VIAMONTE,749,VIAMONTE 749,San Nicolas,Comuna 1,-58.377467,-34.599981
148,Prosa Travel,148,2021,Sarmiento  539 Piso 5,4326 5901,,www.prosaviajes.com.ar/ www.shouthdoortravel.,Agencias de viajes,SARMIENTO,539,SARMIENTO 539,San Nicolas,Comuna 1,-58.374284,-34.604471
147,New Generation Travel,147,2021,Florida  520 Piso 1  120,5032 3310,,www.ngtrawel.com.ar,Agencias de viajes,FLORIDA,520,FLORIDA 520,San Nicolas,Comuna 1,-58.375339,-34.602049
146,Boomerang Viajes,146,2021,Paraná  467 Piso 4  13,4373 4116,,www.boomerangviajes.com.ar,Agencias de viajes,PARANA,467,PARANA 467,San Nicolas,Comuna 1,-58.387890,-34.603400
145,Coral Travel,145,2021,Florida  520 307,4394 4928,,,Agencias de viajes,FLORIDA,520,FLORIDA 520,San Nicolas,Comuna 1,-58.375339,-34.602049
144,Hispanya Viajes,144,2021,Av. de Mayo  1235 PB,4384-8011,,www.hispanya.com,Agencias de viajes,DE MAYO AV,1235,DE MAYO AV. 1235,Monserrat,Comuna 1,-58.383981,-34.609148
143,Summer Time,143,2021,Tucumán  581 Piso 1,5237 7085,,receptivo@stviajes.com.ar,Agencias de viajes,TUCUMAN,581,TUCUMAN 581,San Nicolas,Comuna 1,-58.375091,-34.601003
142,Grupo On Line,142,2021,San Martin  320 Piso 4,5199 7400,,www.grtonline.com.ar/receptivo,Agencias de viajes,SAN MARTIN,320,SAN MARTIN 320,San Nicolas,Comuna 1,-58.373841,-34.604221
141,Ricale Viajes,141,2021,Paraguay  866 Piso 8,5777    1/100,,www.ricale.com,Agencias de viajes,PARAGUAY,866,PARAGUAY 866,Retiro,Comuna 1,-58.379331,-34.597731
140,Interlands,140,2021,Esmeralda  320 Piso 8,4327 8220,,www.interlands.com.ar,Agencias de viajes,ESMERALDA,320,ESMERALDA 320,San Nicolas,Comuna 1,-58.378065,-34.604492
139,Otba,139,2021,Florida  520 Piso 1,4394-2127/5012,,www.otba.com.ar,Agencias de viajes,FLORIDA,520,FLORIDA 520,San Nicolas,Comuna 1,-58.375339,-34.602049
138,Abonnie Tours,138,2021,Federico Lacroze  2356 Piso 3  B,4772-2911,,,Agencias de viajes,LACROZE FEDERICO,2356,"LACROZE, FEDERICO AV. 2356",Palermo,Comuna 14,-58.444289,-34.569443
137,Navijet,137,2021,Viamonte  783 Piso 1,4325-0778/ 0756,,www.navijetsa.com.ar,Agencias de viajes,VIAMONTE,783,VIAMONTE 783,San Nicolas,Comuna 1,-58.378033,-34.600032
136,Mones Ruiz Viajes S.R.L.,136,2021,Maipú  859 Piso 5,4314-3586/ 7033/ 7034/ 7319,,,Agencias de viajes,MAIPU,859,MAIPU 859,Retiro,Comuna 1,-58.376831,-34.598114
135,Libor Tour,135,2021,Paraguay  1178 Piso 7  B,5218 2807,,www.liboargentina.com.ar,Agencias de viajes,PARAGUAY,1178,PARAGUAY 1178,Retiro,Comuna 1,-58.383740,-34.598092
134,Travel Jet,134,2021,Lavalle 482 Piso 10 F,4394 5222,,www.traveljet.com.ar,Agencias de viajes,LAVALLE,482,LAVALLE 482,San Nicolas,Comuna 1,-58.373614,-34.602136
133,Bielsa & Asociados,133,2021,Florida 525 Piso 4,4328 6448,,www.bielsayasociados.com,Agencias de viajes,FLORIDA,525,FLORIDA 525,San Nicolas,Comuna 1,-58.375239,-34.601821
132,Sudamerican Tours,132,2021,San Martín  663 Piso 4,4312 5003,,www.sudamericantours.com.ar,Agencias de viajes,SAN MARTIN,663,SAN MARTIN 663,San Nicolas,Comuna 1,-58.374018,-34.600260
131,Tower Travel,131,2021,Av. Córdoba  657 Piso 5,5217 7400,,www.towertravel.com.ar,Agencias de viajes,CORDOBA,657,CORDOBA AV. 657,Retiro,Comuna 1,-58.376131,-34.598672
130,Mundoreps,130,2021,Av. Córdoba 836 Piso 8 805,4326 4180,,www.mundoreps.com.ar,Agencias de viajes,CORDOBA,836,CORDOBA AV. 836,San Nicolas,Comuna 1,-58.378815,-34.599013
129,YMCA Turismo,129,2021,Reconquista  439 PB,4311 4785 int. 3,,www.ymca-turimo.com.ar,Agencias de viajes,RECONQUISTA,439,RECONQUISTA 439,San Nicolas,Comuna 1,-58.372462,-34.602651
128,Uco Travel,128,2021,Lavalle  1474 Piso 5  B,4373 1662,,www.ucotravel.com.ar,Agencias de viajes,LAVALLE,1474,LAVALLE 1474,San Nicolas,Comuna 1,-58.387604,-34.602932
127,Skypatagonia,127,2021,Vicente López  1933 Piso 2  16,4803 3089,,www.skipatagonia.com.ar,Agencias de viajes,LOPEZ VICENTE,1933,"LOPEZ, VICENTE 1933",Recoleta,Comuna 2,-58.392344,-34.589686
126,Servir Viajes,126,2021,Av. Pte Roque Saenz Peña  1110 Piso 3  2,4382 9998,,www.servirviajes.com.ar,Agencias de viajes,SAENZ PEÑA ROQUE PRES   AV,1110,"SAENZ PEÑA, ROQUE, PRES. AV. 1110",San Nicolas,Comuna 1,-58.382342,-34.603406
125,Secon Turismo,125,2021,Suipacha 207 Piso 3,4321 1000,,www.seconturismo.com.ar,Agencias de viajes,SUIPACHA,207,SUIPACHA 207,San Nicolas,Comuna 1,-58.379301,-34.605723
124,Quimey Viajes,124,2021,Suipacha 535,5219 0911,,www.quimeyviajes.com.ar,Agencias de viajes,SUIPACHA,535,SUIPACHA 535,San Nicolas,Comuna 1,-58.379530,-34.601979
123,Journey Argentina,123,2021,Tte. Gral. Juan Domingo Perón  1873 Piso,4373 0133,,www.journeyargentina.com,Agencias de viajes,PERON JUAN DOMINGO TTE GENERAL,1873,"PERON, JUAN DOMINGO, TTE. GENERAL 1873",Balvanera,Comuna 3,-58.392971,-34.606828
122,Hungïs Tourismo,122,2021,Maipú 859 Piso 6,4311 1168,,www.hungstourismo.com.ar,Agencias de viajes,MAIPU,859,MAIPU 859,Retiro,Comuna 1,-58.376831,-34.598114
121,Gran Dragón,121,2021,Maipú  378 Piso 6,4328 4213,,,Agencias de viajes,MAIPU,378,MAIPU 378,San Nicolas,Comuna 1,-58.376685,-34.603777
120,Genus,120,2021,Av. Córdoba  785 Piso 5  9,4314 1899,,www.patagoniaincoming.com.ar,Agencias de viajes,CORDOBA,785,CORDOBA AV. 785,Retiro,Comuna 1,-58.377949,-34.598800
119,Cit Emotion (Compania Italiana Turismo),119,2021,Av. Córdoba 369,4313 0076/ 2031/ 4034,,www.emotion.com.ar,Agencias de viajes,CORDOBA,369,CORDOBA AV. 369,Retiro,Comuna 1,-58.372557,-34.598414
118,Network,118,2021,Tucumán 924 Piso 8,4327 1050,,www.network.com.ar,Agencias de viajes,TUCUMAN,924,TUCUMAN 924,San Nicolas,Comuna 1,-58.379955,-34.601328
117,Mawa Travel,117,2021,Av. Córdoba 629 Piso 2,4312 5111/ 0810 888 6292,,www.mawatravel.com,Agencias de viajes,CORDOBA,629,CORDOBA AV. 629,Retiro,Comuna 1,-58.375644,-34.598638
116,Viajes Rems,116,2021,Marcelo T. de Alvear  2442 Piso 4  18,4962 3364 / 4963 8641/ 8642,,www.viajesrems.com.ar,Agencias de viajes,ALVEAR MARCELO T De,2442,"ALVEAR, MARCELO T. De 2442",Recoleta,Comuna 2,-58.402196,-34.596135
115,Petrabax Argentina,115,2021,Av. Santa Fe 969 Piso 4,4393 2408 / 4326 3034,,www.petrabaxargentina.com.ar,Agencias de viajes,SANTA FE AV,969,SANTA FE AV. 969,Retiro,Comuna 1,-58.380821,-34.595220
114,Solways Tours,114,2021,Maipú  471 Piso 9,5031 4060,,www.solways.com.ar,Agencias de viajes,MAIPU,471,MAIPU 471,San Nicolas,Comuna 1,-58.376662,-34.602624
113,Turismo Sabita,113,2021,Viamonte  927 4 A,4322 8754 / 4394 8117,,www.sabitaturismo.com.ar,Agencias de viajes,VIAMONTE,927,VIAMONTE 927,San Nicolas,Comuna 1,-58.380191,-34.600114
112,Turismo Jet de Antártica S.A.,112,2021,Av. Córdoba  437,4000 8700,,www.jetonline.com.ar,Agencias de viajes,CORDOBA,437,CORDOBA AV. 437,Retiro,Comuna 1,-58.373375,-34.598475
111,Turicentro,111,2021,Av. Del Libertador 602 Piso 21 A,4815 5900,,www.turicentro.com.ar,Agencias de viajes,DEL LIBERTADOR AV,602,DEL LIBERTADOR AV. 602,Retiro,Comuna 1,-58.382260,-34.588727
110,Turar SA,110,2021,Bartolomé Mitre 559 Piso 4 415,4342 2999/ 4103 3100,,www.turar.com,Agencias de viajes,MITRE BARTOLOME,559,"MITRE, BARTOLOME 559",San Nicolas,Comuna 1,-58.374266,-34.606784
109,Tunnel Travel Services,109,2021,Av. Santa Fe 882 Piso 11 F,4313 5350,,www.tunneltravel.com.ar,Agencias de viajes,SANTA FE AV,882,SANTA FE AV. 882,Retiro,Comuna 1,-58.379601,-34.595276
108,South Incentives,108,2021,Jerónimo Salguero  2835 Piso 21  A,4807 6200,,www.tucano.com.ar,Agencias de viajes,SALGUERO JERONIMO,2835,"SALGUERO, JERONIMO 2835",Palermo,Comuna 14,-58.407429,-34.579328
107,Tuak Tour,107,2021,San Martín  977 Piso 2  D,4315 3015/3173,,www.tuaktour.com.ar,Agencias de viajes,SAN MARTIN,977,SAN MARTIN 977,Retiro,Comuna 1,-58.374277,-34.596549
106,Turismo Se. Pe. An,106,2021,"Viamonte  675 Piso 15  ""D""",4393 5500,,,Agencias de viajes,VIAMONTE,675,VIAMONTE 675,San Nicolas,Comuna 1,-58.376354,-34.599895
105,Travel Line Argentina,105,2021,Esmeralda 715 Piso 10 A,4393 9000,,www.travelline.com.ar,Agencias de viajes,ESMERALDA,715,ESMERALDA 715,San Nicolas,Comuna 1,-58.378191,-34.599795
104,Trade Travel Co. S.A,104,2021,San Martín 967,4311 4102,,www.tradetravel.com.ar,Agencias de viajes,SAN MARTIN,967,SAN MARTIN 967,Retiro,Comuna 1,-58.374271,-34.596661
103,Tours & Travel,103,2021,Paraguay  541 Piso 1,4315 9444,,www.toursandtravel.com.ar,Agencias de viajes,PARAGUAY,541,PARAGUAY 541,Retiro,Comuna 1,-58.374789,-34.597428
102,Tournée,102,2021,Maipú  863 Piso 1  H,4515 1418 / 4314 1030,,www.tournee.com.ar,Agencias de viajes,MAIPU,863,MAIPU 863,Retiro,Comuna 1,-58.376836,-34.598017
101,Tourmedal Operadora de Turismo,101,2021,Paraguay  643 Piso 2  B,5313 4/5,,no posee (9/2005),Agencias de viajes,PARAGUAY,643,PARAGUAY 643,Retiro,Comuna 1,-58.376145,-34.597508
100,Tije,100,2021,San Martín  640 Piso 3  B,4326 5665,,www.tije.com.ar,Agencias de viajes,SAN MARTIN,640,SAN MARTIN 640,San Nicolas,Comuna 1,-58.374077,-34.600482
99,TC Tango,99,2021,Maipú  726 Piso 3  B,4328 5377,,www.tctango.com,Agencias de viajes,MAIPU,726,MAIPU 726,San Nicolas,Comuna 1,-58.376854,-34.599689
98,Tamanaha Travel Service SRL,98,2021,Esmeralda  847 Piso 5  J,4314   17/5337,,www.tamanahatravel.com.ar,Agencias de viajes,ESMERALDA,847,ESMERALDA 847,Retiro,Comuna 1,-58.378284,-34.598377
97,Taiar SRL,97,2021,Florida 129 Piso 1 A,4331 0005 / 4854 8821 / 0455 / 6,,www.taiar.com,Agencias de viajes,FLORIDA,129,FLORIDA 129,San Nicolas,Comuna 1,-58.375010,-34.606564
96,Vie Tur,96,2021,Montevideo  666 Piso 1  1,5411 4374 1500,,www.vietur.com.ar,Agencias de viajes,MONTEVIDEO,666,MONTEVIDEO 666,San Nicolas,Comuna 1,-58.389619,-34.601154
95,Suzuki Travel Agency SRL,95,2021,San Martín  987 Piso 2  B,4311 9910 / 4313 6422,,en construcci¢n (9/2005),Agencias de viajes,SAN MARTIN,987,SAN MARTIN 987,Retiro,Comuna 1,-58.374283,-34.596445
94,Surexpress,94,2021,Esmeralda  629 Piso 4  F,4393 3655,,www.surexpress.com.ar,Agencias de viajes,ESMERALDA,629,ESMERALDA 629,San Nicolas,Comuna 1,-58.378156,-34.600811
93,Sur Turismo,93,2021,Av. Corrientes  753 Piso 5  A y,4322 7744,,www.surturismo.com,Agencias de viajes,CORRIENTES AV,753,CORRIENTES AV. 753,San Nicolas,Comuna 1,-58.377415,-34.603368
92,Sundance tours,92,2021,San Martín  881 Piso 4,4313 6626,,www.sundancespirit.com,Agencias de viajes,SAN MARTIN,881,SAN MARTIN 881,Retiro,Comuna 1,-58.374216,-34.597629
91,Special Travel,91,2021,Av. Córdoba  827 Piso y 9,4311 2121,,www.special.com.ar,Agencias de viajes,CORDOBA,827,CORDOBA AV. 827,Retiro,Comuna 1,-58.378731,-34.598844
90,Soles Fun & Leisure,90,2021,Av. de Mayo  953 Piso 2  14,4345 3300,,www.solesviajes.com.ar,Agencias de viajes,DE MAYO AV,953,DE MAYO AV. 953,Monserrat,Comuna 1,-58.379968,-34.608871
89,Sobol Viajes,89,2021,Lavalle  715 Piso 9  B,5199 0080,,www.sobol-viajes.com.ar,Agencias de viajes,LAVALLE,715,LAVALLE 715,San Nicolas,Comuna 1,-58.376910,-34.602312
88,Six Travel,88,2021,25 de Mayo 749 Piso 2 8,5236 0565,,www.six-travel.com.ar,Agencias de viajes,25 DE MAYO,749,25 DE MAYO 749,San Nicolas,Comuna 1,-58.371403,-34.599017
87,Siglo XXI (Del Grupo Eurovipïs),87,2021,Viamonte  640 Piso 2,5556 2400,,www.eurovips.com,Agencias de viajes,VIAMONTE,640,VIAMONTE 640,San Nicolas,Comuna 1,-58.375937,-34.599903
86,Sightseeing Travel / Nortur,86,2021,Bernardo de Irigoyen  146 Piso 6  A,4343 1111,,,Agencias de viajes,IRIGOYEN BERNARDO de,146,"IRIGOYEN, BERNARDO de 146",Monserrat,Comuna 1,-58.380589,-34.610049
85,Siga Turismo,85,2021,México 1173 Piso 1 5,5941 0041,,www.sigaturismo.com,Agencias de viajes,MEXICO,1173,MEXICO 1173,Monserrat,Comuna 1,-58.382625,-34.615322
84,Sentinel Travel SRL,84,2021,Carlos Pellegrini 1055 Piso 12 A,4393 3033,,,Agencias de viajes,PELLEGRINI CARLOS,1055,"PELLEGRINI, CARLOS 1055",Retiro,Comuna 1,-58.381372,-34.596009
83,Santa Anita Travel Agency SRL,83,2021,Paraguay  755 Piso 4  10,4312   17/1358,,www.santaanitatravel.com.ar,Agencias de viajes,PARAGUAY,755,PARAGUAY 755,Retiro,Comuna 1,-58.377684,-34.597590
82,Rumbo SRL,82,2021,HipólitoYrigoyen  723 Piso 7  49,4343 1977/9305,,www.rumboviajes.com.ar,Agencias de viajes,YRIGOYEN HIPOLITO,723,"YRIGOYEN, HIPOLITO 723",Monserrat,Comuna 1,-58.376656,-34.609289
81,Round Trip,81,2021,Av. Álvarez Jonte  4703,4639 0039,,,Agencias de viajes,ALVAREZ JONTE,4703,ALVAREZ JONTE AV. 4703,Monte Castro,Comuna 10,-58.504923,-34.619276
80,Rotamund,80,2021,Av. Pte. Roque Sáenz Peña 846 Piso 2,5239 5100,,www.rotamund.com,Agencias de viajes,SAENZ PEÑA ROQUE PRES   AV,846,"SAENZ PEÑA, ROQUE, PRES. AV. 846",San Nicolas,Comuna 1,-58.378611,-34.605313
79,Ripio,79,2021,Av. Scalabrini Ortiz  258 Piso 3  C,4855 4684,,www.ripioturismo.com.ar,Agencias de viajes,SCALABRINI ORTIZ RAUL,258,"SCALABRINI ORTIZ, RAUL AV. 258",Villa Crespo,Comuna 15,-58.439496,-34.600209
78,Representour de Argentina SA,78,2021,Suipacha  512 Piso 3  A,4322 2222,,www.representour.com,Agencias de viajes,SUIPACHA,512,SUIPACHA 512,San Nicolas,Comuna 1,-58.379591,-34.602270
77,Quarum Travel,77,2021,Av. Córdoba  966 Piso 7,5217 7797 l¡neas rotativas,,www.quarumtravel.com,Agencias de viajes,CORDOBA,966,CORDOBA AV. 966,San Nicolas,Comuna 1,-58.380689,-34.599088
76,Quality Travel,76,2021,Av. Santa Fe  851 Piso 8  2,4312 9310,,www.qualitytravel.com.ar,Agencias de viajes,SANTA FE AV,851,SANTA FE AV. 851,Retiro,Comuna 1,-58.379023,-34.595064
75,Psicotour,75,2021,Tucumán 834 Piso 3 B,5555 1000,,www.psicotur.com.ar,Agencias de viajes,TUCUMAN,834,TUCUMAN 834,San Nicolas,Comuna 1,-58.378691,-34.601271
74,Polvani Tours,74,2021,Tucumán 764,4322 9575,,www.polvani.com.ar,Agencias de viajes,TUCUMAN,764,TUCUMAN 764,San Nicolas,Comuna 1,-58.377714,-34.601223
73,Plaza Bohemia Viajes,73,2021,Suipacha 921 Piso 17 C,4312  126/1529,,www.tango-turismo.com.ar,Agencias de viajes,SUIPACHA,921,SUIPACHA 921,Retiro,Comuna 1,-58.379819,-34.597340
72,Patagonia Travel SRL,72,2021,Av. Córdoba 456 Piso 17 C,4312 1172 / 4313 8292,,,Agencias de viajes,CORDOBA,456,CORDOBA AV. 456,San Nicolas,Comuna 1,-58.373791,-34.598675
71,Over Expertos en Viajes,71,2021,Av. Pte. Roque Sáenz Peña  995 Piso 6  B,4327 5115,,www.overtravel.com.ar,Agencias de viajes,SAENZ PEÑA ROQUE PRES   AV,995,"SAENZ PEÑA, ROQUE, PRES. AV. 995",San Nicolas,Comuna 1,-58.380759,-34.604093
70,Calidad Piamonte,70,2021,Florida 253 Piso 6 A,4325 3303,,www.piamonte.com,Agencias de viajes,FLORIDA,253,FLORIDA 253,San Nicolas,Comuna 1,-58.375087,-34.605084
69,Ola,69,2021,Sarmiento 517 Piso 3 A,4328 8760/8783,,www.ola.com.ar,Agencias de viajes,SARMIENTO,517,SARMIENTO 517,San Nicolas,Comuna 1,-58.374002,-34.604450
68,New Japan Travel,68,2021,Esmeralda  740 Piso 15  1510,4393 2014 / 1078 / 3145 / 3164,,www.Argentine-kanko.com.ar,Agencias de viajes,ESMERALDA,740,ESMERALDA 740,San Nicolas,Comuna 1,-58.378282,-34.599597
67,Nature Style,67,2021,Av. Santa Fe  830 Piso 2,4312 5858,,www.naturestyle.com,Agencias de viajes,SANTA FE AV,830,SANTA FE AV. 830,Retiro,Comuna 1,-58.378976,-34.595221
66,Miyamoto SRL,66,2021,Libertad  836 P.B.,4816 4260,,,Agencias de viajes,LIBERTAD,836,LIBERTAD 836,Retiro,Comuna 1,-58.384105,-34.598775
65,Marsans Internacional/ Optar,65,2021,Suipacha  1067 Piso 8,4317 4317,,www.marsans.com.ar,Agencias de viajes,SUIPACHA,1067,SUIPACHA 1067,Retiro,Comuna 1,-58.379912,-34.595746
64,Maian Viajes y Turismo,64,2021,Suipacha  570 Piso 6  B,5237 0426,,www.maianviajes.com.ar,Agencias de viajes,SUIPACHA,570,SUIPACHA 570,San Nicolas,Comuna 1,-58.379620,-34.601653
63,Macren International Travel S.A.,63,2021,Reconquista  575 Piso 2,4317 1449/1511,,www.macrentravel.com.ar,Agencias de viajes,RECONQUISTA,575,RECONQUISTA 575,San Nicolas,Comuna 1,-58.372540,-34.601241
62,Luxor Tour,62,2021,Lavalle  1125 Piso 5  12,4382 1010,,,Agencias de viajes,LAVALLE,1125,LAVALLE 1125,San Nicolas,Comuna 1,-58.382805,-34.602563
61,Lihué Expediciones,61,2021,Av. Córdoba 827 Piso 10 A,5031 0070,,,Agencias de viajes,CORDOBA,827,CORDOBA AV. 827,Retiro,Comuna 1,-58.378731,-34.598844
60,Flovini Viajes,60,2021,Av. Corrientes  2438 Piso 6  D,5246 1140/1141,,www.floviniviajes.com.ar,Agencias de viajes,CORRIENTES AV,2438,CORRIENTES AV. 2438,Balvanera,Comuna 3,-58.401359,-34.604772
59,Keenly Travel,59,2021,Esmeralda  740 Piso 13  1304,4325 8332,,www.keenlytravel.com.ar,Agencias de viajes,ESMERALDA,740,ESMERALDA 740,San Nicolas,Comuna 1,-58.378282,-34.599597
58,Kallpa Tour,58,2021,Av. Pte. Roque Sáenz Peña  811 Piso 1  3,4394 1830,,www.kallpatour.com,Agencias de viajes,SAENZ PEÑA ROQUE PRES   AV,811,"SAENZ PEÑA, ROQUE, PRES. AV. 811",San Nicolas,Comuna 1,-58.378213,-34.605412
57,Itinere Viajes y Hotelería,57,2021,Julian Alvarez  1084 Piso 5,4771 1634,,,Agencias de viajes,ALVAREZ JULIAN,1084,"ALVAREZ, JULIAN 1084",Villa Crespo,Comuna 15,-58.428492,-34.595707
56,Interplanet,56,2021,Esmeralda 740 Piso 3 306,4393 4752 / 4325 2378,,www.inter-best.com,Agencias de viajes,ESMERALDA,740,ESMERALDA 740,San Nicolas,Comuna 1,-58.378282,-34.599597
55,Iberojet,55,2021,Cerrito  1070 Piso 3  68,4813 6699,,www.iberojet.com.ar,Agencias de viajes,CERRITO,1070,CERRITO 1070,Retiro,Comuna 1,-58.382763,-34.595924
54,Horizons de France,54,2021,Paraguay 877 Piso 7 A,4315 7776,,www.argentinatrip.com,Agencias de viajes,PARAGUAY,877,PARAGUAY 877,Retiro,Comuna 1,-58.379453,-34.597677
53,Ho la la Travel,53,2021,Maipú 746 Piso 1 1,4322 1233,,www.holalatravel.com.ar,Agencias de viajes,MAIPU,746,MAIPU 746,San Nicolas,Comuna 1,-58.376864,-34.599462
52,Hispatur,52,2021,Suipacha  745 Piso 9  D,4393 2693/ 4322 9714,,www.hispaturviajes.com.ar,Agencias de viajes,SUIPACHA,745,SUIPACHA 745,San Nicolas,Comuna 1,-58.379668,-34.599694
51,Alberto Villalba Travel Services,51,2021,Viamonte  611 Piso 7  E,4322 1163/2523,,www.albertovillalba.com.ar,Agencias de viajes,VIAMONTE,611,VIAMONTE 611,San Nicolas,Comuna 1,-58.375597,-34.599854
50,Hello Turismo,50,2021,Av. Santa Fe  882 Piso 8  D,4314 2189,,,Agencias de viajes,SANTA FE AV,882,SANTA FE AV. 882,Retiro,Comuna 1,-58.379601,-34.595276
49,Haruwen Viajes,49,2021,Maipú  725 Piso 1  20,4325 4008 / 4325 4328,,www.haruwenviajes.com,Agencias de viajes,MAIPU,725,MAIPU 725,San Nicolas,Comuna 1,-58.376779,-34.599764
48,Guidi Voyage,48,2021,Tucumán  540 Piso 18  A,4325 2755,,www.bueaddedvalue.com,Agencias de viajes,TUCUMAN,540,TUCUMAN 540,San Nicolas,Comuna 1,-58.374891,-34.601050
47,Guajira,47,2021,Tucumán  677 Piso 6  A,4328 0722,,www.guajira.com.ar,Agencias de viajes,TUCUMAN,677,TUCUMAN 677,San Nicolas,Comuna 1,-58.376339,-34.601074
46,Gaibú,46,2021,Florida  716 Piso 6  D,4322 0075 / 4393 8649,,www.gaibu.com,Agencias de viajes,FLORIDA,716,FLORIDA 716,San Nicolas,Comuna 1,-58.375419,-34.599678
45,Gador Viajes S.R.L.,45,2021,Av. Córdoba 836 Piso 2,4333  307/657,,www.gadorviajes.com.ar,Agencias de viajes,CORDOBA,836,CORDOBA AV. 836,San Nicolas,Comuna 1,-58.378815,-34.599013
44,G.M. Internacional (The Adventure World Argentina),44,2021,Esmeralda  740 Piso 7  702,4393 3549,,,Agencias de viajes,ESMERALDA,740,ESMERALDA 740,San Nicolas,Comuna 1,-58.378282,-34.599597
43,Friendly Visit,43,2021,San Martín  793 Piso 3  E,4312 3435,,www.friendlyvisit.com.ar,Agencias de viajes,SAN MARTIN,793,SAN MARTIN 793,San Nicolas,Comuna 1,-58.374150,-34.598756
42,Flyer Viajes y Turismo,42,2021,Reconquista  621 Piso 8,4313 8224,,www.flyer.com.ar,Agencias de viajes,RECONQUISTA,621,RECONQUISTA 621,San Nicolas,Comuna 1,-58.372578,-34.600564
41,Fly Pass,41,2021,Tacuarí 163 Piso 5 A,4343 4500,,www.flypass.com.ar,Agencias de viajes,TACUARI,163,TACUARI 163,Monserrat,Comuna 1,-58.379184,-34.610135
40,Florida Travel Service,40,2021,Tucumán  540 Piso 10,4325 1452,,www.fts.com.ar/ www.elviajeperfecto.com.ar,Agencias de viajes,TUCUMAN,540,TUCUMAN 540,San Nicolas,Comuna 1,-58.374891,-34.601050
39,Export,39,2021,San Martín  367 Piso 1 PB y,5811 4444 / 4325 1797,,www.exportour.com.ar,Agencias de viajes,SAN MARTIN,367,SAN MARTIN 367,San Nicolas,Comuna 1,-58.373797,-34.603667
38,SPS Expediciones,38,2021,Av. Juan B. Justo  9507,4643 2131,,,Agencias de viajes,JUSTO JUAN B AV,9507,"JUSTO, JUAN B. AV. 9507",Versalles,Comuna 10,-58.524640,-34.634391
37,Espacio Verde,37,2021,Viamonte  1454 Piso 2  G/ H,4374 2222,,www.espacioverde.com.ar,Agencias de viajes,VIAMONTE,1454,VIAMONTE 1454,San Nicolas,Comuna 1,-58.387454,-34.600656
36,Dys Travel,36,2021,Av. Córdoba  836 Piso 8  804,4394 7185 / 0484 / 7081,,www.dystravel.com.ar,Agencias de viajes,CORDOBA,836,CORDOBA AV. 836,San Nicolas,Comuna 1,-58.378815,-34.599013
35,DTS,35,2021,Esmeralda 345 Piso 1 4,4394 6494 / 4219 4851,,www.d-ts.com.ar,Agencias de viajes,ESMERALDA,345,ESMERALDA 345,San Nicolas,Comuna 1,-58.378007,-34.604184
34,Defrantur Argentina,34,2021,Tres Arroyos 3178,4583 4193,,www.defrantur.com,Agencias de viajes,TRES ARROYOS,3178,TRES ARROYOS 3178,Villa Santa Rita,Comuna 11,-58.480129,-34.619349
33,Travel Vips,33,2021,Esmeralda  629 Piso 6  E,4393 4294,,www.travelvips.com.ar,Agencias de viajes,ESMERALDA,629,ESMERALDA 629,San Nicolas,Comuna 1,-58.378156,-34.600811
32,Cynsa Tour Operador,32,2021,Viamonte 610 Piso 1,4322 6665,,www.cynsa.com.ar,Agencias de viajes,VIAMONTE,610,VIAMONTE 610,San Nicolas,Comuna 1,-58.375502,-34.599880
31,Covitour EVT Congresos Viajes y Turismo,31,2021,Freire 1512 PB,4555 0420,,www.covitour.com,Agencias de viajes,"FREIRE, RAMON, CAP. GRAL.",1512,"FREIRE, RAMON, CAP. GRAL. 1512",Colegiales,Comuna 13,-58.458238,-34.572379
30,Cordimar,30,2021,Lavalle 835 Piso 1,5235 0040,,www.cordimar-arg.com,Agencias de viajes,LAVALLE,835,LAVALLE 835,San Nicolas,Comuna 1,-58.378599,-34.602357
29,Consult House Turismo,29,2021,Florida 621 Piso 1 4 y,4315 1900,,www.cht.com.ar,Agencias de viajes,FLORIDA,621,FLORIDA 621,San Nicolas,Comuna 1,-58.375352,-34.600811
28,Conquistar Travel Service,28,2021,Carlos Pellegrini 1061 Piso 5 63 B,4328 5334 / 4322 4133,,www.conquistartravel.com.ar,Agencias de viajes,PELLEGRINI CARLOS,1061,"PELLEGRINI, CARLOS 1061",Retiro,Comuna 1,-58.381376,-34.595936
27,Congresos Internacionales SA,27,2021,Lima  355 PB B,4382 5772,,www.congresosint.com.ar,Agencias de viajes,LIMA,355,LIMA 355,Monserrat,Comuna 1,-58.381841,-34.612703
26,Comarcas,26,2021,Laprida  1380 PB,4821 1876,,www.comarcas.com.ar,Agencias de viajes,LAPRIDA,1380,LAPRIDA 1380,Recoleta,Comuna 2,-58.406516,-34.592875
25,Columbia Viajes SACI Y F,25,2021,Av. Córdoba  875 Piso 2,5281 6851,,www.columbiaviajes.com.ar,Agencias de viajes,CORDOBA,875,CORDOBA AV. 875,Retiro,Comuna 1,-58.379350,-34.598870
24,Camunia Viajes,24,2021,Tucumán  1584 Piso 4  B,4372 4663,,www.camuniaviajes.com.ar,Agencias de viajes,TUCUMAN,1584,TUCUMAN 1584,San Nicolas,Comuna 1,-58.389216,-34.601811
23,Caminos Turismo y Viajes Dpto. Argentina Experience,23,2021,Av. Corrientes 531 Piso 7,5371 5555,,www.caminosturismo.com.ar,Agencias de viajes,CORRIENTES AV,531,CORRIENTES AV. 531,San Nicolas,Comuna 1,-58.374302,-34.603176
22,Buenos Aires Visión,22,2021,Esmeralda  356 Piso 8  28,4394 4682 / 4394 2986,,www.buenosaires-vision.com.ar,Agencias de viajes,ESMERALDA,356,ESMERALDA 356,San Nicolas,Comuna 1,-58.378087,-34.604077
21,Buenos Aires Tur SRL,21,2021,Lavalle 1444 PB 8,4371 2304 / 90 / 9059 / 6655,,www.buenosairestur.com,Agencias de viajes,LAVALLE,1444,LAVALLE 1444,San Nicolas,Comuna 1,-58.387258,-34.602894
20,Beverly Tours- Travel Consultant SRL,20,2021,Maipú  812 Piso 7  G,4315 2925,,www.beverlytours.com.ar,Agencias de viajes,MAIPU,812,MAIPU 812,Retiro,Comuna 1,-58.376890,-34.598514
19,Benim Viajes,19,2021,Esmeralda  740 Piso 15  1506,4322 6865,,www.benimviajes.com.ar,Agencias de viajes,ESMERALDA,740,ESMERALDA 740,San Nicolas,Comuna 1,-58.378282,-34.599597
18,Beachcomber Tours,18,2021,Clay  2864 Piso 4  B,4772 6976,,,Agencias de viajes,CLAY,2864,CLAY 2864,Palermo,Comuna 14,-58.431284,-34.573773
17,Baxxor S.A.,17,2021,Av. Córdoba 755 Piso 1,4000 6300,,www.baxxorsa.com.ar,Agencias de viajes,CORDOBA,755,CORDOBA AV. 755,Retiro,Comuna 1,-58.377789,-34.598789
16,Barry Travel SRL,16,2021,Av. Córdoba  827 Piso 13  B,4314 5451/ 4314 6245 / 4313 2902,,www.barrytravel.com,Agencias de viajes,CORDOBA,827,CORDOBA AV. 827,Retiro,Comuna 1,-58.378731,-34.598844
15,Badino Turismo,15,2021,Paraguay  930 PB,5238 5230,,www.badino.com.ar,Agencias de viajes,PARAGUAY,930,PARAGUAY 930,Retiro,Comuna 1,-58.380256,-34.597785
14,Azeta Viaggi,14,2021,Carlos Pellegrini  1063 Piso 3  A,4327 2545 / 4327 2553 / 4328 273,,www.azeta.com.ar,Agencias de viajes,PELLEGRINI CARLOS,1063,"PELLEGRINI, CARLOS 1063",Retiro,Comuna 1,-58.381376,-34.595936
13,Asatej,13,2021,Florida  835 Piso 2,4114 7500,,www.asatej.net,Agencias de viajes,FLORIDA,835,FLORIDA 835,Retiro,Comuna 1,-58.375333,-34.598317
12,Arles Specials Hotels,12,2021,Maipú  812 Piso 5  E,4315 8555,,www.arlesonline.com,Agencias de viajes,MAIPU,812,MAIPU 812,Retiro,Comuna 1,-58.376890,-34.598514
11,Argentina Now,11,2021,Esmeralda 582 Piso 9 32,5219 0989,,www.argentinanow.com.ar,Agencias de viajes,ESMERALDA,582,ESMERALDA 582,San Nicolas,Comuna 1,-58.378208,-34.601447
10,Argentina Travel Service,10,2021,Suipacha  190 Piso 9  904,4326 2854,,www.aaye.com.ar,Agencias de viajes,SUIPACHA,190,SUIPACHA 190,San Nicolas,Comuna 1,-58.379357,-34.606188
9,Americana,9,2021,Suipacha  831 Piso 2  F,4315 3900 / 3999 / 4311 6603,,www.americana-tour.com.ar,Agencias de viajes,SUIPACHA,831,SUIPACHA 831,Retiro,Comuna 1,-58.379735,-34.598629
8,Amazing Argentina,8,2021,Av. Pte. Roque Sáenz Peña  1119 Piso 9,4381 4922,,www.amazingargentina.com,Agencias de viajes,SAENZ PEÑA ROQUE PRES   AV,1119,"SAENZ PEÑA, ROQUE, PRES. AV. 1119",San Nicolas,Comuna 1,-58.382572,-34.603102
7,Altur Viajes,7,2021,Esmeralda  351 Piso 6  A,4322 2736,,www.alturviajes.com.ar,Agencias de viajes,ESMERALDA,351,ESMERALDA 351,San Nicolas,Comuna 1,-58.378012,-34.604101
6,All Clerc Travel,6,2021,Alicia Moreau De Justo 1780 Piso 2 A,4895  249/1528,,www.allclerc.com.ar,Agencias de viajes,MOREAU DE JUSTO ALICIA AV,1780,"MOREAU DE JUSTO, ALICIA AV. 1780",Puerto Madero,Comuna 1,-58.365544,-34.619018
5,Airsealand,5,2021,Maipú 566 Piso 7 F,4322 0016,,www.aslturismo.com.ar,Agencias de viajes,MAIPU,566,MAIPU 566,San Nicolas,Comuna 1,-58.376774,-34.601613
4,Agaxtur Argentina,4,2021,Florida  375 Piso 3  C,4325 1863/5326,,,Agencias de viajes,FLORIDA,375,FLORIDA 375,San Nicolas,Comuna 1,-58.375153,-34.603670
3,Ads Argentina Destination Service Tour Operator,3,2021,Esmeralda  626 Piso 3  A,54 11 4393 2750,,www.ads-travel.com.ar,Agencias de viajes,ESMERALDA,626,ESMERALDA 626,San Nicolas,Comuna 1,-58.378233,-34.600973
2,Access Argentina Tour Operator,2,2021,Av. Córdoba  669 Piso 11  B,4394 0007,,,Agencias de viajes,CORDOBA,669,CORDOBA AV. 669,Retiro,Comuna 1,-58.376327,-34.598686
1,Acatum Travel,1,2021,Av. Paseo Colón  275 Piso 14,5777 8989,,www.acatumtravel.com.ar,Agencias de viajes,PASEO COLON AV,275,PASEO COLON AV. 275,Monserrat,Comuna 1,-58.369831,-34.610899
