id,nombre,domicilio,telefono,email,web,tipo,calle,altura,direccion,Long,Lat
665,BOLIVAR,BOLIVAR 886,4361 5105,reservas@hotel-bolivar.com.ar,http://www.hotel-bolivar.com.ar/,Boutique,BOLIVAR,886,BOLIVAR 886,-58.373013,-34.618212
664,SANTA MARIA DE LA SALUD,PERU 1022,4307-9593,info@paradorbue.com,http://www.paradorbue.com/,Boutique,PERU,1022,PERU 1022,-58.374235,-34.619917
663,SPLENDID,BELGRANO AV. 2688,4943-0031,ventas@hotel-splendid.com.ar,http://www.hotel-splendid.com.ar/,Bed & Breakfast,BELGRANO ,2688,BELGRANO 2688,-58.403906,-34.614665
662,LA CASA DEL MÉDICO,BELGRANO AV. 1235,4383-8414,info@lacasadelmedico.com.ar,WWW.LACASADELMEDICO.COM.AR,Hotel sindical,AV. BELGRANO ,1235,AV. BELGRANO 1235,-58.383766,-34.613187
661,HOTEL 26 DE JULIO,HUMBERTO 1° 1712,4305-3030,hotel26dejulio@judiciales.org.ar,,Hotel sindical,HUMBERTO 1 ,1712,HUMBERTO 1 1712,-58.390315,-34.621526
660,OBRA SOCIAL DEL PERSONAL DE LA SANIDAD ARGENTINA,DEAN FUNES 1241,4943-0053,hotelesfattsa@sanidad.org.ar,,Hotel sindical,DEAN FUNES ,1241,DEAN FUNES 1241,-58.405771,-34.624972
659,OBRA SOCIAL DE LA ACTIVIDAD MINERA OSAM,ESTADOS UNIDOS 4037,4902-5983,obrasocial@aomaosam.org.ar,,Hotel sindical,EEUU ,4037,EEUU 4037,-58.422599,-34.623005
658,HOTEL TELEPOSTAL EVA PERON,RINCON 153,4951-6923,reservas@hotelpostal.com.ar,,Hotel sindical,RINCON,153,RINCON 153,-58.396239,-34.611212
657,HOTEL AOMA BUENOS AIRES,ESTADOS UNIDOS 4049,4931-8947,reservas@hotelamabsas.com.ar,,Hotel sindical,ESTADOS UNIDOS ,4049,ESTADOS UNIDOS 4049,-58.422713,-34.623019
656,HOTEL 11 DE OCTUBRE,GALLO 513,4862-1838,hotel@hotel11deoctubre.com.ar,,Hotel sindical,GALLO,513,GALLO 513,-58.412870,-34.603044
655,HOTEL DE LAS PROVINCIAS,"MITRE, BARTOLOME 2135",1152779000,hoteldelasprovincias@faecys.org.ar,,Hotel sindical,BARTOLOME MITRE,2135,"MITRE, BARTOLOME 2135",-58.396890,-34.608270
654,CIRCULO DE SUBOFICIALES DE GENDARMERIA NACIONAL ARGENTINA,TACUARI 566,4334-0232,cirsubonhoteltacuari@yaqhoo.com.ar,,Hotel sindical,TACUARI,566,TACUARI 566,-58.378907,-34.614791
653,CHUBUT HOTEL,CHILE 1540,4383-7077,hotel@hotelchubut.com.ar,http://www.issys.gov.ar/index.php/chubut-hotel-capital-federal,Hotel sindical,CHILE,1540,CHILE 1540,-58.388171,-34.616752
652,HOTEL EVA PERON,CORDOBA AV. 3418,4863-1744,aatrac@infovia.com.ar,,Hotel sindical,CORDOBA,3418,CORDOBA AV. 3418,-58.415039,-34.597969
651,CIRCULO MILITAR,SANTA FE AV. 760,4311-1071,alojamiento@circulomilitar.org,,Hotel sindical,SANTA FE,760,SANTA FE AV. 760,-58.377616,-34.595373
650,HOTEL 27 DE JUNIO ATE,DEFENSA 1469,4361-9697,,,Hotel sindical,DEFENSA,1469,DEFENSA 1469,-58.371175,-34.624986
649,HOTEL BUENOS AIRES,SUIPACHA 854,4328-8426,info@hotelbuenosaires.com.ar,http://www.hotelbuenosaires.com.ar/,Hotel sindical,SUIPACHA,854,SUIPACHA 854,-58.379834,-34.598353
648,HOTEL DEL SOL,ESMERALDA 645,4393-1031,hoteldelsol@lacoloniabp.com.ar,,Hotel sindical,ESMERALDA,645,ESMERALDA 645,-58.378161,-34.600593
647,U.T.H.G.R.A. ESCUELA 2 DE AGOSTO,TUCUMAN 2214,4951-3681/ 6749,hotelcapital@uthgra.org.ar,www.uthgraturismo.com.ar,Hotel sindical,TUCUMAN,2214,TUCUMAN 2214,-58.398749,-34.602244
646,HOTEL ESCORIAL,SALTA 92,4383-6540,hotelescorial@faecys.org.ar,,Hotel sindical,SALTA,92,SALTA 92,-58.383394,-34.609539
645,CIRGEN,PARAGUAY 970,5235-0085,turismo@ciergen.org.ar,http://www.cirgen.org.ar/hotel.php,Hotel sindical,PARAGUAY,970,PARAGUAY 970,-58.380811,-34.597829
644,HOTEL 5 DE OCTUBRE,"MANSILLA, LUCIO NORBERTO, GENERAL 2811",4824-7065,hotel5deoctubre@outlook.com.ar,,Hotel sindical,MANSILLA,2811,"MANSILLA, LUCIO NORBERTO, GENERAL 2811",-58.406917,-34.595271
643,HOTEL 20 DE SETIEMBRE,"URQUIZA, GRAL. 250",4932-7403,hotel_cap@hotmail.com,,Hotel sindical,URQUIZA,250,"URQUIZA, GRAL. 250",-58.409978,-34.613336
642,HOSTEL BS AS,RIVADAVIA AV. 3182,4861-1176,,,Hostel,RIVADAVIA,3182,RIVADAVIA AV. 3182,-58.411357,-34.610585
641,BACANA TANGO HOME,"PIEDRAS 1162,""A""",4307-7358,info@bacanatango.com.ar,http://www.bacanatango.com.ar/,Hostel,PIEDRAS,1162,PIEDRAS 1162,-58.377182,-34.621500
640,CAMBALACHE HOSTEL,RIVADAVIA AV. 1709,4373-1457,info@hostelcambalache.com.ar,http://www.hostelcambalache.com.ar/,Hostel,RIVADAVIA,1709,, , 
639,HOSTEL PUNTO CERO,RIVADAVIA AV. 1777,4371-0072,reservas@hostelpuntocero.com,http://www.hoteldoscongresos.com/,Hostel,RIVADAVIA,1777,, , 
638,DON KING,"RUGGIERI, SILVIO L. 2785",4805-6026,,http://www.donkinghostel.com.ar/,Hostel,RUGGIERI,2785,"RUGGIERI, SILVIO L. 2785",-58.407734,-34.581912
637,GUEMES Y ORO HOSTEL,GUEMES 4802,4773-7612,,http://guemesyorohostel.com.ar/,Hostel,GUEMES 4802,4802,, , 
636,URBAN 011,MAIPU 208,5031-2899,reservas@urban011.com,http://www.urban011.com/,Hostel,MAIPU,208,MAIPU 208,-58.376579,-34.605720
635,DOGO HOSTEL,"CABRERA, JOSE A. 4716",3968-7800,info@dogohostel.com,http://dogohostel.com/,Hostel,CABRERA,4716,"CABRERA, JOSE A. 4716",-58.429480,-34.592020
634,ADVENTURE BAIRES HOSTEL,"LAVALLE 477,1º",5217-3344,adventurehoselba@gmail.com,,Hostel,LAVALLE,477,LAVALLE 477,-58.373691,-34.602088
633,LOARA,ESTADOS UNIDOS 842,4361-8192,info@loarashostel.com,www.loarashostel.com,Hostel,EEUU,842,ESTADOS UNIDOS 842,-58.377905,-34.618572
632,VIEJO TELMO,MEXICO 974,4342-2666,telmoviejo@gmail.com,,Hostel,MEXICO,974,MEXICO 974,-58.379849,-34.615246
631,PLAY HOSTEL,GUATEMALA 4636,4832-4257,info@playhostel.com,http://www.playhostel.com/,Hostel,GUATEMALA,4636,GUATEMALA 4636,-58.424077,-34.586701
630,HOSTEL SUITES FLORIDAS,FLORIDA 328,4393-1397,info@hostelsuites.com,http://florida.hostelsuites.com/sp/,Hostel,FLORIDA,328,FLORIDA 328,-58.375242,-34.604196
629,MAGANDHI HOSTEL,OLAZABAL AV. 3691,4544-4007,magandhi_hostel@hotmail.com,http://www.magandhi-hostel.com.ar/1/,Hostel,OLAZABAL,3691,OLAZABAL AV. 3691,-58.471808,-34.568152
628,ECO PAMPA HOSTEL,GUATEMALA 4778,4831-2435,ecoinfo@hostelpampa.com.ar,http://www.hostelpampa.com.ar/,Hostel,GUATEMALA,4778,GUATEMALA 4778,-58.425202,-34.585815
627,REINA MADRE HOSTEL,"ANCHORENA, TOMAS MANUEL DE, DR. 1118",4962-5553,reinamadre@rmhostel.com,http://www.rmhostel.com/,Hostel,T M DE ANCHORENA,1118,"ANCHORENA, TOMAS MANUEL DE, DR. 1118",-58.407291,-34.596365
626,HOTEL EGIPTO,CORRIENTES AV. 3193,4863-0808,info@hotelegipto.com.ar,http://www.hotelegipto.com.ar/,Hostel,CORRIENTES,3193,CORRIENTES AV. 3193,-58.410136,-34.603950
625,CIRCUS,CHACABUCO 1020,4300-4983,info@hostelcircus.com,http://hostelcircus.com/es/,Hostel,CHACABUCO,1020,CHACABUCO 1020,-58.375762,-34.619989
624,BELLO HOSTEL,NAVARRO 3090,4502-0458,info@bellohostel.com.ar,http://www.bellohostel.com/,Hostel,NAVARRO,3090,NAVARRO 3090,-58.497315,-34.595753
623,LIVIAN GUEST HOUSE,ESTADO DE PALESTINA 1184,4802-8841,info@livianguesthouse.com,http://www.livianguesthouse.com.ar/,Hostel,PALESTINA,1184,ESTADO DE PALESTINA 1184,-58.424482,-34.596454
622,SPOT BS AS,GUARDIA VIEJA 3532,4867-6797,,,Hostel,GUARDIA VIEJA,3532,GUARDIA VIEJA 3532,-58.414620,-34.602035
621,TANGO,CHACABUCO 747,4300-2420,info@hosteltangoargentina.com,http://www.hosteltangoargentina.com/ES/index.html,Hostel,CHACABUCO,747,CHACABUCO 747,-58.375984,-34.616838
620,ART FACTORY,PIEDRAS 545,4343-1463,info@artfactoryba.com.ar,http://artfactoryba.com.ar/,Hostel,PIEDRAS,545,PIEDRAS 545,-58.377557,-34.614492
619,SABATICO TRAVELERS HOSTEL,MEXICO 1410,4381-1138,info@sabaticohostel.com.ar,http://www.sabaticohostel.com.ar/,Hostel,MEXICO,1410,MEXICO 1410,-58.386133,-34.615541
618,PETIT RECOLETA HOSTEL,"URIBURU JOSE E., PRES. 1183",4823-3848,info@petitrecoleta.com,http://www.petitrecoleta.com/,Hostel,URIBURU,1183,"URIBURU JOSE E., PRES. 1183",-58.398124,-34.594535
617,HOSTEL VIVAC,"YRIGOYEN, HIPOLITO AV. 4109",4958-2342,info@vivachostel.com.ar,http://www.vivachostel.com.ar/,Hostel,YRIGOYEN,4109,"YRIGOYEN, HIPOLITO AV. 4109",-58.424779,-34.614776
616,AYRES DE TANGO HOSTEL,"MITRE, BARTOLOME 2388",4951-0641,info@hostelmotango.com,http://www.hostelmotango.com/index.php,Hostel,BARTOLOME MITRE,2388,"MITRE, BARTOLOME 2388",-58.400309,-34.608580
615,KILOMETRO CERO ROCK HOSTEL,RIVADAVIA AV. 1587,4382-6345,info@rockhostel.com.ar,http://www.rockhostel.com.ar/,Hostel,RIVADAVIA,1587,, , 
614,RANCHO URBANO HOSTEL,CORRIENTES AV. 4139,4863-6636,,http://r-urbano.com.ar/,Hostel,CORRIENTES,4139,CORRIENTES AV. 4139,-58.423091,-34.602876
613,HOSTEL PARADA,RIVADAVIA AV. 1291,4381-6399,info@hostelparada.com,www.hostelparada.com.ar,Hostel,RIVADAVIA,1291,, , 
612,ZENTRUM,COSTA RICA 4520,4833-9518,,,Hostel,COSTA RICA,4520,COSTA RICA 4520,-58.425437,-34.589294
611,MILHOUSE AVENUE,DE MAYO AV. 1245,4383-9383,info@milhousehostel.com,www.milhousehostel.com,Hostel,DE MAYO,1245,DE MAYO AV. 1245,-58.384145,-34.609160
610,HOSTEL EN BS AS,TUCUMAN 2021,4374-4301,,,Hostel,TUCUMAN,2021,TUCUMAN 2021,-58.395974,-34.602132
609,AMERICA DEL SUR,CHACABUCO 718,4300-5525,baires@americahostel.com.ar,www.americahostel.com.ar,Hostel,CHACABUCO,718,CHACABUCO 718,-58.375933,-34.616498
608,DOWTOWN BA HOSTEL,MAIPU 556,4393-4072,,,Hostel,MAIPU,556,MAIPU 556,-58.376771,-34.601682
607,HOSTEL ONE,BOLIVAR 1356,4300-9322,info@santelmohouse.com,WWW.HOSTELONE.COM,Hostel,BOLIVAR,1356,BOLIVAR 1356,-58.372664,-34.623777
606,SUITES PALERMO,CHARCAS 4752,4773-0806,info@hostelsuites.com,http://palermo.hostelsuites.com/sp/,Hostel,CHARCAS,4752,CHARCAS 4752,-58.426758,-34.581042
605,HOSTEL SUITES OBELISCO,CORRIENTES AV. 830,4328-4040,,WWW.HOSTELSUITES.COM,Hostel,CORRIENTES,830,CORRIENTES AV. 830,-58.378519,-34.603602
604,VIA VIA BUENOS AIRES,CHILE AV. 324,4300-7259,,,Hostel,CHILE,324,CHILE AV. 324,-58.370703,-34.615970
603,BORGES DESING HOSTEL,PARAGUAY 4539,4774-6910,reservas@borgeshostel.com,http://borgeshostel.com/es/,Hostel,PARAGUAY,4539,PARAGUAY 4539,-58.424618,-34.584308
602,EXTREMO SUR HSOTEL,FINOCHIETTO ENRIQUE DR. 473,4300-8943,,WWW.ESHOSTEL.COM.AR,Hostel,DR E FINOCHIETTO,473,FINOCHIETTO ENRIQUE DR. 473,-58.371963,-34.628147
601,HOSTEL ESTANCION BUENOS AIRES,SOLIS 458,4381-0734,info@hostelestacionbuenosaires.com,http://www.hostelestacionbuenosaires.com/,Hostel,SOLIS,458,SOLIS 458,-58.390380,-34.614362
600,PUERTO LIMON,CHACABUCO 1080,4361-9649,info@puertolimonhostel.com,http://puertolimonhostel.com/,Hostel,CHACABUCO,1080,CHACABUCO 1080,-58.375720,-34.620595
599,TERCERO DEL SUR,CHILE AV. 368,4300-6819,tercerodelsurhostal@gmail.com,,Hostel,CHILE,368,CHILE AV. 368,-58.371295,-34.616010
598,KILCA,MEXICO 1545,4381-1966,kilcahostel@hotmail.com,http://www.kilcabackpacker.com/index.php/es/,Hostel,MEXICO,1545,MEXICO 1545,-58.388195,-34.615509
597,CHE ARGENTINA HOSTEL,PIEDRAS 708,4307-6287,rsv@cheargentinahostel.com.ar,http://www.cheargentinahostel.com.ar/,Hostel,PIEDRAS,708,PIEDRAS 708,-58.377386,-34.616384
596,BACK IN BA,EL SALVADOR 5115,4774-2859,info@backinba.com,http://www.backinba.com/,Hostel,EL SALVADOR,5115,EL SALVADOR 5115,-58.431253,-34.586560
595,LA TABA,ESTADO DE ISRAEL AV. 4809,4854-4584,info@latabahostel.com.ar,http://www.latabahostel.com.ar/,Hostel,ESTADO DE ISRAEL,4809,ESTADO DE ISRAEL AV. 4809,-58.432024,-34.601710
594,THE RECOLETA HOSTEL,LIBERTAD 1216,4812-4419,info@hirecoleta.com.ar,www.hirecoleta.com.ar,Hostel,LIBERTAD,1216,LIBERTAD 1216,-58.384476,-34.594176
593,HOSTEL GARDEN HOUSE,SAN JUAN AV. 1271,4304-1824,info@gardenhouse.com.ar,http://www.gardenhouseba.com.ar/v3/,Hostel,SAN JUAN,1271,SAN JUAN AV. 1271,-58.384100,-34.622209
592,HOSTAL EL CANDIL,LERMA 476,15-3604-3397,info@hostalelcandil.com,http://www.hosteltrail.com/hostels/hostalelcandil,Hostel,LERMA,476,LERMA 476,-58.431905,-34.594393
591,OSTINATTO HOSTEL,CHILE 680,4362-9639,info@ostinatto.com.ar,http://www.ostinatto.com/,Hostel,CHILE,680,CHILE 680,-58.375687,-34.616217
590,HOSTEL COLONIAL,TUCUMAN 509,4312-6417,info@hostelcolonia.com.ar,http://www.hostelcolonial.com.ar/es/home/,Hostel,TUCUMAN,509,TUCUMAN 509,-58.374120,-34.600939
589,END OF THE WORLD,LA RIOJA 970,4957-8291,boedo@ewhostels.com,,Hostel,LA RIOJA,970,LA RIOJA 970,-58.407390,-34.621630
588,HOSTEL SOL,LIMA 1169,4304-3019,info@06centralhostel.com,http://www.06centralhostel.com/,Hostel,LIMA,1169,LIMA 1169,-58.381505,-34.621761
587,06 CENTRAL HOSTEL,MAIPU 306,5219-0052,info@06centralhostel.com,,Hostel,MAIPU,306,MAIPU 306,-58.376634,-34.604538
586,TANGUERA HOSTEL,CHILE 657,4361-9147,tanguerahostel@hotmail.com,http://www.tanguerahostel.com.ar/,Hostel,CHILE,657,CHILE 657,-58.375347,-34.616112
585,MANTENGASE HOSTEL,"CALVO, CARLOS 651",4362-4064,info@mantengase.com,,Hostel,CARLOS CALVO,651,"CALVO, CARLOS 651",-58.375135,-34.619650
584,PALERMO SOHO,NICARAGUA 4728,4833-0151,info@palermosohohostel.com.ar,http://www.palermosohohostel.com.ar/,Hostel,NICARAGUA,4728,NICARAGUA 4728,-58.426581,-34.587157
583,SOHOSTEL,CHARCAS 4416,4779-2949,info@sohostel.com.ar,http://www.sohostel.com.ar/,Hostel,CHARCAS,4416,CHARCAS 4416,-58.424205,-34.582946
582,MILONGA BED AND BREAKFAST HOTEL,AGUERO 1389,4825-7217,info@milongabnb.com,,Hostel,AGÜERO,1389,AGUERO 1389,-58.408506,-34.593336
581,REPUBLICA PALERMO HOTEL,COSTA RICA 4828,4833-5834,republicapalermo@gmail.com,http://www.republicapalermo.com/,Hostel,COSTA RICA,4828,COSTA RICA 4828,-58.428549,-34.587208
580,SUDAMERIKA HOSTEL,"YRIGOYEN, HIPOLITO 951",4342-3053,info@sudamerikahostel.com.ar,http://www.sudamerikahostel.com.ar/,Hostel,HIPOLITO YRIGOYEN,951,"YRIGOYEN, HIPOLITO 951",-58.379771,-34.609507
579,MI BUENOS AIRES DIVINO,MEDRANO AV. 821,4867-3077,mihosteldivino@yahoo.com.ar,,Hostel,MEDRANO,821,MEDRANO AV. 821,-58.420506,-34.600478
578,LA ROCCA HOSTEL,CALLAO AV. 341,4372-8898,laroccapropiedades@gmail.com,http://www.laroccahostel.com/,Hostel,CALLAO,341,CALLAO AV. 341,-58.392142,-34.605102
577,HOSTEL PLAZA,CORRIENTES AV. 3973,4865-0100,info@hostelplaza.com.ar,,Hostel,CORRIENTES,3973,CORRIENTES AV. 3973,-58.420532,-34.603133
576,THE DOWNTOWN MATE HOSTEL,RIVADAVIA AV. 1181,4381-0647,,http://www.downtownmate.com.ar/,Hostel,RIVADAVIA,1181,, , 
575,EL SOL HOSTEL,"ALVEAR, MARCELO T. DE 1590,2 piso",4811-6802,info@elsolrecoleta.com.ar,http://www.elsolrecoleta.com.ar/,Hostel,MARCELO T DE ALVEAR,1590,"ALVEAR, MARCELO T. DE 1590",-58.389618,-34.597230
574,PAMPA HOSTEL,IBERA 2858,4544-2273,info@hostelpampa.com.ar,www.hostelpampa.com.ar,Hostel,IBERA,2858,IBERA 2858,-58.468490,-34.555766
573,HOSTEL  INN,HUMBERTO 1° 820,4300-7992,buenosaires@hostel-inn.com,http://hostel-inn.com/inicio/hostels/hostel-inn-buenos-aires/,Hostel,HUMBERTO PRIMO,820,HUMBERTO 1° 820,-58.377580,-34.620915
572,TELMOTANGO,CHACABUCO 679,4361-5808,info@hostelmotango.com,http://www.hostelmotango.com/,Hostel,CHACABUCO,679,CHACABUCO 679,-58.376037,-34.615950
571,LIME HOUSE YOUTH HOSTEL,LIMA 11,4383-4561,limehouseyh@gmail.com,http://www.limehouse.com.ar/,Hostel,LIMA,11,LIMA 11,-58.382019,-34.608607
570,HOSTAL DE GRANADOS,CHILE AV. 374,4362-5600,reservasgranados@gmail.com,http://www.hostaldegranados.com.ar/,Hostel,CHILE,374,CHILE AV. 374,-58.371382,-34.616016
569,PORTAL DEL SUR,"YRIGOYEN, HIPOLITO 855",4342-8788,reservas@portaldelsurba.com.ar,http://portaldelsurba.com.ar/,Hostel,HIPOLITO YRIGOYEN,855,"YRIGOYEN, HIPOLITO 855",-58.378525,-34.609417
568,HOTEL ESTORIL,DE MAYO AV. 1385,4382-9684,info@hostelestoril.com,http://www.hostelestoril3.com/,Hostel,DE MAYO,1385,DE MAYO AV. 1385,-58.386047,-34.609368
567,BA STOP HOTEL,RIVADAVIA AV. 1194,011 6091-2156,info@bastop.com,http://bastop.com/,Hostel,RIVADAVIA,1194,, , 
566,MILONGA HOSTEL,AYACUCHO 921,4815-1827,info@milongahostel.com.ar,http://milongahostel.com.ar/,Hostel,AYACUCHO,921,AYACUCHO 921,-58.395890,-34.598399
565,MILHOUSE,"YRIGOYEN, HIPOLITO 959",4345-9604,info@milhousehostel.com,http://milhousehostel.com/es/,Hostel,HIPOLITO YRIGOYEN,959,"YRIGOYEN, HIPOLITO 959",-58.379945,-34.609521
564,V & S HOSTEL,VIAMONTE 887,4322-0994,HOSTELCLUB@HOSTELCLUB.COM,http://www.hostelclub.com/,Hostel,VIAMONTE,887,VIAMONTE 887,-58.379466,-34.600098
563,PETIT HOTEL SANTA ISABEL,"MITRE, BARTOLOME 1192,2º B",4381-8691,,,Hospedaje,BARTOLOME MITRE,1192,"MITRE, BARTOLOME 1192",-58.383365,-34.607458
562,HOTEL CHIPRE,PERU 1053,4362-5665,,http://www.ba-h.com.ar/chipre-san-telmo-hostel.htm#.WAjISeXhAdV,Hospedaje,PERU,1053,PERU 1053,-58.374325,-34.620250
561,HOTEL YINZO,REPUBLICA BOLIVARIANA DE VENEZUELA 1767,4382-4082,hotelyinzo@yahoo.com.ar,http://www.hotelyinzo.com.ar/,Hospedaje,VENEZUELA,1767,REPUBLICA BOLIVARIANA DE VENEZUELA 1767,-58.391310,-34.614856
560,HOTEL NUEVO CAMINO,"MITRE, BARTOLOME 1907",4952-6266,hotelnuevocamino@gmail.com,www.hotelnuevocamino.com.ar,Hospedaje,BARTOLOME MITRE,1907,"MITRE, BARTOLOME 1907",-58.393696,-34.608032
559,BIARRITZ,AMENABAR 615,4553-7408,reservas@biarritzhotel.com.ar,http://www.biarritzhotel.com.ar/,Hospedaje,AMENABAR,615,AMENABAR 615,-58.445639,-34.572826
558,HOTEL SAN ROMAN,MORENO 1133,4383-2318,contacto@hotesanroman.com.ar,http://www.hotelsanroman.com.ar/,Hospedaje,MORENO,1133,MORENO 1133,-58.382320,-34.611923
557,DEVOTO HOTEL,"CARRIL, SALVADOR MARIA DEL AV. 4958",4505-2020,info@devotohotel.com,http://www.devotohotel.com/,Hospedaje,SALVADOR MARIA DEL CARRIL,4958,"CARRIL, SALVADOR MARIA DEL AV. 4958",-58.524285,-34.607019
556,HOSTEL COSME,BRASIL 921,4300-0445,info@hotelcosme.com.ar,www.hotelcosme.com.ar,Hospedaje,BRASIL,0,, , 
555,HOTEL CENTRAL,BRASIL 1327,4304-3783,,,Hospedaje,BRASIL,1327,BRASIL 1327,-58.384776,-34.628218
554,HOTEL ALSINA,24 DE NOVIEMBRE 190,4931-9393,,,Hospedaje,24 DE NOVIEMBRE,190,24 DE NOVIEMBRE 190,-58.411446,-34.612904
553,DERBY HOTEL,"URIBURU JOSE E., PRES. 265",4953-0582,,http://www.derbyhome-hotel.com.ar/,Hospedaje,URIBURU,265,"URIBURU JOSE E., PRES. 265",-58.397879,-34.606550
552,HOTEL DEL PRADO,PARAGUAY 2385,4961-1192,reservas@hoteldelprado-ba.com.ar,http://www.hoteldelprado-ba.com.ar/,Hospedaje,PARAGUAY,2385,PARAGUAY 2385,-58.401761,-34.597787
551,HOTEL WENDY,BRASIL 1334,4304-1896,,,Hospedaje,BRASIL,1334,BRASIL 1334,-58.384908,-34.628325
550,MUNDO HOTEL,"MITRE, BARTOLOME 1671",4373-8709,mundo@yahoo.com.ar,,Hospedaje,BARTOLOME MITRE,1671,"MITRE, BARTOLOME 1671",-58.390270,-34.607854
549,HOTEL CAOCA,"MITRE, BARTOLOME 1688",4383-9950,info@hotelcaoca.com.ar,,Hospedaje,BARTOLOME MITRE,1688,"MITRE, BARTOLOME 1688",-58.390437,-34.607923
548,HOTEL NUEVA ESPAÑA,LA RIOJA 193,4932-3992,,,Hospedaje,LA RIOJA,193,LA RIOJA 193,-58.408774,-34.612507
547,HOTEL ITALIA,GASCON 495,0221 558-0204,,,Hospedaje,GASCON,495,GASCON 495,-58.424514,-34.606079
546,HOTEL EL FAMILIAR,"MITRE, BARTOLOME 2632",4954-3902,,,Hospedaje,BARTOLOME MITRE,2632,"MITRE, BARTOLOME 2632",-58.403859,-34.608760
545,HOTEL ALMAFI,"SAENZ PEÑA, LUIS, PRES. 947",4305-3890,amalfi.hotel1@gmail.com,,Hospedaje,LUIS SAENZ PEÑA,947,"SAENZ PEÑA, LUIS, PRES. 947",-58.387383,-34.619329
544,HOTEL MINERVA,"CALVO, CARLOS 1434",4306-0851,,http://www.hotel-minerva.com.ar/,Hospedaje,CARLOS CALVO,1434,"CALVO, CARLOS 1434",-58.386347,-34.619938
543,HOTEL AMBAR,JUNIN 62,4953-1736,,,Hospedaje,JUNIN,62,JUNIN 62,-58.396398,-34.608718
542,HOTEL MARFIL,ECUADOR 282,4861-1570,,,Hospedaje,ECUADOR,282,ECUADOR 282,-58.408954,-34.607066
541,HOTEL ORLEANS,CALLAO AV. 680,4812-9342,consultas@orleanshotel.com.ar,http://www.orleanshotel.com.ar/,Hospedaje,CALLAO,680,CALLAO AV. 680,-58.392833,-34.601083
540,HOTEL JARDIN,CATAMARCA 895,4931-7530,,,Hospedaje,CATAMARCA,895,CATAMARCA 895,-58.404872,-34.620093
539,HOTEL HELEN,CONDARCO 552,4611-2862,,,Hospedaje,CONDARCO,552,CONDARCO 552,-58.469184,-34.624917
538,COSTA AZUL,"ALBERDI, JUAN BAUTISTA AV. 3327",4612-5983,,http://www.hotel-en-flores.com.ar/,Hospedaje,JUAN BAUTISTA ALBERDI,3327,"ALBERDI, JUAN BAUTISTA AV. 3327",-58.473749,-34.634911
537,HOTEL PAPI,AVELLANEDA AV. 2821,4611-8177,contacto@hotelpapi.com.ar,http://www.hotelpapi.com.ar/,Hospedaje,AVELLANEDA,2821,AVELLANEDA AV. 2821,-58.470638,-34.625992
536,HOTEL HERCULES 78,COCHABAMBA 1236,4304-6306,,,Hospedaje,COCHABAMBA,1236,COCHABAMBA 1236,-58.383486,-34.623981
535,HOTELM IBERIA,CIUDADELA 1272,4305-7061,,,Hospedaje,CIUDADELA,1272,CIUDADELA 1272,-58.383927,-34.627541
534,HOTEL A. B. C. De Nuqez Jose Y Nuqez Beatriz S.H,SANTIAGO DEL ESTERO 1640,4304-2706,,,Hospedaje,SANTIAGO DEL ESTERO,1640,SANTIAGO DEL ESTERO 1640,-58.384306,-34.627440
533,CARLOS I,"CALVO, CARLOS 1463",4305-3700,,,Hospedaje,CARLOS CALVO,1463,"CALVO, CARLOS 1463",-58.386771,-34.619881
532,CARLY,HUMBERTO 1° 466,4361-7710,,http://hotel-carly-buenos-aires.bedspro.com/es/,Hospedaje,HUMBERTO PRIMO,466,HUMBERTO 1° 466,-58.372379,-34.620731
531,HOTEL MIRAMAR,SALTA 1429,4306-6038,,,Hospedaje,SALTA,1429,SALTA 1429,-58.382977,-34.625102
530,HOTEL AUTOPISTA,SALTA 1444,4306-0186,,,Hospedaje,SALTA,1444,SALTA 1444,-58.382854,-34.625226
529,HOTEL 9 DE JULIO,LIMA 1417,4305-3967,,,Hospedaje,LIMA,1417,LIMA 1417,-58.382543,-34.624999
528,GRAN HOTEL HISPANO-ARGENTINO,LIMA 1483,4304-5855,,,Hospedaje,LIMA,1483,LIMA 1483,-58.382362,-34.625665
527,BRISAS DEL MAR,HUMBERTO 1° 826,4300-0040,,http://www.hotelbrisasdelmar.com.ar/,Hospedaje,HUMBERTO PRIMO,826,HUMBERTO 1° 826,-58.377640,-34.620915
526,SANTA CRUZ,BOGOTA 2858,4611-2133,hotelsantacruz@gmail.com,http://www.hotelsanta-cruz.com.ar/,Hospedaje,BOGOTA,2858,BOGOTA 2858,-58.470373,-34.627234
525,HOTEL PARIS,"ALVAREZ, DONATO, TTE. GRAL. AV. 2141",4581-0400,aldanaofelia@outlok.com,,Hospedaje,DONATO ALVAREZ,2141,"ALVAREZ, DONATO, TTE. GRAL. AV. 2141",-58.465176,-34.602379
524,HOTEL CIBELLES,"CEVALLOS, VIRREY 264",4373-1444,hotelcibeles@hotmail.com.ar,,Hospedaje,VIRREY CEVALLOS,264,"CEVALLOS, VIRREY 264",-58.388889,-34.612035
523,HOTEL SEVILLA,SOLIS 138,,,,Hospedaje,SOLIS,138,SOLIS 138,-58.390339,-34.610676
522,HOTEL ANCON,"ALVEAR, MARCELO T. DE 2223",4824-0338,hotelancon@hotelancon.com.ar,,Hospedaje,MARCELO T DE ALVEAR,2223,"ALVEAR, MARCELO T. DE 2223",-58.399221,-34.596943
521,HOTEL MIÑO,GALLO 1258,4962-3673,rodavalho@ciudad.com.ar,http://www.hotelmino.com.ar/,Hospedaje,GALLO,1258,GALLO 1258,-58.411391,-34.595718
520,HOTEL CENTRAL ARGENTINO,DEL LIBERTADOR AV. 174,4312-6742,hotelcen@ciudad.com.ar,,Hospedaje,DEL LIBERTADOR,174,DEL LIBERTADOR AV. 174,-58.376312,-34.592338
519,RESIDENCIA GODOY CRUZ,GODOY CRUZ 2944,4772-3000,residencia@amcirse.org.ar,,Hospedaje,GODOY CRUZ,2944,GODOY CRUZ 2944,-58.423159,-34.576324
518,HOTEL SAN MARTIN,CALLAO AV. 327,4371-6450,hotelsanmartin1@yahoo.com.ar,,Hospedaje,CALLAO,327,CALLAO AV. 327,-58.392120,-34.605393
517,HOTEL GRAN SARMIENTO,SARMIENTO 1892,4374-2764,hotelgransarmiento@infovia.com.ar,http://www.hotelgransarmientoba.com/,Hospedaje,SARMIENTO,1892,SARMIENTO 1892,-58.393456,-34.605774
516,HOTEL REY SA,COMBATE DE LOS POZOS 469,4942-8412,info@hotel-rey.com.ar,http://www.hotel-rey.com.ar/,Hospedaje,COMBATE DE LOS POZOS,469,COMBATE DE LOS POZOS 469,-58.393266,-34.614717
515,HOTEL O'REI,LAVALLE 733,4393-7186,info@hotelorei.com.ar,http://www.hotelorei.com.ar/,Hospedaje,LAVALLE,733,LAVALLE 733,-58.377167,-34.602326
514,HOTEL COLONIAL,24 DE NOVIEMBRE 229,4931-3104,,http://www.hotelcolonialbaires.com.ar/,Hospedaje,24 DE NOVIEMBRE,229,24 DE NOVIEMBRE 229,-58.411445,-34.613466
513,JUNCAL PALACE HOTEL,JUNCAL 2282,4821-2770,,,Hospedaje,JUNCAL,2282,JUNCAL 2282,-58.399665,-34.592166
512,HOTEL VESUVIO,RIVADAVIA AV. 2548,4951-4715,,,Hospedaje,RIVADAVIA,2548,RIVADAVIA AV. 2548,-58.402508,-34.610005
511,HOTEL AZUL,"YRIGOYEN, HIPOLITO 2952",4931-1153,hazul.bsas@gmail.com,,Hospedaje,HIPOLITO YRIGOYEN,2952,"YRIGOYEN, HIPOLITO 2952",-58.408075,-34.611458
510,HOTEL BAHIA,"YRIGOYEN, HIPOLITO 3062",4931-7198,info@elhotelbahia.com.ar,http://www.elhotelbahia.com.ar/Inicio.htm,Hospedaje,HIPOLITO YRIGOYEN,3062,"YRIGOYEN, HIPOLITO 3062",-58.409688,-34.611529
509,HOTEL GRAN VIA,SARMIENTO 1450,4371-5763,info@hotelgranvia.com.ar,http://www.hotelgranvia.com.ar/es/index.php,Hospedaje,SARMIENTO,1450,SARMIENTO 1450,-58.387137,-34.605353
508,HOTEL MONTMARTRE,SALTA 1173,4304-4763,,,Hospedaje,SALTA,1173,SALTA 1173,-58.383017,-34.621845
507,HOTEL ODEON,HUMBERTO 1° 1257,4304-3347,hotelodeon@hotmail.com,http://www.hotelodeon.com.ar/,Hospedaje,HUMBERTO PRIMO,1257,HUMBERTO 1° 1257,-58.383746,-34.620983
506,HOTEL GUAYAQUIL,MORENO 2718,4957-5097,,,Hospedaje,MORENO,2718,MORENO 2718,-58.404491,-34.613439
505,HOTEL ROMA,"ACUÑA DE FIGUEROA, FRANCISCO 422",4862-5993,,,Hospedaje,ACUÑA DE FIGUEROA,422,"ACUÑA DE FIGUEROA, FRANCISCO 422",-58.422858,-34.605632
504,HOTEL TEMUCO,"PERON, JUAN DOMINGO, TTE. GENERAL 4261",4862-3053,,,Hospedaje,JUAN D PERÓN,4261,"PERON, JUAN DOMINGO, TTE. GENERAL 4261",-58.426967,-34.605897
503,HOTEL SAN CARLOS,MORENO 3054,4931-7823,,,Hospedaje,MORENO,3054,MORENO 3054,-58.409342,-34.614016
502,LOS ANGELES,"YRIGOYEN, HIPOLITO 3073",4864-2692,,,Hospedaje,HIPOLITO YRIGOYEN,3073,"YRIGOYEN, HIPOLITO 3073",-58.409846,-34.611501
501,HOTEL BAHIA I,CORRIENTES AV. 1212,4382-1780,ar.hotelbahia@gmail.com,,Hospedaje,CORRIENTES,1212,CORRIENTES AV. 1212,-58.383854,-34.603917
500,HOTEL LION DOR,"PACHECO DE MELO, JOSE ANDRES 2019",4803-8992,,http://www.hotel-liondor.com.ar/,Hospedaje,PACHECO DE MELO,2019,"PACHECO DE MELO, JOSE ANDRES 2019",-58.395141,-34.590696
499,VIAMONTE TURISMO HOTEL,VIAMONTE 857,4322-8753,,,Hospedaje,VIAMONTE,857,VIAMONTE 857,-58.379004,-34.600079
498,HOTEL MIAMI,GASCON 874,486-20427,hmiami@terra.com.ar,http://hotel-miami.com.ar/,Hospedaje,GASCON,874,GASCON 874,-58.423863,-34.600842
497,SPORTMAN,RIVADAVIA AV. 1425,43818021/22,sportman@hotmail.com,http://www.hotelsportsman.com.ar/,Hospedaje,RIVADAVIA,1425,, , 
496,HOTEL LA GIRALDA,TACUARI 17,4345-3917,,,Hospedaje,TACUARI,17,TACUARI 17,-58.379250,-34.608505
495,HOTEL TANDIL,DE MAYO AV. 890,4343-2597,SUPERTANDIL2@HOTMAIL.COM,,Hospedaje,DE MAYO,890,DE MAYO AV. 890,-58.379060,-34.608966
494,HOTEL MITRE,"MITRE, BARTOLOME 2717",4866-4089,hotel_mitre@hotmail.com,www.hotelmitre.com.ar,Hospedaje,BARTOLOME MITRE,2717,"MITRE, BARTOLOME 2717",-58.404906,-34.608738
493,HOTEL ONCE,RIVADAVIA AV. 2962,4861-1666,,,Hospedaje,RIVADAVIA,2962,RIVADAVIA AV. 2962,-58.408351,-34.610372
492,GOYA HOTEL,SUIPACHA 748,4322-9269,info@goyahotel.com.ar,http://www.goyahotel.com.ar/,Hospedaje,SUIPACHA,748,SUIPACHA 748,-58.379741,-34.599654
491,ORIENTAL,"MITRE, BARTOLOME 1840",4952-3371,ghoriental@hotmail.com,http://www.granhoteloriental.com/,Hospedaje,BARTOLOME MITRE,1840,"MITRE, BARTOLOME 1840",-58.392686,-34.608054
490,HOTEL YORK,"ALSINA, ADOLFO 2632",4951-8957,info@albertomendez.com,,Hospedaje,ALSINA,2632,"ALSINA, ADOLFO 2632",-58.403661,-34.612346
489,HOTEL VICTORIA,CHACABUCO 726,4361-2135,,,Hospedaje,CHACABUCO,726,CHACABUCO 726,-58.375928,-34.616591
488,HOTEL URUGUAY,TACUARI 83,4334-1110,amagodemiro@yahoo.com.ar,,Hospedaje,TACUARI,83,TACUARI 83,-58.379213,-34.609266
487,TREN MIXTO,LIMA 1717,4305-9155,,,Hospedaje,LIMA,1717,LIMA 1717,-58.381474,-34.628059
486,HOTEL THAMES,THAMES 2255,4774-4117,HOTELTHAMES@INFOVIA.COM.AR,,Hospedaje,THAMES,2255,THAMES 2255,-58.424616,-34.583542
485,HOTEL ROMA,DE MAYO AV. 1413,4381-4921,,,Hospedaje,DE MAYO,1413,DE MAYO AV. 1413,-58.386488,-34.609320
484,HOTEL PUEYRREDON,PUEYRREDON AV. 47,4861-6065,,,Hospedaje,PUEYRREDON,47,PUEYRREDON AV. 47,-58.405886,-34.609365
483,HOTEL PIRIAPOLIS,CORDOBA AV. 3051,4961-7132,PIRIAPOLIS_HOTEL@YAHOO.COM.AR,http://www.piriapolishotel.com.ar/homeesp.html,Hospedaje,CORDOBA,3051,CORDOBA AV. 3051,-58.409879,-34.598006
482,PALACE HOTEL RONDEAU,ENTRE RIOS AV. 2100,4306-5388,,,Hospedaje,ENTRE RIOS,2100,ENTRE RIOS AV. 2100,-58.390438,-34.632562
481,HOTEL OMEGA,PARAGUAY 2991,4962-5431,hotelomega@arnet.com.ar,http://www.hotelomega.com.ar/,Hospedaje,PARAGUAY,2991,PARAGUAY 2991,-58.409425,-34.595694
480,HOTEL MICKY,TALCAHUANO 362,4371-2376,HOTELMICKI@TRIPOD.COM.AR,,Hospedaje,TALCAHUANO,362,TALCAHUANO 362,-58.385132,-34.604494
479,HOTEL MEDITERRANEO,RODRIGUEZ PEÑA 149,4372-2852,mediterranhotel@yahoo.com.ar,,Hospedaje,RODRIGUEZ PEÑA,149,RODRIGUEZ PEÑA 149,-58.390666,-34.607346
478,HOTEL MANZANARES,MANZANARES 2339,4702-6839,hotelmanzanares@gmail.com,http://hmanzanares.blogspot.com.ar/,Hospedaje,MANZANARES,2339,MANZANARES 2339,-58.468606,-34.546957
477,HOTEL MAIPU,MAIPU 735,4328-8439,,,Hospedaje,MAIPU,735,MAIPU 735,-58.376786,-34.599586
476,HOTEL LEON,CALLAO AV. 758,4811-5054,,,Hospedaje,CALLAO,758,CALLAO AV. 758,-58.392962,-34.600185
475,HOTEL LA VASCONIA,SALTA 1806,4304-3031,vasconia1806@gmail.com,,Hospedaje,SALTA,1806,SALTA 1806,-58.382692,-34.629169
474,LA PIEDAD,"MITRE, BARTOLOME 1156",4381-6810,lapiedadhotel@gmail.com,http://lapiedadhotel.com.ar/,Hospedaje,BARTOLOME MITRE,1156,"MITRE, BARTOLOME 1156",-58.382930,-34.607428
473,LA ARGENTINA HOTEL,DE MAYO AV. 860,4342-0078,,,Hospedaje,AVENIDA DE MAYO,860,DE MAYO AV. 860,-58.378573,-34.608932
472,GRAN HOTEL ESPAÑA,TACUARI 80,4343-5541,ghetacuari@hotmail.com,,Hospedaje,TACUARI,80,TACUARI 80,-58.379145,-34.609220
471,HOTEL ORENSE,"MITRE, BARTOLOME 1359",4372-4441,INFORMES@HOTELORENSE.COM.AR,http://www.hotelorense.com.ar/,Hospedaje,BARTOLOME MITRE,1359,"MITRE, BARTOLOME 1359",-58.385695,-34.607545
470,HOTEL ARIES,GASCON 1147,4863-1232,info@arieshotel.com.ar,http://www.arieshotel.com.ar/,Hospedaje,GASCON,1147,GASCON 1147,-58.423232,-34.597154
469,GRAN HOTEL AMERICA,"IRIGOYEN, BERNARDO DE 1608",4307-8785,reservas@granhotelamerica.com.ar,http://www.granhotelamerica.com.ar/,Hospedaje,BERNARDO DE IRIGOYEN,1608,"IRIGOYEN, BERNARDO DE 1608",-58.378305,-34.627677
468,ALDEANO II,PASCO 136,4951-4102,hotelaldeano2@fibertel.com.ar,www.hotelaldeano.com.ar,Hospedaje,PASCO,136,PASCO 136,-58.397411,-34.611117
467,HOTEL ALBA,"GARAY, JUAN DE AV. 1381",4304-2935,hotelalbabsas@gmail.com,,Hospedaje,JUAN DE GARAY,1381,"GARAY, JUAN DE AV. 1381",-58.385471,-34.627051
466,HOTEL ROSEDAL,SANTIAGO DEL ESTERO 1677,4305-4840,,,Hospedaje,SANTIAGO DEL ESTERO,1677,SANTIAGO DEL ESTERO 1677,-58.384395,-34.627821
465,MANSION DANDI ROYAL,PIEDRAS 922,4361-3537,info@dandiroyal.com,http://www.mansiondandiroyal.com/,Boutique,PIEDRAS,0,, , 
464,HOTEL CLASICO,COSTA RICA 5480,4773-2353,info@hotelclasico.com,http://www.hotelclasico.com/,Boutique,COSTA RICA,5480,COSTA RICA 5480,-58.433586,-34.583587
463,IMAGINE HOTEL BOUTIQUE,MEXICO 1330,4383-2230,reservas@imaginehotelboutique.com,http://www.imaginehotelboutique.com/,Boutique,MEXICO,1330,MEXICO 1330,-58.385000,-34.615494
462,UNIQUE PALACIO SAN TELMO,URIARTE 606,3220-9150,reservas.bsas@hotels-unique.com,https://www.hotels-unique.com/es/hoteles/uniquepalaciosantelmo/,Boutique,URIARTE,606,, , 
461,ARRIBO BUENOS AIRES HOTEL BOUTIQUE,PERU 291,48342-5682,reservas@arribobuenosaireshotel.com,http://www.arribobuenosaireshotel.com/es/,Boutique,PERU,291,PERU 291,-58.374837,-34.611394
460,PALO SANTO HOTEL,BONPLAND 2275,5280-6100,,http://www.palosantohotel.com/?lang=es,Boutique,BONPLAND,2275,BONPLAND 2275,-58.432227,-34.578957
459,OWN GRAND PALERMO SOHO,GURRUCHAGA 2121,4831-0800,,,Boutique,GURRUCHAGA,2121,GURRUCHAGA 2121,-58.424182,-34.586135
458,PALERMO SOHO LOFT,ARMENIA 1396,4775-3620,info@palermosoholoft.com,http://www.palermosoholoft.com/,Boutique,ARMENIA,1396,ARMENIA 1396,-58.430427,-34.591448
457,CASA CHIC,EL SALVADOR 4786,4897-2062,atencionalcliente@casa-chic.com,http://www.casa-chic.com/,Boutique,EL SALVADOR,4786,EL SALVADOR 4786,-58.428048,-34.588855
456,FIRST PALERMO VIEJO HOTEL,GORRITI 5003,4833-3163,info@firstpalermohotel.com,http://firstpalermohotel.com/,Boutique,GORRITI,5003,GORRITI 5003,-58.431280,-34.589281
455,PALERMO TOWER,CHARCAS 4955,3220-1100,frontdesk@palermotower.com,www.palermotower.com,Boutique,CHARCAS,4955,CHARCAS 4955,-58.428549,-34.579554
454,C CHIC,PRINGLES 1286,4865-4314,,http://cchichotel.com/,Boutique,PRINGLES,1286,PRINGLES 1286,-58.426344,-34.596808
453,1828 SMART HOTEL,FRAY JUSTO SANTAMARIA DE ORO 1828,011 2060-9011,info@1828smarthotel.com,http://1828smarthotel.com/,Boutique,Fray Justo Sta. Maria de Oro,1828,FRAY JUSTO SANTAMARIA DE ORO 1828,-58.430112,-34.585593
452,HUB PORTEÑO,RODRIGUEZ PEÑA 1967,4815-6100,info@hubporteno.com,http://www.hubporteno.com/,Boutique,RODRIGUEZ PEÑA,1967,RODRIGUEZ PEÑA 1967,-58.386401,-34.588491
451,LAS CEPAS,MEXICO 1471,6009-1590,info@hotellascepas.com.ar,http://www.hotellascepas.com.ar/,Boutique,MEXICO,1471,MEXICO 1471,-58.387011,-34.615482
450,POLLOCK HOTEL,COSTA RICA 4752,011 2075-4211,pollockhotel@gmail.com,http://www.pollockhotelboutique.com/,Boutique,COSTA RICA,4752,COSTA RICA 4752,-58.427775,-34.587723
449,MAITRE HOTEL BOUTIQUE,ARCE 385,4771-4722,info@hotelmaitre.com.ar,http://www.hotelmaitre.com.ar/,Boutique,ARCE,385,ARCE 385,-58.431219,-34.570669
448,SILEO HOTEL,AZCUENAGA 1968,4809-0001,info@sileohotel.com,http://www.sileohotel.com/,Boutique,AZCUENAGA,1968,AZCUENAGA 1968,-58.394673,-34.587034
447,PATIOS DE SAN TELMO,CHACABUCO 752,4307-0480,info@patiosdesantelmo.com.ar,http://patiosdesantelmo.com.ar/,Boutique,CHACABUCO,752,CHACABUCO 752,-58.375913,-34.616853
446,HOTEL CLUB FRANCES,RODRIGUEZ PEÑA 1832,48125235,info@hotelclubfrances.com.ar,http://www.hotelclubfrances.com.ar/,Boutique,RODRIGUEZ PEÑA,1832,RODRIGUEZ PEÑA 1832,-58.387668,-34.589643
445,SAN TELMO LUXURY,CHILE 437,4343-1777,info@santelmoluxury.com,http://www.santelmoluxury.com/,Boutique,CHILE,437,CHILE 437,-58.372323,-34.615994
444,L' HOTEL PALERMO,THAMES 1562,4831-7198,info@lhotelpalermo.com,http://www.lhotelpalermo.com/es/index.html,Boutique,THAMES,1562,THAMES 1562,-58.431555,-34.588274
443,POP HOTEL,"RAMIREZ DE VELASCO, JUAN 793",4776-6900,reservations@pophotelsbuenosaires.com,http://www.pophotelsbuenosaires.com/,Boutique,VELASCO,793,"RAMIREZ DE VELASCO, JUAN 793",-58.439022,-34.595820
442,PALERMO PLACE,NICARAGUA 5865,3220-9600,frontdesk@palermoplace.com,PALERMOPLACE.COM,Boutique,NICARAGUA,5865,NICARAGUA 5865,-58.436195,-34.579558
441,TIANA BUENOS AIRES,HUMBERTO 1° 629,4300-8177,,www.tianabuenosaires.com.ar,Boutique,HUMBERTO PRIMO,629,HUMBERTO 1° 629,-58.374774,-34.620747
440,MIO BUENOS AIRES HOTEL,"QUINTANA, MANUEL, PRES. AV. 465",5295-8500,reservas@miobuenosaires.com,http://miobuenosaires.com/,Boutique,QUINTANA,465,"QUINTANA, MANUEL, PRES. AV. 465",-58.389562,-34.588573
439,SERENA HOTEL BUENOS AIRES,LIBERTAD 1617,4813-3226,recepcion@serenahoteles.com,http://www.serenahoteles.com/es-buenos-aires.html,Boutique,LIBERTAD,1617,LIBERTAD 1617,-58.383395,-34.589394
438,HOTEL FIERRO BOUTIQUE,SOLER 5862,3220-6800,info@fierrohotel.com,http://fierrohotel.com/,Boutique,SOLER,5862,SOLER 5862,-58.435264,-34.578827
437,ALGODON MANSION BUENOS AIRES,MONTEVIDEO 1647,113530-7777,reservations@algodonmansion.com.,http://www.algodonmansion.com/,Boutique,MONTEVIDEO,1647,MONTEVIDEO 1647,-58.387402,-34.591235
436,ILUM EXPERIENCE HOME,EL SALVADOR 5726,4776-8667,ilum@ilumhotel.com,http://ilumhotel.com/,Boutique,EL SALVADOR,5726,EL SALVADOR 5726,-58.436768,-34.582309
435,BE JARDIN ESCONDIDO,GORRITI 4746,48346166,jardinescondido@bourbon.com.ar,http://www.bourbon.com.br/hoteis-e-resorts-pt/,Boutique,GORRITI,4746,GORRITI 4746,-58.428591,-34.591138
434,BE HOLLYWOOD,HUMBOLDT 1726,5555-8100,,,Boutique,HUMBOLDT,1726,HUMBOLDT 1726,-58.435153,-34.584593
433,PALERMITANO HOTEL,URIARTE 1648,4897-2100,nfo@palermitano.biz,http://www.palermitano.biz/es/index.php,Boutique,URIARTE,1648,URIARTE 1648,-58.431635,-34.587098
432,SISSI HAZ HOTEL BOUTIQUE,MALABIA 1561,4832-9470,info@sissihaz.com.ar,http://www.sissihaz.com.ar,Boutique,MALABIA,1561,MALABIA 1561,-58.427447,-34.591103
431,ATEMPO DESIGN HOTEL,AREVALO 1564,5297-3333,info@atempohotel.com,http://www.atempohotel.com/,Boutique,AREVALO,1564,AREVALO 1564,-58.441798,-34.582083
430,RENDEZ VOUS HOTEL BUENOS AIRES,BONPLAND 1484,3964-5222,info@rendezvoushotel.com.ar,WWW.RENDEZVAUSHOTEL.COM.AR,Boutique,BONPLAND,1484,BONPLAND 1484,-58.439445,-34.585110
429,HOWARD JOHNSON HOTEL BOUTIQUE RECOLETA,PEÑA 2049,4800-1992,reservas@hjboutiquerecoleta.com.ar,http://www.hjboutiquerecoleta.com.ar/,Boutique,PEÑA,2049,PEÑA 2049,-58.395371,-34.592269
428,DUQUE HOTEL BOUTIQUE Y SPA,GUATEMALA 4364,4832-0312,info@duquehotel.com,www.duquehotel.com,Boutique,GUATEMALA,4364,GUATEMALA 4364,-58.421080,-34.588793
427,5411 SOHO HOTEL BOUTIQUE Y SPA,THAMES 1565,4833-9233,hello@5411soho.com,http://www.5411soho.com/,Boutique,THAMES,1565,THAMES 1565,-58.431380,-34.588290
426,LE VITRAL BAIRES PETIT HOTEL BOUTIQUE,AYACUCHO 277,4953-6800,reservas@hotelvitral.com,http://www.hotelvitral.com/,Boutique,AYACUCHO,277,AYACUCHO 277,-58.395070,-34.606189
425,ESPLENDOR PALERMO HOLLYWOOD,FITZ ROY 2172,4772-7070,frontdesk@esplendorpalermohollywood.com,WWW.ESPLENDORPALERMOHOLLYWOOD.COM,Boutique,FITZ ROY,2172,FITZ ROY 2172,-58.432252,-34.580527
424,OWN PALERMO HOLLYWOOD,"CABRERA, JOSE A. 5556",4772-8100,reservations@ownpalermo.com,http://ownpalermo.com/,Boutique,CABRERA,5556,"CABRERA, JOSE A. 5556",-58.437474,-34.586263
423,HOTEL BOUTIQUE BONITO BUENOS AIRES,CHILE 1507,4381-2162,info@bonitobuenosaires.com,www.bonitobuenosaires.com,Boutique,CHILE,1507,CHILE 1507,-58.387633,-34.616666
422,HOTEL BOUTIQUE RACO DE BUENOS AIRES,YAPEYU 269,011 3530-6075,info@racodebuenosaires.com.ar,www.racobuenosaires.com.ar,Boutique,YAPEYU,269,YAPEYU 269,-58.421648,-34.615388
421,RUGANTINO,URIARTE 1844,011 6379-5113,rugantinohotel@gmail.com,http://www.rugantinohotelboutique.com/,Boutique,URIARTE,1844,URIARTE 1844,-58.429629,-34.585770
420,JAM SUITES BOUTIQUE HOTEL,MALABIA 1442,4832-5188,contacto@jamsuiteshotel.com,http://www.jamsuiteshotel.com/,Boutique,MALABIA,1442,MALABIA 1442,-58.428769,-34.591843
419,MONARCA HOTELES,25 DE MAYO 724,4314-1101,reservas-lascondes@monarcahoteles.com,http://www.monarcahoteles.com/,Boutique,25 DE MAYO,724,25 DE MAYO 724,-58.371456,-34.599315
418,MAGNOLIA HOTEL BOUTIQUE,"ALVAREZ, JULIAN 1746",4867-4900,info@magnoliahotelboutique.com,http://magnoliahotelboutique.com/palermo-buenosaires/,Boutique,JULIAN ALVAREZ,1746,"ALVAREZ, JULIAN 1746",-58.421804,-34.591078
417,TANGUERO BOUTIQUE HOTEL,SUIPACHA 780,4393-4676,info@tanguerohotel.com,http://www.tanguerohotel.com/,Boutique,SUIPACHA,780,SUIPACHA 780,-58.379768,-34.599249
416,HOTEL BABEL,BALCARCE 946,4300-8300,,http://www.hotelbabel.com.ar/es/index.php,Boutique,BALCARCE,946,BALCARCE 946,-58.370103,-34.618866
415,EUROBUILDING HOTEL BOUTIQUE BS AS,LIMA 187,5352-1111,buenosaires@hoteleuro.com,www.eurobuilding.com.ar,Boutique,LIMA,187,LIMA 187,-58.381922,-34.610670
414,MARIPOSITA DE SAN TELMO,"CALVO, CARLOS 950",4300-3247,info@mariposita.com.ar,www.mariposita.com.ar,Boutique,CARLOS CALVO,950,"CALVO, CARLOS 950",-58.379394,-34.619776
413,NUSS BS AS SOHO,EL SALVADOR 4916,4833-8100,info@nusshotel.com,www.nusshotel.com,Boutique,EL SALVADOR,4916,EL SALVADOR 4916,-58.429424,-34.587931
412,CASA CALMA WELLNESS HOTEL,SUIPACHA 1015,4312-5000,info@casacalmahotel.com,http://www.casacalmahotel.com/,Boutique,SUIPACHA,1015,SUIPACHA 1015,-58.379885,-34.596262
411,CASASUR ART HOTEL,CALLAO AV. 1823,4515-0085,,http://www.casasurhotel.com/recoleta/esp/index.php,Boutique,CALLAO,1823,CALLAO AV. 1823,-58.388661,-34.588962
410,ULTRA HOTEL,GORRITI 4929,4833-9200,reservas@hotelultra.com,www.hotelultra.com,Boutique,GORRITI,4929,GORRITI 4929,-58.430477,-34.589798
409,MIRAVIDA SOHO,DARREGUEYRA 2050,4773-6433,info@miravidasoho.com,http://www.miravidasoho.com/,Boutique,DARREGUEYRA,2050,DARREGUEYRA 2050,-58.427652,-34.584355
408,HOTEL COSTA RICA,COSTA RICA 4137,4864-7390,info@hotelcostarica.com.ar,http://www.hotelcostarica.com.ar/shop/index.asp,Boutique,COSTA RICA,4137,COSTA RICA 4137,-58.421162,-34.591536
407,HOTEL ROONEY'S,"SARMIENTO 1775,3",5252-5060,info@rooneysboutiquehotel.com,http://rooneysboutiquehotel.com/,Boutique,SARMIENTO,1775,SARMIENTO 1775,-58.391884,-34.605583
406,BOUTIQUE ZEN SUITES,AYACUCHO 55,11-3974-1877,contacto@boutiquezensuite.com,http://www.boutiquezensuite.com/,Boutique,AYACUCHO,55,AYACUCHO 55,-58.394868,-34.608686
405,HOTEL BLUE SOHO,EL SALVADOR 4735,4831-9147,contacto@hotelbluesoho.com,http://www.hotelbluesoho.com/,Boutique,EL SALVADOR,4735,EL SALVADOR 4735,-58.427517,-34.589076
404,TELMHO HOTEL BOUTIQUE,DEFENSA 1086,4307-9898,recepcion@telmho-hotel.com.ar,www.telmhohotel.com.ar,Boutique,DEFENSA,1086,DEFENSA 1086,-58.371408,-34.620445
403,PUROBAIRES HOTEL BOUTIQUE,"VEGA, NICETO, CNEL. 4788",4139-0100,info@purobaires.com.ar,www.purobaires.com.ar,Boutique,Niceto Vega,4788,"VEGA, NICETO, CNEL. 4788",-58.431267,-34.592371
402,VITRUM HOTEL,GORRITI 5641,4776-5030,info@vitrumhotel.com,www.vitrumhotel.com,Boutique,GORRITI,5641,GORRITI 5641,-58.437568,-34.584573
401,MARSEILLES DES ANGES,ARENALES 1392,5219-2526,booking@marseilledesanges.com,www.marseillesdesanges.com,Boutique,ARENALES,1392,ARENALES 1392,-58.387139,-34.594670
400,COMPLEJO TANGO,BELGRANO AV. 2608,4941-1119,reservas@complejotango.com.ar,www.complejotango.com.ar,Boutique,BELGRANO,2608,BELGRANO AV. 2608,-58.403145,-34.614620
399,LEGADO MITICO BUENOS AIRES,GURRUCHAGA 1848,4833-1300,reservasbsas@legadomitico.com,www.legadomitico.com,Boutique,GURRUCHAGA,1848,GURRUCHAGA 1848,-58.426796,-34.587702
398,MINE HOTEL,GORRITI 4770,4832-1100,info@minehotel.com,http://www.minehotel.com/es/,Boutique,GORRITI,4770,GORRITI 4770,-58.428818,-34.590992
397,MORENO HOTEL BUENOS AIRES,MORENO 376,6091-2000,reservas@morenobuenosaires.com,http://morenobuenosaires.com/es/,Boutique,MORENO,376,MORENO 376,-58.371534,-34.611306
396,HOME HOTEL BS AS,HONDURAS 5860,4779-1006,cocina@homebuenosaires.com,http://www.homebuenosaires.com/es/,Boutique,HONDURAS,5860,HONDURAS 5860,-58.438987,-34.582126
395,VAIN BOUTIQUE HOTEL,THAMES,4776-8246,info@vainuniverse.com,http://www.vainuniverse.com/,Boutique,THAMES,0,, , 
394,ESPLENDOR PALERMO SOHO,GUATEMALA 4931,4899-4000,reservas@esplendorpalermosoho.com,https://www.esplendorhoteles.com,Boutique,GUATEMALA,4931,GUATEMALA 4931,-58.426501,-34.584645
393,HOTEL RIBERA SUR,PASEO COLON AV. 1145,4361-7398,,WWW.RIBERASURHOTEL.COM.AR,Boutique,PASEO COLON,1145,PASEO COLON AV. 1145,-58.368522,-34.620992
392,BOHEMIA BUENOS AIRES HOTEL,PERU 845,4115-2561,,http://www.bohemiabuenosaires.com.ar/,Boutique,PERU,845,PERU 845,-58.374441,-34.617901
391,REINO DEL PLATA HOTEL BOUTIQUE,"YRIGOYEN, HIPOLITO 647",5272-4000,info@hotelreinodelplata.com.ar,http://www.hotelreinodelplata.com.ar/index_b.php,Boutique,HIPOLITO YRIGOYEN,647,"YRIGOYEN, HIPOLITO 647",-58.375556,-34.609206
390,DIDI ROOMS,HONDURAS 4742,4831-2596,info@didiroomsbuenosaires.com,http://www.didiroomsbuenosaires.com/,Boutique,HONDURAS,4742,HONDURAS 4742,-58.427614,-34.590470
389,KRISTA HOTEL BOUTIQUE,BONPLAND 1665,4771-4697,info@kristahotel.com.ar,http://www.kristahotel.com.ar/,Boutique,BONPLAND,1665,BONPLAND 1665,-58.437640,-34.583675
388,BoBo HOTEL,GUATEMALA 4882,4774-0505,,http://www.bobohotel.com/,Boutique,GUATEMALA,4882,GUATEMALA 4882,-58.426156,-34.585057
387,"MANSION VITRAUX BOUTIQUE HOTEL WINE, LOUNGE AND SPA","CALVO, CARLOS 369",4300-6886,,www.mansionvitraux.com,Boutique,Carlos Calvo,369,"CALVO, CARLOS 369",-58.371079,-34.619436
386,248 FINISTERRA,BAEZ 248,4776-8777,info@248finisterra.com,http://www.248finisterra.com/,Boutique,BAEZ,248,BAEZ 248,-58.430627,-34.572422
385,MELIA RECOLETA PLAZA BOUTIQUE HOTEL,POSADAS 1557,011 5353-4000,hotel@meliarecoletaplaza.com.ar,http://www.meliarecoletaplaza.com.ar/,Boutique,POSADAS,1557,POSADAS 1557,-58.387693,-34.587134
384,ESPLENDOR PLAZA FRANCIA,"SCHIAFFINO, EDUARDO 2189",54-11-48049631,frontdesk@esplendorplazafrancia.com,https://www.esplendorhoteles.com/es/hoteles/argentina/hoteles-en-ciudad-de-buenos-aires/esplendor-plaza-francia/,Boutique,E SCHIAFFINO,2189,"SCHIAFFINO, EDUARDO 2189",-58.388877,-34.585577
383,BAIRES SOHO B&B,MALABIA 1935,4832-4420,info@bairessoho.com,WWW.BAIRESSOHO.COM,Bed & Breakfast,MALABIA,1935,MALABIA 1935,-58.423788,-34.588677
382,POSADA GOTAN,SANCHEZ DE LORIA 1618,4912-3807,posadagotan@gmail.com,WWW.POSADAGOTAN.COM,Bed & Breakfast,SANCHEZ DE LORIA,1618,SANCHEZ DE LORIA 1618,-58.411773,-34.629514
381,SIMPLE AND CHARMING,PARAGUAY 5035,4775-6467,,http://simple-charming-bed-and-breakfast-inn-buenos-aires.hotel-ds.com/es/,Bed & Breakfast,PARAGUAY,5035,PARAGUAY 5035,-58.429294,-34.580664
380,06 SOHO SUITES,THAMES 1407,3533-2154,06sohosuites@gmail.com,WWW.06SOHOSUITES.COM.AR,Bed & Breakfast,THAMES,1407,THAMES 1407,-58.432884,-34.589284
379,LUCO,CORDOBA AV. 2409,4961-5675,info@lucobnb.com.ar,LUCOBNB.COM.AR,Bed & Breakfast,AV CORDOBA,2409,CORDOBA AV. 2409,-58.401270,-34.599375
378,BOHO ROOMS,URIARTE 1389,4899-2565,bohorooms@hotmail.com,WWW.BOHOROOMS.COM.AR,Bed & Breakfast,URIARTE,1389,URIARTE 1389,-58.434154,-34.588899
377,LOS PATIOS DE MONTSERRAT,PIEDRAS 83,4381-6221,info@hotelpatios.com,https://hotelpatios.wordpress.com/,Bed & Breakfast,PIEDRAS,83,PIEDRAS 83,-58.377803,-34.609268
376,VIDA BAITES,GALLO 1483,4827-0750,,,Bed & Breakfast,GALLO,1483,GALLO 1483,-58.409810,-34.593096
375,NOSTER BAYRES,BRASIL 457,4361-3341,,,Bed & Breakfast,BRASIL,457,BRASIL 457,-58.372035,-34.625385
374,HOTEL SUR Y DESPUES,FINOCHIETTO ENRIQUE DR. 552,4362-1453,info@surydespues.com,http://www.surydespues.com/,Bed & Breakfast,DR E FINOCHIETTO,552,FINOCHIETTO ENRIQUE DR. 552,-58.373029,-34.628114
373,AMASOHO,DARREGUEYRA 2317,4777-3834,,WWW.AMASOHO.COM,Hostel,DARREGUEYRA,2317,DARREGUEYRA 2317,-58.425200,-34.581770
372,SOLAR SOLER BED AND BREAKFAST,SOLER 5676,4776-3065,info@solarsoler.com.ar,http://www.argentinabnb.com/solarsoler/solarsoler.htm,Bed & Breakfast,SOLER,5676,SOLER 5676,-58.433343,-34.580348
371,LINAS TANGO GUEST HOUSE,ESTADOS UNIDOS 780,4361-6817,linatango@gmail.com,http://www.linatango.com/,Bed & Breakfast,ESTADOS UNIDOS,780,ESTADOS UNIDOS 780,-58.376982,-34.618592
370,HOTEL LOPEZ y RESIDENCIA UNIVERSITARIA,SANTA FE AV. 5172,4772-1042,,,Bed & Breakfast,SANTA FE,5172,SANTA FE AV. 5172,-58.432912,-34.576355
369,LA CASCADA TOWNHOUSE HOTEL,VUELTA DE OBLIGADO 4578,4703-1251,info@cascadatownhouse.com.ar,,Bed & Breakfast,VUELTA DE OBLIGADO,4578,VUELTA DE OBLIGADO 4578,-58.472434,-34.541185
368,1555 MALABIA HOUSE DESING BED & BREAKFAST,MALABIA 1555,4833-2410 / 4832-3345,info@malabiahouse.com.ar,http://www.malabiahouse.com.ar/,Bed & Breakfast,MALABIA,1555,MALABIA 1555,-58.427523,-34.591153
367,HOTEL WASHINGTON,"GARAY, JUAN DE AV. 340",4361-4738,info@hotelwashington.com.ar,,Bed & Breakfast,JUAN DE GARAY,340,"GARAY, JUAN DE AV. 340",-58.370346,-34.624270
366,HOTEL EUROPA,"MITRE, BARTOLOME 1294",4384-8360,info@eurohotel.com.ar,http://www.eurohotel.com.ar/,Bed & Breakfast,BARTOLOME MITRE,1294,"MITRE, BARTOLOME 1294",-58.384782,-34.607549
365,HOTEL GALICIA,"YRIGOYEN, HIPOLITO 3072",4931-7270,,http://www.argentinabd.com/company-hotel-galicia_24671,Bed & Breakfast,HIPOLITO YRIGOYEN,3072,"YRIGOYEN, HIPOLITO 3072",-58.409833,-34.611539
364,HOTEL PASO,PASO 50,4952-5736,,,Bed & Breakfast,PASO,50,PASO 50,-58.403417,-34.609266
363,CASA DEL DOCENTE,JUJUY AV. 482,4942-4158,amudoch@infovia.com,,Bed & Breakfast,JUJUY,482,JUJUY AV. 482,-58.404541,-34.615528
362,HOTEL SIENA,"PERON, JUAN DOMINGO, TTE. GENERAL 1554",4371-0720,info@sienahotel.com.ar,http://www.sienahotel.com.ar/,Bed & Breakfast,JUAN D PERÓN,1554,"PERON, JUAN DOMINGO, TTE. GENERAL 1554",-58.388590,-34.606613
361,MICKI,TALCAHUANO 362,4371-2376,,,Bed & Breakfast,TALCAHUANO,362,TALCAHUANO 362,-58.385132,-34.604494
360,HOTEL MAIPO,ESMERALDA 474,4393-4202,,,Bed & Breakfast,ESMERALDA,474,ESMERALDA 474,-58.378141,-34.602770
359,HOTEL REAL,RIOBAMBA 231,4372-9500,reservas@real-hotel.com.ar,,Bed & Breakfast,RIOBAMBA,231,RIOBAMBA 231,-58.393568,-34.606540
358,HOTEL ALCAZAR,DE MAYO AV. 935,4345-0926,,,Bed & Breakfast,DE MAYO,935,DE MAYO AV. 935,-58.379634,-34.608848
357,SHOSHANA APART BOUTIQUE,GUATEMALA 5441,011 2060-8080,reservas@apartshoshana.com,http://www.apartshoshana.com.ar/,Apart Hotel,GUATEMALA,5441,GUATEMALA 5441,-58.430479,-34.581458
356,BULNES ECO SUITES,BULNES 1905,4829-3300,info@bulneseco.com,http://www.bulnesecosuites.com/,Apart Hotel,BULNES,1905,BULNES 1905,-58.412626,-34.589257
355,CIMMA SUITES APART HOTEL,PARAGUAY 5326,2054-2898,info@cimmasuites.com.ar,http://www.cimmasuites.com.ar/,Apart Hotel,PARAGUAY,5326,PARAGUAY 5326,-58.432297,-34.578454
354,APART CALLAO SUITES,CALLAO AV. 1062,4814-0961,info@callaosuites.com.ar,http://www.callaosuites.com.ar/,Apart Hotel,CALLAO,1062,CALLAO AV. 1062,-58.393380,-34.596454
353,HA FLATS QUARTIER DEL POLO,REPUBLICA DE ESLOVENIA 1942,4802-8166,reservas@haflatsdelpolo.com,http://www.alvarezarguelles.com/es/ha-flat/del-polo/,Apart Hotel,REPUBLICA DE ESLOVENIA,1942,REPUBLICA DE ESLOVENIA 1942,-58.434478,-34.570659
352,BABEL PALERMO,BONPLAND 1549,4776-4546,reservas@babelpalermo.com.ar,http://www.babelpalermo.com.ar/es/index.php,Apart Hotel,BONPLAND,1549,BONPLAND 1549,-58.438621,-34.584539
351,RIVA URBAN LOFTS,RIVADAVIA AV. 1182,3220-1950,reservas@riva-lofts.com,http://riva-lofts.com/es/,Apart Hotel,RIVADAVIA,1182,, , 
350,CYAN RECOLETA HOTEL,JUNIN 1743,2050-5858,info@hotelescyan.com,http://www.cyanrecoletasuites.com/,Apart Hotel,JUNIN,1743,JUNIN 1743,-58.392644,-34.588860
349,BABEL RECOLETA,RODRIGUEZ PEÑA 1063,4816-0505,info@babelrecoleta.com.ar,www.babelrecoleta.com.ar,Apart Hotel,RODRIGUEZ PEÑA,1063,RODRIGUEZ PEÑA 1063,-58.391848,-34.596468
348,APART SAN DIEGO,RODRIGUEZ PEÑA 1158,4814-0281,info@apartsandiego.com,http://www.apartsandiego.com/,Apart Hotel,RODRIGUEZ PEÑA,1158,RODRIGUEZ PEÑA 1158,-58.392019,-34.595309
347,HOTEL MASLIAH,SAN LUIS 3002,5292-5100,reservas@hotelmasliah.com,http://www.hotelmasliah.com/,Apart Hotel,SAN LUIS,3002,SAN LUIS 3002,-58.407493,-34.599630
346,APART HOTEL  INDEPENCIA LUZ Y FUERZA PATAGONIA,INDEPENDENCIA AV. 1877,4384-1102,edificioindependencia@fibertel.com.ar,,Apart Hotel,INDEPENDENCIA,1877,INDEPENDENCIA AV. 1877,-58.392815,-34.618127
345,SAN TELMO FLATS,PIEDRAS 990,4300-0569,,http://www.santelmoflats.com.ar/,Apart Hotel,PIEDRAS,990,PIEDRAS 990,-58.377243,-34.619575
344,EDIFICIO PICCALUGA,"ALVEAR, MARCELO T. DE 1563",5811-3113,info@edificiopiccaluga.com,http://www.edificiopiccaluga.com/,Apart Hotel,MARCELO T. DE ALVEAR,1563,"ALVEAR, MARCELO T. DE 1563",-58.389207,-34.597128
343,VACANCES SAN TELMO,BALCARCE 1024,4361-1627,alquileres@vacances.com.ar,www.vacances.com.ar,Apart Hotel,BALCARCE,1024,BALCARCE 1024,-58.370054,-34.619689
342,SF SUITES,SANTA FE AV. 1188,4813-5514,info@sfsuites.com.ar,www.sfsuites.com.ar,Apart Hotel,SANTA FE,1188,SANTA FE AV. 1188,-58.384051,-34.595654
341,PALERMO SUITES BS.AS. APARTMENTS,FRAY JUSTO SANTAMARIA DE ORO 2529,5197-5800,reservas@palermosuites.net,http://www.palermosuites.net/el-hotel/,Apart Hotel,F. J. SANTA MARIA DE ORO,2529,FRAY JUSTO SANTAMARIA DE ORO 2529,-58.423894,-34.578843
340,ART SUITES AND GALLERY,PEÑA 2268,4809-0800,booking@artsuites.com.ar,http://www.artsuites.com.ar/,Apart Hotel,PEÑA,2268,PEÑA 2268,-58.397239,-34.590818
339,TRE DESIGN APARTMENTS,MIGUELETES 1773,3970-6956,reservas@tredesign.com.ar,http://www.tredesign.com.ar/,Apart Hotel,MIGUELETES,1773,MIGUELETES 1773,-58.443908,-34.559200
338,LEONARDO DA VINCI RESIDENCE,LIBERTAD 1224,4815-8099,info@davinciresidence.com.ar,http://davinciresidence.com.ar/es/,Apart Hotel,LIBERTAD,1224,LIBERTAD 1224,-58.384481,-34.594074
337,ARGENTA SUITES BELGRANO,CIUDAD DE LA PAZ 1868,4706-1881,info@argenta-suites.com.ar,http://www.argenta-suites.com.ar/,Apart Hotel,CIUDAD DE LA PAZ,1868,CIUDAD DE LA PAZ 1868,-58.455781,-34.564870
336,TORRE SAN JOSE APARTMENTS,SAN JOSE 747,4383-2060,info@torresanjose.com,http://www.torresanjose.com/web/,Apart Hotel,SAN JOSE,747,SAN JOSE 747,-58.385933,-34.617251
335,APART LIMA 265,LIMA 265,4381-2054,reservas@apartlima265.com,http://www.apartlima265.com.ar/,Apart Hotel,LIMA,265,LIMA 265,-58.381886,-34.611509
334,MILIÑO APART HOTEL,URIARTE 951,4779-0880,info@apart-milino.com.ar,http://www.apart-milino.com.ar/,Apart Hotel,URIARTE,951,URIARTE 951,-58.438619,-34.591880
333,LIVIN RESIDENCE BUENOS AIRES,VIAMONTE 1815,5258-0300,reservas@livinresidence.com,http://www.livinresidence.com/,Apart Hotel,VIAMONTE,1815,VIAMONTE 1815,-58.393104,-34.600786
332,FERTILIA DOWNTOWN APARTAMENTOS,25 DE MAYO 739,4382-5433,,,Apart Hotel,25 DE MAYO,739,25 DE MAYO 739,-58.371389,-34.599200
331,EDIFICIO GOLF TOWER,LA PAMPA 1117,4786-1442,info@golftower.com.ar,http://www.golftower.com.ar/,Apart Hotel,LA PAMPA,1117,LA PAMPA 1117,-58.441069,-34.557002
330,AYRES DE LIBERTAD,LIBERTAD 1283,4511-8420,info@ayresdelibertad.com,http://www.ayresdelibertad.com/,Apart Hotel,LIBERTAD,1283,LIBERTAD 1283,-58.384428,-34.593110
329,HA QUARTIER BASAVILBASO,BASAVILBASO 1350,5235-0502,reservas@haflatsbasavilbaso.com,http://www.alvarezarguelles.com/es/ha-flat/basavilbaso/,Apart Hotel,BASAVILBASO,1350,BASAVILBASO 1350,-58.376924,-34.592347
328,ICARO SUITES,MONTEVIDEO 229,4372-9000,reservas@icarosuites.com,http://icarosuites.com/,Apart Hotel,MONTEVIDEO,229,MONTEVIDEO 229,-58.389279,-34.606314
327,KER URQUIZA HOTEL Y SUITES,DIAZ COLODRERO 2513,011 5277-4600,reservasurquiza@kerhoteles.com.ar,WWW.KERHOTELES.COM.AR,Apart Hotel,DIAZ COLODRERO,2513,DIAZ COLODRERO 2513,-58.486203,-34.572802
326,MONSERRAT APART HOTEL,SALTA 556,4124-7500,reservas@hotelmonserratba.com,http://www.hotelmonserratba.com/,Apart Hotel,SALTA,556,SALTA 556,-58.383089,-34.614938
325,ESPACIA SUITES,AMENABAR 1135,4786-8687,info@espaciasuites.com,http://www.espaciasuites.com/hotel.htm,Apart Hotel,AMENABAR,1135,AMENABAR 1135,-58.450084,-34.570201
324,PAMPA PLAZA HOTEL,LA PAMPA 777,4789-9561,info@pampaplaza.com,http://www.pampaplaza.com/home.php,Apart Hotel,LA PAMPA,777,LA PAMPA 777,-58.436984,-34.554556
323,AYRES DE RECOLETA PLAZA,GUIDO 1980,4576-1000,info@ayresderecoletaplaza.com,http://www.ayresderecoletaplaza.com/,Apart Hotel,GUIDO,1980,GUIDO 1980,-58.391696,-34.588656
322,APART HOTEL PASCO,PASCO 492,011 6121-4283,hotelpasco@argentina.com,www.hotelpasco.tripod.com,Apart Hotel,PASCO,492,PASCO 492,-58.397793,-34.615118
321,SURES BELGRANO SUITES,CIUDAD DE LA PAZ 2969,4542-8444,info@suresbelgranosuites.com,http://suresgroup.com/,Apart Hotel,CIUDAD DE LA PAZ,2969,CIUDAD DE LA PAZ 2969,-58.464268,-34.555385
320,THE GLU HOTEL,GODOY CRUZ 1733,4831-4646,info@thegluhotel.com,http://thegluhotel.com/,Apart Hotel,GODOY CRUZ,1733,GODOY CRUZ 1733,-58.433509,-34.587282
319,TRIBECA STUDIOS,"MITRE, BARTOLOME 4280",6009-0303,info@hoteltribeca.com.ar,www.hotelestribeca.com.ar,Apart Hotel,BARTOLOME MITRE,4280,"MITRE, BARTOLOME 4280",-58.427114,-34.610513
318,LOFT Y ARTE,"YRIGOYEN, HIPOLITO 1194",4381-3229,reservas@loftyarte.com.ar,http://www.loftyarte.com.ar/,Apart Hotel,HIPOLITO YRIGOYEN,1194,"YRIGOYEN, HIPOLITO 1194",-58.383274,-34.609784
317,URBANICA SUITES,MONTAÑESES 2599,4787-3003,,WWW.URBANICASUITE.COM.AR,Apart Hotel,MONTAÑESES,2599,MONTAÑESES 2599,-58.452708,-34.552921
316,AYRES DE RECOLETA,"URIBURU JOSE E., PRES. 1756",4801-0505,info@ayresderecoleta.com,http://www.ayresderecoleta.com/,Apart Hotel,URIBURU,1756,"URIBURU JOSE E., PRES. 1756",-58.394561,-34.588892
315,ORO APART HOTEL,FRAY JUSTO SANTAMARIA DE ORO 2706,4899-0230,reservas@oroaparthotel.com.ar,http://www.oroaparthotel.com.ar/,Apart Hotel,FRAY J. S. MARIA DE ORO,2706,FRAY JUSTO SANTAMARIA DE ORO 2706,-58.422490,-34.577173
314,APART CORRIENTES 767,CORRIENTES AV. 767,4328-8393,reservas@apartcorrientes767.com.ar,www.apartcorrientes767.com.ar,Apart Hotel,CORRIENTES,767,CORRIENTES AV. 767,-58.377658,-34.603383
313,INTERSUR SUITES,CORRIENTES AV. 1984,5246-1500,recepcion@intersursuites.com.ar,http://www.intersursuites.com.ar/intersursuites/es/,Apart Hotel,CORRIENTES,1984,CORRIENTES AV. 1984,-58.394949,-34.604567
312,ARGENTINA TANGO HOTEL,SUIPACHA 545,4322-3434,reservas@atangohotel.com,http://www.atangohotel.com/,Apart Hotel,SUIPACHA,545,SUIPACHA 545,-58.379534,-34.601898
311,DESIGN CE,"ALVEAR, MARCELO T. DE 1695",5237-3100,info@designce.com,http://www.designce.com/,Apart Hotel,MARCELO T DE ALVEAR,1695,"ALVEAR, MARCELO T. DE 1695",-58.391570,-34.597173
310,TRIBECA APART BUENOS AIRES,"MITRE, BARTOLOME 1265",4372-5444,info@hoteltribeca.com.ar,http://www.hoteltribeca.com.ar/apart/,Apart Hotel,BARTOLOME MITRE,1265,"MITRE, BARTOLOME 1265",-58.384505,-34.607470
309,APART HOTEL SPA CONGRESO,"MITRE, BARTOLOME 1824",4954-8410,reservas@apartcongreso.com.ar,http://www.apartcongreso.com.ar/,Apart Hotel,BARTOLOME MITRE,1824,"MITRE, BARTOLOME 1824",-58.392479,-34.608044
308,ART SUITES,AZCUENAGA 1465,4821-6800,booking@artsuites.com.ar,http://www.artsuites.com.ar/,Apart Hotel,AZCUENAGA,1465,AZCUENAGA 1465,-58.398341,-34.591945
307,EDIFICIO CHARCAS,"ALVEAR, MARCELO T. DE 776",4312-2051,info@edificiocharcas.com,http://www.edificiocharcas.com/,Apart Hotel,MARCELO T DE ALVEAR,776,"ALVEAR, MARCELO T. DE 776",-58.377986,-34.596368
306,ARENALES APART HOTEL,ARENALES 2580,4824-1760,reservas@arenales.com.ar,http://www.arenales.com.ar/esp/,Apart Hotel,ARENALES,2580,ARENALES 2580,-58.402736,-34.593063
305,ANCHORENA PLAZA APARTMENTS,"ANCHORENA, TOMAS MANUEL DE, DR. 1714",4826-3545,anchorenaplaza@ciudad.com.ar,,Apart Hotel,ANCHORENA,1714,"ANCHORENA, TOMAS MANUEL DE, DR. 1714",-58.402291,-34.590819
304,SUIPACHA SUITES,SUIPACHA 1235,4819-3600,apart@suipacha1235.com.ar,,Apart Hotel,SUIPACHA,1235,SUIPACHA 1235,-58.380015,-34.593643
303,ASPEN SUITES,ESMERALDA 933,4313-9011,reservations@aspensuites.com.ar,http://www.aspensuites.com.ar/,Apart Hotel,ESMERALDA,933,ESMERALDA 933,-58.378363,-34.597171
302,LOI SUITES ESMERALDA,"ALVEAR, MARCELO T. DE 842",41316800,esmeralda@loisuites.com.ar,http://www.loisuites.com.ar/,Apart Hotel,MARCELO T DE ALVEAR,842,"ALVEAR, MARCELO T. DE 842",-58.379111,-34.596470
301,LOI SUITES ARENALES,ARENALES 855,4324-9400,arenales@loisuites.com.ar,http://www.loisuites.com.ar/,Apart Hotel,ARENALES,855,ARENALES 855,-58.379346,-34.594066
300,KER BELGRANO APART HOTEL & SPA,VUELTA DE OBLIGADO 2727,4789-9383,reservasbelgrano@kerhoteles.com.ar,http://www.kerhoteles.com.ar/,Apart Hotel,VUELTA DE OBLIGADO,2727,VUELTA DE OBLIGADO 2727,-58.460715,-34.555545
299,FIAMINGO APART HOTEL,TALCAHUANO 120,4374-4400,reservas@fiamingoapart.com.ar,http://www.fiamingoapart.com.ar/,Apart Hotel,TALCAHUANO,120,TALCAHUANO 120,-58.384976,-34.607251
298,VIAMONTE SUITES BUENOS AIRES APART,VIAMONTE 1373,4371-9993,info@hotelviamonte.com.ar,http://www.hotelviamonte.com.ar/,Apart Hotel,VIAMONTE,1373,VIAMONTE 1373,-58.386298,-34.600510
297,ULISES RECOLETA SUITES,AYACUCHO 2016,4804-4571,info@ulisesrecoleta.com.ar,http://www.ulisesrecoleta.com.ar/,Apart Hotel,AYACUCHO,2016,AYACUCHO 2016,-58.388996,-34.587378
296,TRIANON RESIDENCE RECOLETA,CALLAO AV. 1869,4819-9300,info@trianon.com.ar,http://www.trianonresidence.com/,Apart Hotel,CALLAO,1869,CALLAO AV. 1869,-58.388379,-34.588707
295,HOTEL CRISTOFORO COLOMBO,FRAY JUSTO SANTAMARIA DE ORO 2747,4778-4900,reservas@hotelcc.com.ar,http://www.hotelcc.com.ar/,Apart Hotel,FRAY J. S. MARIA DE ORO,2747,FRAY JUSTO SANTAMARIA DE ORO 2747,-58.421877,-34.576679
294,SARMIENTO SUITES,SARMIENTO 674,4393-8987,reservas@sarmientosuites.com.ar,http://www.sarmientosuites.com.ar/,Apart Hotel,SARMIENTO,674,SARMIENTO 674,-58.376157,-34.604657
293,GEORGE T. GRUKI,MENDOZA 4569,4544-6055,info@aparthotel.com,,Apart Hotel,MENDOZA,4569,MENDOZA 4569,-58.478513,-34.573539
292,CATALINAS SUITES,TUCUMAN 313,4314-1400,reservas@suitescatalinas.com.ar,http://www.suitescatalinas.com.ar/,Apart Hotel,TUCUMAN,313,TUCUMAN 313,-58.371420,-34.600724
291,CABILDO SUITES CLUB & SPA,CABILDO AV. 1950,4780-1900,cabildoventas@orho-hoteles.com.ar,http://www.cabildo-suites.com.ar/,Apart Hotel,CABILDO,1950,CABILDO AV. 1950,-58.455561,-34.563540
290,ART DECO HOTEL,LIBERTAD 446,4383-2878,artdeco@artdecohotel.com.ar,,Apart Hotel,LIBERTAD,446,LIBERTAD 446,-58.383792,-34.603319
289,ARROYO TOWERS,SUIPACHA 1359,011 5276-7700,reservas@arroyohotel.com.ar,http://arroyohotel.com.ar/home.php,Apart Hotel,SUIPACHA,1359,SUIPACHA 1359,-58.380085,-34.591916
288,BAUEN SUITE HOTEL,CORRIENTES AV. 1856,4370-0400,reservas@bauensuite.com,,Apart Hotel,CORRIENTES,1856,CORRIENTES AV. 1856,-58.393141,-34.604518
287,BENCO APART HOTEL,"YRIGOYEN, HIPOLITO AV. 1534",4372-1192,,,Apart Hotel,HIPOLITO YRIGOYEN,1534,"YRIGOYEN, HIPOLITO AV. 1534",-58.388063,-34.610090
286,APART HOTEL TRES REYES,"SAENZ PEÑA, LUIS, PRES. 284",4383-1238,info@aparthoteltresreyes.com,http://aparthoteltresreyes.com/,Apart Hotel,LUIS SAENZ PEÑA,284,"SAENZ PEÑA, LUIS, PRES. 284",-58.387457,-34.612171
285,APART RECOLETA HOTEL,GUIDO 1948,4801-8003,reservas@apartrecoleta.com.ar,http://www.apartrecoleta.com.ar/apart-recoleta.html,Apart Hotel,GUIDO,1948,GUIDO 1948,-58.391469,-34.588841
284,ALVEAR ART HOTEL,SUIPACHA 1036,4114-3477,reservasart@alvear.com.ar,http://www.alvearart.com/,5 estrellas,SUIPACHA,1036,SUIPACHA 1036,-58.379984,-34.595767
283,BUENOS AIRES GRAND HOTEL,"LAS HERAS, GENERAL 1745",4129-9800,frontrgh@recoletagrand.com,https://www.recoletagrand.com/es/,5 estrellas,LAS HERAS,1745,"LAS HERAS, GENERAL 1745",-58.391198,-34.592256
282,HOTEL BOCA JR BY DESIGN,TACUARI 243,3724-0700,reservas.boca@gruposolanas.com,http://www.hotelbocajuniors.com/,5 estrellas,TACUARI,243,TACUARI 243,-58.379123,-34.611148
281,PALACIO DUHAU PARK HYATT BUENOS AIRES,ALVEAR 1661,5171-1234,buenosaires.park@hyatt.com,http://www.buenosaires.park.hyatt.com/en/hotel/home.html,5 estrellas,ALVEAR,1661,ALVEAR 1661,-58.386430,-34.589406
280,725 BUENOS AIRES HOTEL,"SAENZ PEÑA, ROQUE, PRES. DIAGONAL NORTE AV. 725",4131-8000,reservas@725buenosaireshotel.com,http://www.725continental.com/default-es.html,5 estrellas,ROQUE SAENZ PEÑA,725,"SAENZ PEÑA, ROQUE, PRES. DIAGONAL NORTE AV. 725",-58.377135,-34.605980
279,HOTEL REGAL PACIFIC,25 DE MAYO 764,4310-7000,reservas@regalpacific.com.ar,http://ar.regal-pacific.com/,5 estrellas,25 DE MAYO,764,25 DE MAYO 764,-58.371493,-34.598842
278,HOTEL MADERO,"VERA PEÑALOZA,  ROSARIO 360",5776-7777,info@hotelmadero.com,http://www.hotelmadero.com/default-es.html,5 estrellas,R V PEÑALOZA,360,"VERA PEÑALOZA,  ROSARIO 360",-58.362339,-34.617482
277,FAENA HOTEL UNIVERSE,SALOTTI MARTHA 445,4010-9000,info@faenahotels.com,http://www.faena.com/buenos-aires/es/,5 estrellas,MARTHA SALOTTI,445,SALOTTI MARTHA 445,-58.361727,-34.613399
276,SOFITEL HOTEL BUENOS AIRES,ARROYO 841,4131-0000,reservas@sofitel.com,http://www.sofitel.com/es/hotel-3253-sofitel-buenos-aires/index.shtml,5 estrellas,ARROYO,841,ARROYO 841,-58.379111,-34.591816
275,NH CITY & TOWER HOTEL,BOLIVAR 160,4121-6464,nhcity@nh-hotels.com,http://www.nh-hoteles.es/hotel/nh-buenos-aires-city,5 estrellas,BOLIVAR,160,BOLIVAR 160,-58.373435,-34.609793
274,MELIA BUENOS AIRES,RECONQUISTA 945,4891-3800,info@meliabuenosaires.com.ar,https://www1.melia.com/es/hoteles/argentina/buenos-aires/melia-buenos-aires/index.html,5 estrellas,RECONQUISTA,945,RECONQUISTA 945,-58.372955,-34.597050
273,FOUR SEASONS BUENOS AIRES,POSADAS 1086,4321-1200,samantha.alvarez@fourseansons.com,http://www.fourseasons.com/es/buenosaires/,5 estrellas,POSADAS,1086,POSADAS 1086,-58.382258,-34.590154
272,HILTON BS.AS. HOTEL,"GUEMES, MACACHA 351",4891-0000,RESERVATIONS.BUENOSAIRES@HILTON.COM,http://www.hiltonbuenosaireshotel.com/,5 estrellas,GUEMES,351,"GUEMES, MACACHA 351",-58.363551,-34.605184
271,LOI SUITES RECOLETA HOTEL,"LOPEZ, VICENTE 1955",5777-8950,recoleta@loisuites.com.ar,http://www.loisuites.com.ar/es/hotel/loi-suites-recoleta-hotel,5 estrellas,VICENTE LOPEZ,1955,"LOPEZ, VICENTE 1955",-58.392547,-34.589524
270,HOTEL EMPERADOR BS AS,DEL LIBERTADOR AV. 420,4131-4000,reservas@hotel-emperador.com.ar,http://www.hotel-emperador.com.ar/es/default.html,5 estrellas,DEL LIBERTADOR,420,DEL LIBERTADOR AV. 420,-58.379938,-34.589997
269,ABASTO HOTEL BUENOS AIRES,CORRIENTES AV. 3190,116311-4466,reservas@abastohotel.com,http://www.abastohotel.com/,5 estrellas,CORRIENTES,3190,CORRIENTES AV. 3190,-58.410104,-34.604121
268,PARK TOWER HOTEL,"ALEM, LEANDRO N. AV. 1193",4318-9100,sheraton@sheraton.com.ar,http://www.parktowerbuenosaires.com/es,5 estrellas,LEANDRO N ALEM,1193,"ALEM, LEANDRO N. AV. 1193",-58.373662,-34.593636
267,PANAMERICANO BS.AS HOTEL AND RESORT,"PELLEGRINI, CARLOS 551",4348-5000,reservas@panamericano.us,http://panamericano.us/2015/es/,5 estrellas,CARLOS PELLEGRINI,551,"PELLEGRINI, CARLOS 551",-58.381018,-34.602040
266,INTERCONTINENTAL,MORENO 809,4340-7100,BUENOSAIRES@INTERCONTI.COM,http://www.ihg.com/intercontinental/hotels/us/es/buenos-aires/bueha/hoteldetail,5 estrellas,MORENO,809,MORENO 809,-58.377866,-34.611635
265,SHERATON BS AS HOTEL & CONVENTION CENTER,SAN MARTIN 1225,4318-9000,sheraton@sheraton.com.ar,http://www.sheratonbuenosaires.com/es,5 estrellas,SAN MARTIN,1225,SAN MARTIN 1225,-58.373197,-34.592966
264,SHERATON LIBERTADOR BUENOS AIRES,CORDOBA AV. 690,4321-0000,sheraton@libertador-hotel.com.ar,http://www.sheratonlibertador.com/es,5 estrellas,CORDOBA,690,CORDOBA AV. 690,-58.376676,-34.598879
263,FEIRS PARK HOTEL,ESMERALDA 1366,4131-1900,reservas@feirspark.com.ar,http://www.feirspark.com.ar/,5 estrellas,ESMERALDA,1366,ESMERALDA 1366,-58.378304,-34.591760
262,PLAZA HOTEL BUENOS AIRES,FLORIDA 1005,4318-3000,reservations@plazahotelba.com,http://www.plazahotelba.com/,5 estrellas,FLORIDA,1005,FLORIDA 1005,-58.375112,-34.595775
261,CLARIDGE HOTEL,TUCUMAN 535,4319-8000,reservas@claridge.com.ar,http://www.claridge.com.ar/,5 estrellas,TUCUMAN,535,TUCUMAN 535,-58.374517,-34.600965
260,ALVEAR PALACE HOTEL,ALVEAR AV. 1891,4808-2960,gerencia@alvear.com.ar,http://www.alvearpalace.com/v3/,5 estrellas,ALVEAR,1891,, , 
259,THE BRICK BUENOS AIRES MGALLERY,POSADAS 1232,4819-1100,h8932-re@accor.com,http://www.sofitel.com/es/hotel-8932-the-brick-hotel-buenos-aires-mgallery-collectionex-caesar-park/index.shtml,5 estrellas,POSADAS,1232,POSADAS 1232,-58.384073,-34.589365
258,CASASUR PALERMO HOTEL,COSTA RICA 6032,4775-1431,,www.casasurhotel.com,4 estrellas,COSTA RICA,6032,COSTA RICA 6032,-58.439168,-34.579221
257,HOTEL METROPOLITANO SUPARA,MEXICO 1559,4380-3400,socialytur@supara.org.ar,http://www.supara.org.ar/turismo-y-recreacion/hoteleria-turismo/,4 estrellas,MEXICO,1559,MEXICO 1559,-58.388462,-34.615517
256,CASASUR BELLINI,CABELLO 3780,48074848,,http://www.casasurhotel.com/,4 estrellas,CABELLO,3780,CABELLO 3780,-58.412894,-34.580112
255,DAZZLER HOTEL PALERMO,HUMBOLDT 1652,4777-1100,frontdesk@dazzlerpalermo.com,https://www.dazzlerhoteles.com/es/hoteles/argentina/hoteles-en-ciudad-de-buenos-aires/dazzler-palermo/,4 estrellas,HUMBOLDT,1652,HUMBOLDT 1652,-58.435847,-34.585194
254,BISONTE LIBERTAD HOTEL,LIBERTAD 902,4816-5770,reservas@bisontelibertad.com,http://www.bisontelibertad.com/,4 estrellas,LIBERTAD,902,LIBERTAD 902,-58.384153,-34.597987
253,BE TRIMOS HOTEL,REPUBLICA BOLIVARIANA DE VENEZUELA 649,4136-9393,reservas@betrimoshotel.com.ar,http://www.betrimoshotel.com/,4 estrellas,VENEZUELA,649,REPUBLICA BOLIVARIANA DE VENEZUELA 649,-58.375406,-34.613830
252,BA SOHOTEL,PARAGUAY 4485,4832-4474,infor@basohotel.com,http://www.basohotel.com/,4 estrellas,PARAGUAY,4485,PARAGUAY 4485,-58.424044,-34.584749
251,CENTURIA HOTEL,SUIPACHA 30,4342-5575,reservas@hotelcenturia.com,http://www.hotelcenturia.com/buenosaires/,4 estrellas,SUIPACHA,30,SUIPACHA 30,-58.379282,-34.607927
250,KENTON PALACE HOTEL,DEFENSA 383,433-2020,reservas1@kentonpalace.com.ar,http://www.kentonpalacebsas.com.ar/,4 estrellas,DEFENSA,383,DEFENSA 383,-58.371979,-34.612263
249,HOWARD JOHNSON INN PALERMO,"VEGA, NICETO, CNEL. AV. 5832",5556-4444,ventas@mpalermo.com.ar,http://www.hjpalermo.com.ar/es/,4 estrellas,Niceto Vega,5832,"VEGA, NICETO, CNEL. AV. 5832",-58.441880,-34.585058
248,DAZZLER TOWER RECOLETA,LAS HERAS GENERAL AV. 2161,2058-5556,frontdesk@dazzlerrecoleta.com,https://www.dazzlerhoteles.com/es/hoteles/argentina/hoteles-en-ciudad-de-buenos-aires/dazzler-recoleta/,4 estrellas,LAS HERAS,2161,LAS HERAS GENERAL AV. 2161,-58.395511,-34.588724
247,ASPEN SQUARE,THAMES 2313,4776-1711,reservations@aspensquare.com.ar,http://aspensquare.com.ar/,4 estrellas,THAMES,2313,THAMES 2313,-58.423775,-34.582867
246,HOTEL BYS PALERMO,"ACUÑA DE FIGUEROA, FRANCISCO 1263",4862-2956,gerencia@hotelbys.com.ar,http://hotelbys.com.ar/,4 estrellas,FRANCISCO ACUÑA DE FIGUEROA,1263,"ACUÑA DE FIGUEROA, FRANCISCO 1263",-58.421557,-34.596920
245,AWWA SUITES Y SPA,LAFINUR 3370,3966-0000,reservas@awwasuites.com,http://www.awwasuites.com/,4 estrellas,LAFINUR,3370,LAFINUR 3370,-58.412208,-34.577021
244,INTERSUR RECOLETA,CALLAO AV. 1764,5533-4000,reservas@intersurrecoleta.com.ar,http://intersurrecoleta.com.ar/,4 estrellas,CALLAO,1764,CALLAO AV. 1764,-58.389410,-34.589394
243,LENNOX BS AS,TALCAHUANO 52,4342-4050,recepcionbue@lennoxhotels.com,http://www.lennoxhotels.com/default-en.html,4 estrellas,TALCAHUANO,52,TALCAHUANO 52,-58.384935,-34.608058
242,UNIQUE ART MADERO,CHILE AV. 80,4348-0600,madero@hotels-unique.com,www.hotels-unique.com,4 estrellas,CHILE,80,CHILE AV. 80,-58.367361,-34.615725
241,HOTEL PULITZER,MAIPU 907,4316-0800,bookings@hotelpulitzer.com.ar,www.hotelpulitzer.com.ar,4 estrellas,MAIPU,907,MAIPU 907,-58.376884,-34.597439
240,GALERIAS HOTEL BOUTIQUE,TUCUMAN 651,4326-4747,reservas@galeriashotel.com.ar,http://www.galeriashotel.com.ar/,4 estrellas,TUCUMAN,651,TUCUMAN 651,-58.376008,-34.601056
239,HOTEL SCALA BUENOS AIRES BY CAMBREMON,"IRIGOYEN, BERNARDO DE 740",4345-0118,info@scalabuenosaires.com,http://www.scalabuenosaires.com/,4 estrellas,BERNARDO DE IRIGOYEN,740,"IRIGOYEN, BERNARDO DE 740",-58.380247,-34.616934
238,DAZZLER TOWER MAIPU,MAIPU 856,5279-4050,frontdesk@dazzlermaipu.com,https://www.dazzlerhoteles.com/es/hoteles/argentina/hoteles-en-ciudad-de-buenos-aires/dazzler-maipu/,4 estrellas,MAIPU,856,MAIPU 856,-58.376917,-34.598145
237,NH TANGO,CERRITO 550,4124-6700,nhtango@nh-hotels.com,http://www.nh-hotels.com/hotel/nh-buenos-aires-tango,4 estrellas,CERRITO,550,CERRITO 550,-58.382374,-34.601918
236,NH 9 DE JULIO,CERRITO 154,4124-7400,nh9dejulio@nh-hotels.com,http://www.nh-hotels.de/hotel/nh-buenos-aires-9-de-julio,4 estrellas,CERRITO,154,CERRITO 154,-58.382109,-34.606611
235,DAZZLER TOWER SAN TELMO,PIEDRAS 303,5217-5799,frontdesk@dazzlersantelmo.com,https://www.dazzlerhoteles.com/es/hoteles/argentina/hoteles-en-ciudad-de-buenos-aires/dazzler-san-telmo/,4 estrellas,PIEDRAS,303,PIEDRAS 303,-58.377683,-34.611773
234,NOVOTEL BUENOS AIRES,CORRIENTES AV. 1334,4370-9500,E-mail h6503-re@accor.com,www.novotel.com,4 estrellas,CORRIENTES,1334,CORRIENTES AV. 1334,-58.385757,-34.604028
233,HOTEL RECONQUISTA LUXOR,"SAENZ PEÑA, ROQUE, PRES. DIAGONAL NORTE AV. 890",4328-9400,reservas@hrluxor.com,www.hotelesreconquista.com.ar,4 estrellas,ROQUE SAENZ PEÑA,890,"SAENZ PEÑA, ROQUE, PRES. DIAGONAL NORTE AV. 890",-58.379243,-34.604982
232,AMERICA PLAZA HOTEL,"MITRE, BARTOLOME 1744",5031-3388,info@americaplazahotel.com.ar,www.americaplazahotel.com.ar,4 estrellas,BARTOLOME MITRE,1744,"MITRE, BARTOLOME 1744",-58.391374,-34.607980
231,URBAN SUITES RECOLETA,JUNIN 1727,4803-2300,info@urbanrecoleta.com,http://urbanrecoleta.com/,4 estrellas,JUNIN,1727,JUNIN 1727,-58.392713,-34.588977
230,DUOMI PLAZA HOTEL,"MITRE, BARTOLOME 1480",6091-3888,reservas@duomi.com.ar,http://www.duomi.com.ar/,4 estrellas,BARTOLOME MITRE,1480,"MITRE, BARTOLOME 1480",-58.387446,-34.607713
229,KER RECOLETA HOTEL AND SPA,"ALVEAR, MARCELO T. DE 1368",5277-4600,reservasrecoleta@kerhoteles.com.ar,http://www.kerhoteles.com.ar/,4 estrellas,MARCELO T DE ALVEAR,1368,"ALVEAR, MARCELO T. DE 1368",-58.386648,-34.597068
228,DAZZLER TOWER SAN MARTIN,SAN MARTIN 920,5256-7700,frontdesk@dazzlersanmartin.com,https://www.dazzlerhoteles.com/es/hoteles/argentina/hoteles-en-ciudad-de-buenos-aires/dazzler-san-martin/,4 estrellas,SAN MARTIN,920,SAN MARTIN 920,-58.374315,-34.597092
227,HOTEL TRYP BUENOS AIRES,SAN MARTIN 474,5222-9600,reservas@trypbuenosaires.com.ar,,4 estrellas,SAN MARTIN,474,SAN MARTIN 474,-58.373930,-34.602519
226,VISTA SOL BS AS DESIGN HOTEL,TUCUMAN 451,5273-2500,,http://www.vistasolbuenosaires.com/,4 estrellas,TUCUMAN,451,TUCUMAN 451,-58.373303,-34.600877
225,ESPLENDOR HOTEL BUENOS AIRES,SAN MARTIN 780,5256-8800,frontdesk@esplendorbuenosaires.com,https://www.esplendorhoteles.com/es/hoteles/argentina/hoteles-en-ciudad-de-buenos-aires/esplendor-buenos-aires/,4 estrellas,SAN MARTIN,780,SAN MARTIN 780,-58.374216,-34.598816
224,HOTEL RECONQUISTA GARDEN,ESMERALDA 675,4830-2200,,http://www.reconquistagarden.com.ar/,4 estrellas,ESMERALDA,675,ESMERALDA 675,-58.378168,-34.600290
223,AMERICAS TOWERS,LIBERTAD 1070,4129-0700,web@grupoamericas.com.ar,http://www.grupoamericas.com.ar/principal.php?cat=2,4 estrellas,LIBERTAD,1070,LIBERTAD 1070,-58.384305,-34.596077
222,PESTANA BUENOS AIRES,"PELLEGRINI, CARLOS 877",5239-1000,reservas.buenosaires@pestana.com,http://www.pestana.com/ar/hotel/pestana-buenos-aires/spa,4 estrellas,CARLOS PELLEGRINI,877,"PELLEGRINI, CARLOS 877",-58.381259,-34.598247
221,BROADWAY ALL SUITES,CORRIENTES AV. 1173,4378-9300,reservas2@broadway-suites.com.ar,http://www.broadway-suites.com.ar/,4 estrellas,CORRIENTES,1173,CORRIENTES AV. 1173,-58.383174,-34.603712
220,DA VINCI HOTEL,TUCUMAN 857,5031-8002,reservas@davincihotel.com.ar,http://www.davincihotel.com.ar/,4 estrellas,TUCUMAN,857,TUCUMAN 857,-58.378943,-34.601221
219,HOTEL RECONQUISTA PLAZA,RECONQUISTA 602,4311-4600,,http://www.reconquistaplaza.com.ar/espanol/hotel/,4 estrellas,RECONQUISTA,602,RECONQUISTA 602,-58.372644,-34.600741
218,OBELISCO CENTER SUITES,"SAENZ PEÑA, ROQUE, PRES. DIAGONAL NORTE AV. 991",4326-0909,,http://www.obeliscohotel.com.ar/es/index.php,4 estrellas,ROQUE SAENZ PEÑA,991,"SAENZ PEÑA, ROQUE, PRES. DIAGONAL NORTE AV. 991",-58.380847,-34.604167
217,NH LATINO,SUIPACHA 309,4321-6700,nhlatino@nh-hotels.com,http://www.nh-hoteles.es/hotel/nh-buenos-aires-latino,4 estrellas,SUIPACHA,309,SUIPACHA 309,-58.379367,-34.604655
216,NH COLLECTION JOUSTEN,CORRIENTES AV. 280,4321-6750,nhcollectionjousten@nh-hotels.com,http://www.nh-hotels.com/hotel/nh-collection-buenos-aires-jousten,4 estrellas,CORRIENTES,280,CORRIENTES AV. 280,-58.370892,-34.603125
215,NH COLLECTION LANCASTER,CORDOBA AV. 405,4131-6464,nhcollectionlancaster@nh-hotels.com,http://www.nh-collection.com/es/hotel/nh-collection-buenos-aires-lancaster,4 estrellas,CORDOBA,405,CORDOBA AV. 405,-58.372952,-34.598443
214,HOWARD JOHNSON 9 DE JULIO AVENUE,"IRIGOYEN, BERNARDO DE 432",5222-9000,INFO@GRANDBOULEVARDHOTEL.COM,http://www2.hojoar.com/,4 estrellas,BERNARDO DE IRIGOYEN,432,"IRIGOYEN, BERNARDO DE 432",-58.380408,-34.613525
213,UNIQUE ART ELEGANCE,PUEYRREDON AV. 1940,6777-0500,reservas.bsas@hotels-unique.com,https://www.hotels-unique.com/es/hoteles/uniqueartelegance/,4 estrellas,PUEYRREDON,1940,, , 
212,HOWARD JOHNSON PLAZA FLORIDA STREET,FLORIDA 944,4891-9200,reservas@hjflorida.com,http://www.hjflorida.com/,4 estrellas,FLORIDA,944,FLORIDA 944,-58.375503,-34.596933
211,UNIQUE EXECUTIVE CHATEAU,TALCAHUANO 1253,6777-0400,recepcionchateau@parkplazahotels.com,,4 estrellas,TALCAHUANO,1253,TALCAHUANO 1253,-58.385916,-34.593817
210,ARGENTA TOWER HOTEL AND SUITES,JUNCAL 868,4325-4100,ventas@argenta-tower.com.ar,http://www.argenta-tower.com.ar/,4 estrellas,JUNCAL,868,JUNCAL 868,-58.379546,-34.592912
209,AMERIAN BS AS PARK HOTEL,RECONQUISTA 699,5171-6500,info@amerian.co,http://www.amerian.com/hotel-amerian-buenos-aires-park-hotel,4 estrellas,RECONQUISTA,699,RECONQUISTA 699,-58.372616,-34.599869
208,WILTON PALACE HOTEL,CALLAO AV. 1162,48118-1818,reservas@hotelwilton.com.ar,http://www.hotelwilton.com.ar/,4 estrellas,CALLAO,1162,CALLAO AV. 1162,-58.393347,-34.595214
207,TRITONE HOTEL,MAIPU 657,4325-8955,reservas@tritonehotel.com.ar,https://www.tritonehotel.com.ar/es,4 estrellas,MAIPU,657,MAIPU 657,-58.376744,-34.600478
206,ROCHESTER CLASSIC,ESMERALDA 542,5032-5567,reservas@rochesterclassic.com.ar,http://www.rochesterclassic.com.ar/,4 estrellas,ESMERALDA,542,ESMERALDA 542,-58.378188,-34.601832
205,GRAND KING HOTEL,LAVALLE 560,4393-4012,reservas@grandking.com.ar,http://www.grandking.com.ar/,4 estrellas,LAVALLE,560,LAVALLE 560,-58.374746,-34.602211
204,HOTEL REPUBLICA,CERRITO 370,4382-5050,res.republica@hotelesglobales.com,http://www.hotelrepublica.com.ar/espanol/,4 estrellas,CERRITO,370,CERRITO 370,-58.382230,-34.604259
203,UNIQUE LUXURY PARK PLAZA,PARERA 183,6777-0200,reservas.bsas@hotels-unique.com,https://www.hotels-unique.com/es/hoteles/uniqueluxuryparkplaza/,4 estrellas,PARERA,183,PARERA 183,-58.385142,-34.590713
202,BRISTOL HOTEL,CERRITO 286,5199-2123,reservas@hotelbristol.com.ar,http://www.hotelbristol.com.ar/,4 estrellas,CERRITO,286,CERRITO 286,-58.382181,-34.605175
201,HOTEL PRINCIPADO,PARAGUAY 481,4313-3022,hotel@principado.com.ar,http://www.principado.com.ar/nuevo/home.html,4 estrellas,PARAGUAY,481,PARAGUAY 481,-58.373835,-34.597365
200,SALLES HOTEL,CERRITO 208,4382-0090,reservas@hotelsalles.com.ar,http://www.hotelsalles.com.ar/,4 estrellas,CERRITO,208,CERRITO 208,-58.382141,-34.605990
199,SHELTOWN HOTEL,"ALVEAR, MARCELO T. DE 742",4312-5070,fernandez@hotelsheltown.com.ar,http://www.hotelsheltown.com.ar/,4 estrellas,MARCELO T DE ALVEAR,742,"ALVEAR, MARCELO T. DE 742",-58.377616,-34.596346
198,ETOILE HOTEL RECOLETA,"ORTIZ, ROBERTO M., PRES. 1835",4805-2626,reservas@etoile.com.ar,http://www.etoile.com.ar/,4 estrellas,ORTIZ ROBERTO M PRES,1835,"ORTIZ, ROBERTO M., PRES. 1835",-58.391310,-34.588238
197,HOTEL LAS NACIONES,CORRIENTES AV. 818,5371-3000,,,4 estrellas,CORRIENTES,818,CORRIENTES AV. 818,-58.378294,-34.603588
196,HOTEL LAFAYETTE,RECONQUISTA 546,4393-9081,info@lafayettehotel.com.ar,http://www.lafayettehotel.com.ar/,4 estrellas,RECONQUISTA,546,RECONQUISTA 546,-58.372596,-34.601510
195,HOTEL DE LAS AMERICAS,LIBERTAD 1020,4129-3400,web@grupoamericas.com.ar,http://www.grupoamericas.com.ar/principal.php?cat=1,4 estrellas,LIBERTAD,1020,LIBERTAD 1020,-58.384255,-34.596589
194,HOTEL PRESIDENTE,CERRITO 850,4816-2222,reservas@hotelpresidente.com.ar,http://www.hotelpresidente.com.ar/,4 estrellas,CERRITO,850,CERRITO 850,-58.382637,-34.598475
193,562 NOGARO BUENOS AIRES,"ROCA, JULIO A., PRESIDENTE DIAGONAL SUR AV. 562",4331-0091,reservas@562nogarohotel.com,http://www.562nogarohotel.com/default-es.html,4 estrellas,JULIO A ROCA,562,"ROCA, JULIO A., PRESIDENTE DIAGONAL SUR AV. 562",-58.374246,-34.609901
192,NH CRILLON,SANTA FE AV. 796,4310-2000,nhcrillon@nh-hotels.com,http://www.nh-hotels.com/hotel/nh-buenos-aires-crillon,4 estrellas,SANTA FE,796,SANTA FE AV. 796,-58.378283,-34.595161
191,HOTEL COLON,"PELLEGRINI, CARLOS 507",4320-3500,reservas@execolon.com.ar,http://www.exehotelcolon.com/,4 estrellas,CARLOS PELLEGRINI,507,"PELLEGRINI, CARLOS 507",-58.380999,-34.602358
190,GRAN HOTEL BUENOS AIRES,"ALVEAR, MARCELO T. DE 767",4312-3003,reservas@granhotelbue.com.ar,http://www.granhotelbuenosaires.com/,4 estrellas,MARCELO T DE ALVEAR,767,"ALVEAR, MARCELO T. DE 767",-58.377899,-34.596296
189,REGENTE PALACE HOTEL,SUIPACHA 964,4328-6800,reservas@regente.com,http://www.regente.com/,4 estrellas,SUIPACHA,964,SUIPACHA 964,-58.379930,-34.596933
188,SAVOY HOTEL,CALLAO AV. 181,4370-8000,,http://www.savoyhotel.com.ar/,4 estrellas,CALLAO,181,CALLAO AV. 181,-58.392003,-34.607022
187,NH FLORIDA,SAN MARTIN 839,4321-9850,nhflorida@nh-hotels.com,http://www.nh-hoteles.es/hotel/nh-buenos-aires-florida,4 estrellas,SAN MARTIN,839,SAN MARTIN 839,-58.374191,-34.598090
186,HOTEL DOLMEN,SUIPACHA 1079,4315-7117,reservas@hoteldolmen.com.ar,http://www.hoteldolmen.com.ar/,4 estrellas,SUIPACHA,1079,SUIPACHA 1079,-58.379919,-34.595610
185,HOTEL CUATRO REYES,INDEPENDENCIA AV. 1391,4384-8000,reservas@hotelcuatroreyes.com,http://www.hotelcuatroreyes.com/,4 estrellas,INDEPENDENCIA,1391,, , 
184,CONTE HOTEL,"PELLEGRINI, CARLOS 101",4000-9350,reservas@conte-hotel.com.ar,http://conte-hotel.com.ar/,4 estrellas,CARLOS PELLEGRINI,101,"PELLEGRINI, CARLOS 101",-58.380743,-34.607069
183,UNIQUE EXECUTIVE CENTRAL PARK,"SAENZ PEÑA, ROQUE, PRES. DIAGONAL NORTE AV. 1178",6777-0300,reservas.bsas@hotels-unique.com,https://www.hotels-unique.com/es/hoteles/uniqueexecutivecentral/,4 estrellas,ROQUE SAENZ PEÑA,1178,"SAENZ PEÑA, ROQUE, PRES. DIAGONAL NORTE AV. 1178",-58.383226,-34.602996
182,HOTEL CARLTON,LIBERTAD 1180,4812-0081,hotelcarlton@solans.com,http://www.solans.com/hotel_carlton_en_buenos_aires,4 estrellas,LIBERTAD,1180,LIBERTAD 1180,-58.384449,-34.594727
181,CASTELAR HOTEL & SPA,DE MAYO AV. 1152,4383-5000,info@castelarhotel.com.ar,http://www.castelarhotel.com.ar/es/index.php,4 estrellas,DE MAYO,1152,DE MAYO AV. 1152,-58.382739,-34.609219
180,HOTEL CARSSON,VIAMONTE 650,4131-3800,info@hotelcarsson.com.ar,http://www.hotelcarsson.com.ar/default-es.html,4 estrellas,VIAMONTE,650,VIAMONTE 650,-58.376082,-34.599911
179,BISONTE PALACE HOTEL,"ALVEAR, MARCELO T. DE 902",4328-4751,reservas@bisontepalace.com,http://www.bisontepalace.com/,4 estrellas,MARCELO T DE ALVEAR,902,"ALVEAR, MARCELO T. DE 902",-58.380022,-34.596559
178,GRAND HOTEL Faecys,TUCUMAN 570,4325-3600,grandhotelreservas@faecys.org.ar,http://www.faecys.org.ar/GrandHotelFAECYS.php,4 estrellas,TUCUMAN,570,TUCUMAN 570,-58.374925,-34.601052
177,HOTEL DORA,MAIPU 963,4312-7391,reservas@dorahotel.com.ar,http://www.dorahotel.com.ar/,4 estrellas,MAIPU,963,MAIPU 963,-58.376903,-34.596835
176,EL CONQUISTADOR HOTEL,SUIPACHA 948,4328-3012,mailreservas@elconquistador.com.ar,http://www.elconquistador.com.ar/,4 estrellas,SUIPACHA,948,SUIPACHA 948,-58.379922,-34.597072
175,ASPEN TOWERS,PARAGUAY 857,5166-1900,reservations@aspentowers.com.ar,http://aspentowers.com.ar/,4 estrellas,PARAGUAY,857,PARAGUAY 857,-58.379170,-34.597665
174,HOSTERIA POSTA CARRETAS,ESMERALDA 726,4322-8567,reservas@postacarretas.com.ar,http://www.postacarretas.com.ar/,4 estrellas,ESMERALDA,726,ESMERALDA 726,-58.378266,-34.599849
173,HTL 9 DE JULIO,"ALSINA, ADOLFO 1112",5032-2558,reservas.9dejulio@htlhoteles.com,WWW.HTL9DEJULIO.COM,3 estrellas,ALSINA,1112,"ALSINA, ADOLFO 1112",-58.382148,-34.610882
172,PARK ROYAL BUENOS AIRES,SUIPACHA 1092,4320-3600,reservationsbue@park-royalhotels.com,http://parkroyalbuenosaires.com/,3 estrellas,SUIPACHA,1092,SUIPACHA 1092,-58.380003,-34.595453
171,O-BAIRES,PARAGUAY 2925,2050-5148,info@o-baires.com,www.o-baires.com,3 estrellas,PARAGUAY,2925,PARAGUAY 2925,-58.408805,-34.595960
170,MERIT SAN TELMO HOTEL,"ALSINA, ADOLFO 801",5280-9108,info@amerian.com,http://www.amerian.com/,3 estrellas,ALSINA,801,"ALSINA, ADOLFO 801",-58.377871,-34.610525
169,PRODEO,GORRITI 5374,4831-4471,info@prodeohotels.com,http://es.prodeohotel.com/hotelprodeo-1/,3 estrellas,GORRITI,5374,GORRITI 5374,-58.434563,-34.587065
168,ATHOS HOTEL,SAN JUAN AV. 1171,4304-0463,contacto@athoshotel.com.ar,http://www.athoshotel.com.ar,3 estrellas,AV. SAN JUAN,1171,SAN JUAN AV. 1171,-58.382520,-34.622131
167,VIBES MUSIC HOTEL,REPUBLICA DE ESLOVENIA 1867,4777-4578,,,3 estrellas,REPUBLICA DE ESLOVENIA,1867,REPUBLICA DE ESLOVENIA 1867,-58.433925,-34.569879
166,HOTEL DE LA VILLE,CERRITO 32,4381-9296,,,3 estrellas,CERRITO,32,CERRITO 32,-58.382042,-34.608084
165,JURAMENTO DE LEALTAD TOWNHOUSE HOTEL,JURAMENTO AV. 2666,4782-0158,info@townhousehotel.com.ar,http://www.townhousehotel.com.ar/,3 estrellas,JURAMENTO,2666,JURAMENTO AV. 2666,-58.459140,-34.563527
164,INFINITO HOTEL,ARENALES 3689,4832-1060,,http://www.infinitohotel.com/,3 estrellas,ARENALES,3689,ARENALES 3689,-58.413825,-34.585233
163,TWO HOTEL BUENOS AIRES,MORENO 785,4348-9700,reservas@twohotelbuenosaires.com.ar,http://www.twohotelbuenosaires.com.ar/,3 estrellas,MORENO,785,MORENO 785,-58.377441,-34.611611
162,DESTINO REAL HOTEL,"ANCHORENA, TOMAS MANUEL DE, DR. 56",2065-3332,info@destinorealhotel.com.ar,http://www.destinorealhotel.com.ar/,3 estrellas,ANCHORENA,56,"ANCHORENA, TOMAS MANUEL DE, DR. 56",-58.411810,-34.609961
161,HOTEL PRESIDENTE PERON,"YRIGOYEN, HIPOLITO 1942",5295-4200,,WWW.PERONHOTEL.COM,3 estrellas,H. IRIGOYEN,1942,, , 
160,NINA SUITES,MALABIA 1568,4832-0979,contacto@ninahotelbuenosaires.com,WWW.NINAHOTELBUENOSAIRES.COM,3 estrellas,MALABIA,1568,MALABIA 1568,-58.427486,-34.590997
159,UNO BUENOS AIRES SUITES,RIVADAVIA AV. 1944,3531-7777,info@unosuites.com,www.unosuites.com,3 estrellas,Rivadavia,1944,, , 
158,EUROPLAZA HOTEL Y SUITES,MONTEVIDEO 327,4371-4272,info@europlaza.com.ar,http://www.europlaza.com.ar/docs/esp/,3 estrellas,MONTEVIDEO,327,MONTEVIDEO 327,-58.389308,-34.605256
157,ALMA DE BUENOS AIRES,SUIPACHA 536,4326-3505,reservas@almadebuenosaires.com.ar,http://www.almadebuenosaires.com.ar/,Hotel boutique,SUIPACHA,536,SUIPACHA 536,-58.379604,-34.601993
156,ALMA DEL PLATA BUENOS AIRES HOTEL,SANTIAGO DEL ESTERO 727,4438-0040,,http://www.almadelplata.com/,3 estrellas,SANTIAGO DEL ESTERO,727,SANTIAGO DEL ESTERO 727,-58.384393,-34.617304
155,HOTEL IBIS BS AS OBELISCO,CORRIENTES AV. 1344,4370-9300,H6502-RE@ACCOR.COM,http://www.ibis.com/es/hotel-6502-ibis-buenos-aires-obelisco/index.shtml,3 estrellas,CORRIENTES,1344,CORRIENTES AV. 1344,-58.385757,-34.604028
154,HOTEL ZENTRA,TUCUMAN 2057,5238-1868,info@hotelzentra.com,www.hotelzentra.com,3 estrellas,TUCUMAN,2057,TUCUMAN 2057,-58.396393,-34.602137
153,HOTEL SAN ANTONIO,PARAGUAY 372,5273-1200,contacto@sanantonio372.com.ar,http://www.sanantonio372.com.ar/,3 estrellas,PARAGUAY,372,PARAGUAY 372,-58.372702,-34.597325
152,CAESAR PARK SILVER BS AS OBELISCO,CERRITO 330,4106-4444,reservas@parksilverobelisco.com,www.caesarpark.com,3 estrellas,CERRITO,330,CERRITO 330,-58.382203,-34.604710
151,VIASUI HOTEL,VIAMONTE 960,5252-3070,,http://www.viasuihotel.com.ar/,3 estrellas,VIAMONTE,960,VIAMONTE 960,-58.380573,-34.600173
150,SAN REMO HOTELES,TALCAHUANO 24,4381-9523,buenosaires@sanremohoteles.com,http://www.sanremobuenosaires.com.ar/,3 estrellas,TALCAHUANO,24,TALCAHUANO 24,-58.384923,-34.608325
149,HOTEL CENTRO NAVAL,CORDOBA AV. 622,4322-5311,hotel@centronaval.org.ar,http://www.hotelcentronaval.com/,3 estrellas,CORDOBA,622,CORDOBA AV. 622,-58.375840,-34.598821
148,UTHGRA DE LAS LUCES,"ALSINA, ADOLFO 525",4343-6776,reservas@uthgradelasluces.com.ar,http://www.uthgradelasluces.com.ar/,3 estrellas,ALSINA,525,"ALSINA, ADOLFO 525",-58.373849,-34.610243
147,HOTEL 8 DE OCTUBRE,PARAGUAY 1420,4813-4505,reservas@hotelochodeoctubre.com.ar,http://www.hotelochodeoctubre.com.ar/es/index.php,3 estrellas,PARAGUAY,1420,PARAGUAY 1420,-58.387248,-34.598339
146,A HOTEL,AZCUENAGA 1268,4821-4744,info@ahotel.com.ar,http://ahotel.com.ar/,3 estrellas,AZCUENAGA,1268,AZCUENAGA 1268,-58.399325,-34.593608
145,HOTEL COMFORT BAIRES,VIAMONTE 1501,4814-4917,hotelcomfortbaires.com,http://www.hotelcomfort.com.ar/,3 estrellas,VIAMONTE,1501,VIAMONTE 1501,-58.388218,-34.600615
144,HOTEL NONTUE,CORRIENTES AV. 3321,4860-1600,,http://www.nontuehotel.com.ar/,3 estrellas,CORRIENTES,3321,CORRIENTES AV. 3321,-58.412117,-34.604016
143,CONCORDE HOTEL,25 DE MAYO 630,4313-2018,reservas@concordehotel.com.ar,http://www.concordehotel.com.ar/,3 estrellas,25 DE MAYO,630,25 DE MAYO 630,-58.371361,-34.600318
142,MAYFLOWER SUITES,PARANA 720,5238-0050,reservas@mayflowersuites.com.ar,http://mayflowersuites.com.ar/,3 estrellas,PARANA,720,PARANA 720,-58.388163,-34.600326
141,HOTEL IRUN,SANTIAGO DEL ESTERO 1671,4306-0018,info@hotelirun.com.ar,http://www.hotelirun.com.ar/,3 estrellas,SANTIAGO DEL ESTERO,1671,SANTIAGO DEL ESTERO 1671,-58.384396,-34.627766
140,VICTORY HOTEL,MAIPU 880,4314-5440,info@victoryhotel.com.ar,http://www.victoryhotel.com.ar/,3 estrellas,MAIPU,880,MAIPU 880,-58.376930,-34.597884
139,HOTEL SPLENDID,RIVADAVIA AV. 950,4345-2800,ventas@hotel-splendid.com.ar,http://www.hotel-splendid.com.ar/,3 estrellas,RIVADAVIA,950,RIVADAVIA AV. 950,-58.379839,-34.608362
138,HOTEL SARUM,QUESADA 2370,4704-0039,info@hotelsarum.com.ar,http://www.hotelsarum.com.ar/,3 estrellas,QUESADA,2370,QUESADA 2370,-58.462826,-34.554164
137,HOTEL PROMENADE,"ALVEAR, MARCELO T. DE 444",4312-5681,,http://www.hotelpromenade.com.ar/index.html,3 estrellas,MARCELO T DE ALVEAR,444,"ALVEAR, MARCELO T. DE 444",-58.373673,-34.596232
136,HOTEL PARLAMENTO,RODRIGUEZ PEÑA 61,4374-1410,info@hotelparlamento.com.ar,http://www.hotelparlamento.com.ar/,3 estrellas,RODRIGUEZ PEÑA,61,RODRIGUEZ PEÑA 61,-58.390590,-34.608328
135,HOTEL NORMANDIE,RODRIGUEZ PEÑA 320,4371-7001,info@hotelnormandie.com.ar,http://www.hotelnormandie.com.ar/,3 estrellas,RODRIGUEZ PEÑA,320,RODRIGUEZ PEÑA 320,-58.390852,-34.605356
134,HOTEL NAPOLEON,RIVADAVIA AV. 1364,4383-2031,INFO@NAPOLEON.COM.AR,http://www.hotel-napoleon.com.ar/,3 estrellas,RIVADAVIA,1364,, , 
133,HOTEL LYON,RIOBAMBA 251,4372-0100,info@hotel-lyon.com.ar,http://www.hotel-lyon.com.ar/,3 estrellas,RIOBAMBA,251,RIOBAMBA 251,-58.393590,-34.606347
132,HOTEL LUEY,RIVADAVIA AV. 2902,4861-0403,luey@arnet.com.ar,http://www.luey.com.ar/,3 estrellas,RIVADAVIA,2902,RIVADAVIA AV. 2902,-58.407809,-34.610329
131,LA PERLA HOTEL,JUJUY AV. 36,5218-7737,ventas@hotellaperla.com.ar,http://hotellaperla.com.ar/,3 estrellas,JUJUY,36,JUJUY AV. 36,-58.405842,-34.610396
130,IMPERIAL PARK HOTEL,LIMA 101,4383-0555,info@imperialparkhotel.com,http://www.imperialparkhotel.com/es/index,3 estrellas,LIMA,101,LIMA 101,-58.381959,-34.609833
129,IBIS BUENOS AIRES,"YRIGOYEN, HIPOLITO AV. 1592",5300-5555,H3251@ACCOR.COM,http://www.ibis.com/es/hotel-3251-ibis-buenos-aires/index.shtml,3 estrellas,HIPOLITO YRIGOYEN,1592,"YRIGOYEN, HIPOLITO AV. 1592",-58.388897,-34.610118
128,HOLIDAY INN EXPRESS,"ALEM, LEANDRO N. AV. 770",4311-5200,javier.vigliero@talbot.cl,,3 estrellas,LEANDRO N ALEM,770,"ALEM, LEANDRO N. AV. 770",-58.371301,-34.598750
127,HOTEL 26 DE SETIEMBRE,SUIPACHA 39,4345-4618,,,3 estrellas,SUIPACHA,39,SUIPACHA 39,-58.379215,-34.607781
126,GRAN HOTEL DE LA PAIX,RIVADAVIA AV. 1155,4381-8063,reservas@granhoteldelapaix.com.ar,http://www.granhoteldelapaix.com.ar/,3 estrellas,RIVADAVIA,1155,, , 
125,GRAN HOTEL AILEN,SUIPACHA 18,4345-4980,INFO@GRANHOTELAILEN.COM.AR,http://www.granhotelailen.com.ar/,3 estrellas,SUIPACHA,18,SUIPACHA 18,-58.379275,-34.608059
124,CARDTON HOTEL,"PERON, JUAN DOMINGO, TTE. GENERAL 1555",4382-2463,hotelcardtonbaires@hotmail.com,,3 estrellas,JUAN D PERÓN,1555,"PERON, JUAN DOMINGO, TTE. GENERAL 1555",-58.388655,-34.606556
123,BEL AIR BUENOS AIRES HOTEL,ARENALES 1462,4021-4000,reservas@hotelbelair.com.ar,http://www.hotelbelair.com.ar/,3 estrellas,ARENALES,1462,ARENALES 1462,-58.388018,-34.594704
122,ATLAS TOWER HOTEL,CORRIENTES AV. 1778,43719371,reservas@atlastower.com.ar,http://www.atlastower.com.ar/,3 estrellas,CORRIENTES,1778,CORRIENTES AV. 1778,-58.391910,-34.604490
121,HOTEL ALPINO,CABELLO 3318,4802-5151,reservas@hotelalpino.com.ar,http://hotelalpino.com.ar/web/,3 estrellas,CABELLO,3318,CABELLO 3318,-58.407931,-34.581659
120,RIVER HOTEL  (en meses cambia nombre a BABEL PLAZA),MONTEVIDEO 86,4382-8789,reservas@babelplaza.com.ar,,3 estrellas,MONTEVIDEO,86,MONTEVIDEO 86,-58.389294,-34.608025
119,HOTEL AEROPARQUE INN Y SUITES,"OBLIGADO RAFAEL, AV.COSTANERA 1221",4803-6002,reservas@hotelaeroparque.com,http://www.hotelaeroparque.com/,3 estrellas,RAFAEL OBLIGADO y SALGUERO,1221,, , 
118,CRISTAL PALACE HOTEL,CIUDAD DE LA PAZ 2550,4786-1700,info@cristalpalace.com,http://www.cristalpalace.com/,3 estrellas,CIUDAD DE LA PAZ,2550,CIUDAD DE LA PAZ 2550,-58.461279,-34.558469
117,SARMIENTO PALACE HOTEL,SARMIENTO 1953,4953-3420,info@hotelsarmiento.com.ar,http://www.hotelsarmiento.com.ar/,3 estrellas,SARMIENTO,1953,SARMIENTO 1953,-58.394441,-34.605772
116,HOTEL FACON GRANDE,RECONQUISTA 649,4312-6361,reservas@hotelfacon.com.ar,http://hotelfacongrande.com/,3 estrellas,RECONQUISTA,649,RECONQUISTA 649,-58.372593,-34.600328
115,ELEVEN PALACE HOTEL,LA RIOJA 87,4864-5097,info@hoteleleven.com.ar,http://www.hoteleleven.com.ar/,3 estrellas,LA RIOJA,87,LA RIOJA 87,-58.408814,-34.611320
114,REGIS ORHO HOTEL,LAVALLE 813,4327-2605,regisventas@orho-hoteles.com.ar,http://www.hotel-regis.com.ar/,3 estrellas,LAVALLE,813,LAVALLE 813,-58.378306,-34.602341
113,HOTEL TORRE,OLLEROS 4186,4552-6034,info@torre-hotel.com.ar,http://www.torre-hotel.com.ar/,3 estrellas,OLLEROS,4186,OLLEROS 4186,-58.453732,-34.587271
112,HOTEL IMPALA,LIBERTAD 1217,4816-0430,info@hotelimpala.com.ar,http://www.hotelimpala.com.ar/,3 estrellas,LIBERTAD,1217,LIBERTAD 1217,-58.384381,-34.594209
111,ROCHESTER CONCEPT,MAIPU 572,4326-6076,reservas@rochesterconcept.com.ar,http://www.rochesterconcept.com.ar/,3 estrellas,MAIPU,572,MAIPU 572,-58.376780,-34.601458
110,BA CENTRAL HOTEL,JUNIN 357,4953-4455,reservas@bacentralhotel.com.ar,http://www.bacentralhotel.com.ar/,3 estrellas,JUNIN,357,JUNIN 357,-58.396664,-34.605168
109,WALDORF HOTEL,PARAGUAY 450,4312-2071,info@waldorf-hotel.com.ar,http://www.waldorf-hotel.com.ar/,3 estrellas,PARAGUAY,450,PARAGUAY 450,-58.373624,-34.597412
108,GRAN HOTEL ORLY,PARAGUAY 474,4312-5344,info@orly.com.ar,http://www.orly.com.ar/,3 estrellas,PARAGUAY,474,PARAGUAY 474,-58.373805,-34.597424
107,EMBAJADOR HOTEL,"PELLEGRINI, CARLOS 1185",5254-6835,reservas@525hotel.com,http://www.embajadorhotel.com.ar/,3 estrellas,CARLOS PELLEGRINI,1185,"PELLEGRINI, CARLOS 1185",-58.381496,-34.594413
106,HOTEL ESMERALDA PALACE,ESMERALDA 527,5811-0317,reservas@hotel-esmeralda.com.ar,http://www.hotel-esmeralda.com.ar/,3 estrellas,ESMERALDA,527,ESMERALDA 527,-58.378106,-34.602004
105,ECUADOR HOTEL,"ALSINA, ADOLFO 2820",4956-0532,ECUADOR@INEA.COM.AR,,3 estrellas,ALSINA,2820,"ALSINA, ADOLFO 2820",-58.405863,-34.612473
104,GRAN HOTEL ARGENTINO,"PELLEGRINI, CARLOS 37",4334-4001,info@hotel-argentino.com.ar,http://www.hotel-argentino.com.ar/,3 estrellas,CARLOS PELLEGRINI,37,"PELLEGRINI, CARLOS 37",-58.380695,-34.607944
103,CONSTITUCION PALACE HOTEL,LIMA 1697,4305-9010,info@cphotel.com.ar,http://www.cphotel.com.ar/,3 estrellas,LIMA,1697,LIMA 1697,-58.382231,-34.627676
102,COLUMBIA PALACE HOTEL,CORRIENTES AV. 1536,4373-1906,reservas@columbiapalacehotel.com.ar,http://www.columbiapalacehotel.com.ar/,3 estrellas,CORRIENTES,1536,CORRIENTES AV. 1536,-58.388642,-34.604241
101,LIBERTY HOTEL BUENOS AIRES,CORRIENTES AV. 632,5279-0000,,http://www.liberty-hotel.com.ar/,3 estrellas,CORRIENTES,632,CORRIENTES AV. 632,-58.375656,-34.603423
100,DIDI SOHO HOTEL,HONDURAS 4762,4831-2595,reservas@didihotelbuenosaires.com,http://www.didihotelbuenosaires.com/es/,2 estrellas,HONDURAS 4762,4762,, , 
99,BET HOTEL,SAAVEDRA 526,4942-3399,info@bethotelbuenosaires.com.ar,http://bethotelbuenosaires.com.ar/es,2 estrellas,SAAVEDRA,526,SAAVEDRA 526,-58.402786,-34.615804
98,LA POSADA DEL FACON,ESTADOS UNIDOS 2937,4957-5334,reservas@laposadadefacon.com,http://www.laposadadefacon.com/,2 estrellas,ESTADOS UNIDOS,2937,ESTADOS UNIDOS 2937,-58.406716,-34.620612
97,KOTEN HOTEL  PALERMO SOHO,GUEMES 4651,4771-3293,info@kotenhotel.com,www.kotenhotel.com,2 estrellas,GUEMES,4651,GUEMES 4651,-58.424148,-34.581155
96,SOL MONTSERRAT,MEXICO 1149,4381-5174,,http://www.hotelsolmontserrat.com.ar/,2 estrellas,MEXICO,1149,MEXICO 1149,-58.382403,-34.615309
95,TANGO APART HOTEL,"URIBURU JOSE E., PRES. 730",4953-9993,reservas@hoteltangouriburu.com.ar,WWW.HOTELTANGOFACULTAD.COM.AR,2 estrellas,URIBURU,730,"URIBURU JOSE E., PRES. 730",-58.398702,-34.600704
94,MARI PLAZA HOTEL,"MITRE, BARTOLOME 2021",4953-7887,info@mariplazahotel.com.ar,http://www.mariplazahotel.com.ar/index.php/es/,2 estrellas,BARTOLOME MITRE,2021,"MITRE, BARTOLOME 2021",-58.395310,-34.608142
93,MEDRANO PLAZA HOTEL,MEDRANO AV. 874,4864-1631,info@medranoplazahotel.com.ar,http://www.medranoplazahotel.com.ar/,2 estrellas,MEDRANO,874,MEDRANO AV. 874,-58.420562,-34.599804
92,HOTEL CARRARA,RIVADAVIA AV. 2307,4952-0768,info@hotelcarrara.com.ar,http://www.hotelcarrara.com.ar/,2 estrellas,RIVADAVIA,2307,, , 
91,STAR HOTEL,ECUADOR 12,4866-0333,,,2 estrellas,ECUADOR,12,ECUADOR 12,-58.408933,-34.610099
90,HOTEL AMERICANO,RODRIGUEZ PEÑA 265,4382-4223,info@hotelamericano.com.ar,http://www.hotelamericano.com.ar/,2 estrellas,RODRIGUEZ PEÑA,265,RODRIGUEZ PEÑA 265,-58.390731,-34.605960
89,AIRES EXPRESS HOTEL,"MITRE, BARTOLOME 3410",4860-0204,airesexpress@speedy.com.ar,http://www.airesexpress.com.ar/,2 estrellas,BARTOLOME MITRE,3410,"MITRE, BARTOLOME 3410",-58.414803,-34.609428
88,HOTEL AYAMITRE,AYACUCHO 106,4953-1655,reservas@hotelayamitre.com.ar,http://www.hotelayamitre.com.ar/#1,2 estrellas,AYACUCHO,106,AYACUCHO 106,-58.394993,-34.608042
87,LOS ROBLES,ESTADOS UNIDOS 827,4300-2096,daquilaus@hotmail.com,http://www.losroblesdesantelmo.com.ar/,2 estrellas,ESTADOS UNIDOS,827,ESTADOS UNIDOS 827,-58.377753,-34.618508
86,HOTEL LOS TRES REYES,BRASIL 425,4300-9456,,http://www.hotellostresreyes.com.ar/,2 estrellas,BRASIL,425,BRASIL 425,-58.371487,-34.625345
85,HOTEL RIO HOTEL,"SALGUERO, JERONIMO 218",4983-8837,INFO@HOTELRIO.COM.AR,,2 estrellas,SALGUERO,218,"SALGUERO, JERONIMO 218",-58.420048,-34.608324
84,HOTEL PRINCIPE,LAPRIDA 1454,4821-9818,principe@hotel-principe.com.ar,http://www.hotel-principe.com.ar/,2 estrellas,LAPRIDA,1454,LAPRIDA 1454,-58.405567,-34.592095
83,HOTEL AVENIDA,DE MAYO AV. 623,4331-4341,havenida@ciudad.com.ar,http://www.hotelav.com.ar/,2 estrellas,DE MAYO,623,, , 
82,HOTEL CONCEPT,SANTIAGO DEL ESTERO 180,4383-3473,,,2 estrellas,SANTIAGO DEL ESTERO,180,SANTIAGO DEL ESTERO 180,-58.384793,-34.610730
81,HOTEL A Y B  internacional,MONTEVIDEO 248,4382-4118,hotalayb@hotmail.com,,3 estrellas,MONTEVIDEO,248,MONTEVIDEO 248,-58.389374,-34.606089
80,HOTEL 11 DE SEPTIEMBRE,CATAMARCA 185,4957-6692,hotel11deseptiembre@gmail.com,http://www.sindicatouda.org.ar/hotel,Hotel sindical,CATAMARCA,185,CATAMARCA 185,-58.407074,-34.612274
79,HOTEL PACIFICO,FRAY JUSTO SANTAMARIA DE ORO 2554,4771-4071,reservas@hotelpacifico.com.ar,http://www.hotelpacifico.com.ar/,2 estrellas,FRAY J. S. MARIA DE ORO,2554,FRAY JUSTO SANTAMARIA DE ORO 2554,-58.423850,-34.578633
78,UH HOTEL USHUAIA,CORDOBA AV. 350,4312-4811,info@hotelesdiba.com.ar,http://www.hotelesdiba.com.ar/hotel-ushuaia.php,2 estrellas,CORDOBA,350,CORDOBA AV. 350,-58.372174,-34.598551
77,GRAN HOTEL VEDRA,DE MAYO AV. 1350,4383-0883,info@hotelvedra.com.ar,http://www.hotelvedra.com.ar/,2 estrellas,DE MAYO,1350,DE MAYO AV. 1350,-58.385445,-34.609407
76,HOTEL SUIPACHA INN,SUIPACHA 515,4322-0099,RESERVAS@HOTELSUIPACHA.COM.AR,http://www.hotelsuipacha.com.ar/,2 estrellas,SUIPACHA,515,SUIPACHA 515,-58.379520,-34.602187
75,HOTEL RECOLETA,"PAGANO, JOSE LEON 2684",4802-7318,HOTELRECOLETA@FIBERTEL.COM.AR,http://www.recoleta.com.ar/alojamiento/hotel-recoleta,2 estrellas,PAGANO,2684,"PAGANO, JOSE LEON 2684",-58.399751,-34.583889
74,REAL SPLENDID,"FALCON, RAMON L.,CNEL. 2799",4611-4610,realsplendidhotel@ciudad.com.ar,http://www.realsplendidhotel.com.ar/,2 estrellas,RAMON FALCON,2799,"FALCON, RAMON L.,CNEL. 2799",-58.467562,-34.631653
73,CENTRAL CORDOBA HOTEL,SAN MARTIN 1021,4311-1175,,http://www.hotelcentralcordoba.com.ar/,2 estrellas,SAN MARTIN,1021,SAN MARTIN 1021,-58.374300,-34.595975
72,CECIL HOTEL,DE MAYO AV. 1239,4383-3511,cecilhotel@netizen.com.ar,,2 estrellas,DE MAYO,1239,DE MAYO AV. 1239,-58.383981,-34.609148
71,CAMARO PALACE HOTEL,SARMIENTO 4239,4867-4798,camaroph@speedy.com.ar,,2 estrellas,SARMIENTO,4239,SARMIENTO 4239,-58.424886,-34.604388
70,HOTEL ARENALES,ARENALES 2984,4828-5000,info@hotelarenales.com.ar,http://hotelarenales.com.ar/home/,2 estrellas,ARENALES,2984,ARENALES 2984,-58.406810,-34.590439
69,HOTEL FROSSARD,TUCUMAN 686,4322-1811,info@hotelfrossard.com.ar,http://www.hotelfrossard.com.ar/index.html,2 estrellas,TUCUMAN,686,TUCUMAN 686,-58.376442,-34.601139
68,HOTEL ADRAZI INTERNACIONAL,SANTIAGO DEL ESTERO 349,4382-6280,reservas@hoteladrazi.com.ar,http://www.hoteladrazi.com.ar/,3 estrellas,SANTIAGO DEL ESTERO,349,SANTIAGO DEL ESTERO 349,-58.384755,-34.612750
67,HOTEL MADRID,DE MAYO AV. 1135,4381-9021,RESERVA@HOTELMADRID.COM.AR,,2 estrellas,DE MAYO,1135,DE MAYO AV. 1135,-58.382513,-34.609048
66,LISBOA PALACE HOTEL,"MITRE, BARTOLOME 1282",4381-2152,info@hotel-lisboa.com.ar,http://www.hotel-lisboa.com.ar/,2 estrellas,BARTOLOME MITRE,1282,"MITRE, BARTOLOME 1282",-58.384617,-34.607539
65,HOTEL DIPLOMAT,SAN MARTIN 918,4311-9370,info@hoteldiplomat.com.ar,http://www.hoteldiplomat.com.ar/,2 estrellas,SAN MARTIN,918,SAN MARTIN 918,-58.374308,-34.597207
64,KINGS HOTEL,CORRIENTES AV. 623,4322-8161,,http://www.kingshotel.com.ar/,2 estrellas,CORRIENTES,623,CORRIENTES AV. 623,-58.375550,-34.603253
63,HOTEL PALERMO,GODOY CRUZ 2725,4773-7951,info@hotel-palermo.com.ar,http://hotel-palermo.com.ar/,2 estrellas,GODOY CRUZ,2725,GODOY CRUZ 2725,-58.424967,-34.578432
62,HOTEL ESPERIA,"URQUIZA, GRAL. 222",4957-3937,consultas@hotelesperia.com.ar,http://www.hotelesperia.com.ar/,2 estrellas,URQUIZA,222,"URQUIZA, GRAL. 222",-58.410035,-34.612967
61,BLANRO HOTEL,JUNIN 759,4374-2000,reservas@hotelblanro.com.ar,,2 estrellas,JUNIN,759,JUNIN 759,-58.397104,-34.600343
60,HOTEL PIZARRO,PIZARRO 5367,4683-0085,reservas@hotelpizarro.com.ar,http://www.hotelpizarro.com.ar/,2 estrellas,PIZARRO,5367,PIZARRO 5367,-58.500696,-34.642602
59,HOTEL CENTRAL,SOLIS 192,4373-8785,,http://www.hotelcentralbsas.com/,2 estrellas,SOLIS,192,SOLIS 192,-58.390310,-34.611252
58,HOTEL NUEVO MUNDIAL,DE MAYO AV. 1298,4383-0011,reservas@mundialhotel.com.ar,http://www.mundialhotel.com.ar/,2 estrellas,DE MAYO,1298,DE MAYO AV. 1298,-58.384820,-34.609284
57,GRAN HOTEL HISPANO,DE MAYO AV. 861,4345-2020,hhispano@hhispano.com.ar,http://www.hhispano.com.ar/,2 estrellas,DE MAYO,861,DE MAYO AV. 861,-58.378641,-34.608859
56,HOTEL RODNEY,JUNIN 35,4345-0176,administracion@hotelrodney.com.ar,http://www.hotelrodneyba.com/,2 estrellas,JUNIN,35,JUNIN 35,-58.396285,-34.608979
55,HOTEL PANAME,GODOY CRUZ 2774,4771-4041,info@panamehotel.com.ar,http://www.panamehotel.com.ar/,2 estrellas,GODOY CRUZ,2774,GODOY CRUZ 2774,-58.424680,-34.577950
54,HOTEL TRES SARGENTOS,TRES SARGENTOS 345,4312-6081,tresargentos@hotmail.com,http://www.hoteltressargentos.com.ar/,2 estrellas,TRES SARGENTOS,345,TRES SARGENTOS 345,-58.372339,-34.597757
53,TURILUZ (EXMOLINO HOTEL),CALLAO AV. 164,4374-9112,info@molinohotel.com.ar,,Hotel sindical,CALLAO,164,CALLAO AV. 164,-58.392186,-34.607280
52,AYACUCHO PALACE HOTEL,AYACUCHO 1408,4806-1815,reservas@ayacuchohotel.com.ar,http://ayacuchohotel.com.ar,2 estrellas,AYACUCHO,1408,AYACUCHO 1408,-58.394854,-34.592560
51,GRAN HOTEL ATLANTIC,CASTELLI 45,4951-0081,reservasweb@hotelatlantic.com.ar,http://hotelatlantic.com.ar/,2 estrellas,CASTELLI,45,CASTELLI 45,-58.404581,-34.609401
50,HOTEL MARBELLA,DE MAYO AV. 1261,4383-8566,info@hotelmarbella.com.ar,http://www.hotelmarbella.com.ar/hotel.html,2 estrellas,DE MAYO,1261,DE MAYO AV. 1261,-58.384301,-34.609170
49,TUCUMAN PALACE HOTEL,TUCUMAN 384,4311-2298,reservas@tucumanpalacehotel.com.ar,http://www.tucumanpalace.com.ar/,2 estrellas,TUCUMAN,384,TUCUMAN 384,-58.372245,-34.600854
48,PLAZA ROMA,LAVALLE 110,4312-7436,reservas@hotelplazaroma.com.ar,http://www.hotelplazaroma.com/,2 estrellas,LAVALLE,110,LAVALLE 110,-58.369326,-34.601869
47,HOTEL INTERNACIONAL,"IRIGOYEN, BERNARDO DE 554",4334-4949,info@hotel-internacional.com.ar,www.hotel-internacional.com.ar,2 estrellas,BERNARDO DE IRIGOYEN,554,"IRIGOYEN, BERNARDO DE 554",-58.380346,-34.614701
46,NOVEL HOTEL,DE MAYO AV. 915,4345-0176,gerencia@novelhotel.com.ar,,2 estrellas,DE MAYO,915,DE MAYO AV. 915,-58.379400,-34.608832
45,GUIDO PALACE,GUIDO 1780,4812-0341,consulta@guidopalace.com,,2 estrellas,GUIDO,1780,GUIDO 1780,-58.389700,-34.590282
44,ASTORIA,DE MAYO AV. 916,4334-9061,info@hotel-astoria.com.ar,http://www.hotel-astoria.com.ar/,2 estrellas,DE MAYO,916,DE MAYO AV. 916,-58.379405,-34.608993
43,HOTEL RITZ,DE MAYO AV. 1111,4383-9001,reservas@ritzbuenosaires.com,,2 estrellas,DE MAYO,1111,DE MAYO AV. 1111,-58.382239,-34.609029
42,HOTEL COMBATE DE LOS POZOS,COMBATE DE LOS POZOS 870,4383-5479,,,1 estrella,COMBATE DE LOS POZOS,870,COMBATE DE LOS POZOS 870,-58.393164,-34.618905
41,NUÑEZ SUITES,NUÑEZ 2129,4704-6043,info@nunezsuites.com.ar,http://www.nunezsuites.com.ar/,1 estrella,NUÑEZ,2129,NUÑEZ 2129,-58.464962,-34.548389
40,LA FRESQUE,DE MAYO AV. 984,4331-3615,info@lafresquehotel.com,http://lafresquehotel.com/es/,1 estrella,AV DE MAYO,984,DE MAYO AV. 984,-58.380303,-34.609055
39,MITRE SUITES HOTEL,"MITRE, BARTOLOME 4315",4115-9161,info@mitresuiteshotel.com.ar,http://www.mitresuiteshotel.com.ar/,1 estrella,BARTOLOME MITRE,4315,"MITRE, BARTOLOME 4315",-58.427728,-34.610503
38,AYRES PORTEÑOS TANGO SUITES,CHACABUCO 615,4307-0802,,,1 estrella,CHACABUCO,615,CHACABUCO 615,-58.376078,-34.615128
37,HOTEL LUA,CATAMARCA 85,4861-6815,,,1 estrella,CATAMARCA,85,CATAMARCA 85,-58.407487,-34.611095
36,HOTEL THE LOFT,RIVADAVIA AV. 921,4331-4538,reservastheloft@outlook.com,,1 estrella,RIVADAVIA,921,RIVADAVIA AV. 921,-58.379427,-34.608277
35,HOTEL DE LA RUE,"FREIRE, RAMON, CAP. GRAL. 1765",4551-4884,info@hoteldelarue.com.ar,http://www.hoteldelarue.com.ar/,1 estrella,RAMON FREIRE,1765,"FREIRE, RAMON, CAP. GRAL. 1765",-58.461529,-34.569843
34,HOTEL LAS FAMILIAS,CUBA 3146,4702-5687,,http://www.hotellasfamilias.com/,1 estrella,CUBA,3146,CUBA 3146,-58.463580,-34.551451
33,HOTEL PLAZA CONGRESO,RIVADAVIA AV. 1691,4371-9747,plazacongreso@hotelescongreso.com.ar,http://www.hotelplazacongreso.com.ar/,1 estrella,RIVADAVIA,1691,, , 
32,COLIN,"GARAY, JUAN DE AV. 1359",4304-8153,,,1 estrella,JUAN DE GARAY,1359,"GARAY, JUAN DE AV. 1359",-58.385165,-34.627040
31,HOTEL PANAMERICAN,MORENO 2754,4931-2631,,,1 estrella,MORENO,2754,MORENO 2754,-58.404765,-34.613447
30,HOTEL BRISAS,TACUARI 1621,4300-5076,,,1 estrella,TACUARI,1621,TACUARI 1621,-58.377122,-34.627141
29,HOTEL QUITO,"ALSINA, ADOLFO 2737",4957-5056,,,1 estrella,ALSINA,2737,"ALSINA, ADOLFO 2737",-58.404861,-34.612341
28,HOTEL CASTELLI 75,CASTELLI 75,4952-9003,,,1 estrella,CASTELLI,75,CASTELLI 75,-58.404604,-34.609091
27,ONCE PLAZA HOTEL,MORENO 2717,4932-6700,onceplaza@hotmail.com.ar,http://www.onceplazahotel2.com.ar/,1 estrella,MORENO,2717,MORENO 2717,-58.404568,-34.613366
26,HOTEL LLANO,"YRIGOYEN, HIPOLITO 3023",4861-1672,,,1 estrella,HIPOLITO YRIGOYEN,3023,"YRIGOYEN, HIPOLITO 3023",-58.409146,-34.611453
25,REINA HOTEL,DE MAYO AV. 1120,4325-8960,recepcion@hotelreina.com.ar,https://www.hotelreina.com.ar,1 estrella,DE MAYO,1120,DE MAYO AV. 1120,-58.382316,-34.609190
24,GRAN HOTEL LIBERTAD,LIBERTAD 1058,02317-422244,reservas@granhotellibertad.com.ar,http://grandhotellibertad.com.ar/,1 estrella,LIBERTAD,1058,LIBERTAD 1058,-58.384293,-34.596201
23,MORDOMO,CIUDAD DE LA PAZ 2942,4544-2711,hotelmordomo@yahoo.com.ar,http://www.hotelmordomo.com/,1 estrella,CIUDAD DE LA PAZ,2942,CIUDAD DE LA PAZ 2942,-58.464122,-34.555699
22,VERSALLES PALACE,FINOCHIETTO ENRIQUE DR. 864,4361-5800,edu_savall@hotmail.com,,1 estrella,DR E FINOCHIETTO,864,FINOCHIETTO ENRIQUE DR. 864,-58.375975,-34.630520
21,HOTEL PALACE SOLIS,SOLIS 352,4371-6266,marcepantano@hotmail.com,http://www.hotelpalacesolis.com/,1 estrella,SOLIS,352,SOLIS 352,-58.390320,-34.613144
20,HOTEL LOURDES,CALLAO AV. 44,4952-3087,lourdeshotel@yahoo.com,,1 estrella,CALLAO,44,CALLAO AV. 44,-58.392097,-34.608662
19,ESQUEL,BRASIL 1319,4305-6362,,,1 estrella,BRASIL,1319,BRASIL 1319,-58.384679,-34.628201
18,HOTEL DU HELDER,RIVADAVIA AV. 857,4345-3644,hotelduhelder@hotmail.com,http://www.hotelduhelder.com/,1 estrella,RIVADAVIA,857,RIVADAVIA AV. 857,-58.378597,-34.608229
17,HOTEL CASABLANCA,SANTIAGO DEL ESTERO 1687,4305-4048,HOTELCASABLANCA@CIUDAD.COM.AR,,1 estrella,SANTIAGO DEL ESTERO,1687,SANTIAGO DEL ESTERO 1687,-58.384392,-34.628007
16,HOTEL ALDEANO I,LA RIOJA 277,4931-2980,aldeano1@hotelaldeano.com.ar,,1 estrella,LA RIOJA,277,LA RIOJA 277,-58.408692,-34.613602
15,HOTEL EL CASTILLO,"ALVEAR, MARCELO T. DE 1893",4813-2048,gerencia@hotel-elcastillo.com.ar,http://www.hotel-elcastillo.com.ar/,1 estrella,MARCELO T DE ALVEAR,1893,"ALVEAR, MARCELO T. DE 1893",-58.394637,-34.597224
14,HOTEL FLORENTINO,"URQUIZA, GRAL. 187",4932-9641,,,1 estrella,URQUIZA,187,"URQUIZA, GRAL. 187",-58.410138,-34.612572
13,HOTEL CEVALLOS,"CEVALLOS, VIRREY 261",4372-7636,hotelcevallos@hotelescongreso.com.ar,http://www.hotelescongreso.com.ar/hotelcevallos/,1 estrella,VIRREY CEVALLOS,261,"CEVALLOS, VIRREY 261",-58.388981,-34.611914
12,HOTEL RIO DE LA PLATA,"GARAY, JUAN DE AV. 1271",4305-3191,info@hotelreinodelplata.com.ar,http://www.hotelreinodelplata.com.ar/,1 estrella,JUAN DE GARAY,1271,"GARAY, JUAN DE AV. 1271",-58.383916,-34.626907
11,HOTEL EL CABILDO,LAVALLE 748,4322-6695,recepcion@hotelelcabildo.com,https://www.hotelelcabildo.com,1 estrella,LAVALLE,748,LAVALLE 748,-58.377360,-34.602383
10,HOTEL HISPANO ARGENTINO,CATAMARCA 167,4381-9407,hhispano@hhispano.com.ar,http://www.hhispano.com.ar/,1 estrella,CATAMARCA,167,CATAMARCA 167,-58.407147,-34.612066
9,HOTEL TERMINE,CASTELLI 61,4951-0071,TERMINEHOTEL@ARNET.COM.AR,http://www.terminehotel.com.ar/,1 estrella,CASTELLI,61,CASTELLI 61,-58.404592,-34.609255
8,HOTEL MAJESTIC,LIBERTAD 121,4382-1949,INFO@MAJESTICHOTEL.COM.AR,http://www.majestichotel.com.ar/,1 estrella,LIBERTAD,121,LIBERTAD 121,-58.383493,-34.607230
7,HOTEL PRINCE,ARENALES 1627,4811-8004,princehotel@fibertel.com.ar,http://www.princehotel.com.ar/,1 estrella,ARENALES,1627,ARENALES 1627,-58.390645,-34.594987
6,HOTEL MILAN,MONTEVIDEO 337,4373-0736,gerencia@milanhotel.com.ar,http://www.milanhotel.com.ar/,1 estrella,MONTEVIDEO,337,MONTEVIDEO 337,-58.389323,-34.604920
5,AVENIDA PETIT HOTEL,DE MAYO AV. 1347,4381-2428,avenidapetit@gmail.com,http://avenidapetit.blogspot.com.ar/,1 estrella,DE MAYO,1347,DE MAYO AV. 1347,-58.385505,-34.609331
4,ALFA HOTEL,RIOBAMBA 1064,4812-3719,reservas@alfahotel.com.ar,http://www.alfahotel.com.ar/,1 estrella,RIOBAMBA,1064,RIOBAMBA 1064,-58.394791,-34.596496
3,HOTEL CONDOR,LA RIOJA 258,4932-7626,hotelcondor@hotmail.com,,1 estrella,LA RIOJA,258,LA RIOJA 258,-58.408614,-34.613372
2,HOTEL CHILE,DE MAYO AV. 1297,4381-6363,hotelchile@hotmail.com,http://www.chilehotel.com.ar/,1 estrella,DE MAYO,1297,DE MAYO AV. 1297,-58.384705,-34.609198
1,HOTEL TURISTA,DE MAYO AV. 686,4331-2281,turistahotel@yahoo.com.ar,http://www.hotel-turista.com/,1 estrella,DE MAYO,686,, , 
