WKT,id,nombre,direccion,telefono,email,web,mecanica_s,horario_de,calle,altura,calle2,direccion_,barrio,comuna
"POINT (-58.4256879365174 -34.5923050897605)","1",Bicicletas Araoz,Araoz 1458,011-4833-7887 / 011-4832-7704,info@biciccletasaraoz.com.ar,http://www.bicicletasaraoz.com.ar/,True,Lunes a Viernes de 10 a 20 hs y Sábados de 10 a 18hs.,ARAOZ,"1458",,ARAOZ 1458,Palermo,Comuna 14
"POINT (-58.4259820523858 -34.581377735346)","2",Roda2oro,Oro 2305,4774-0403,Roda2oro@gmail.com,http://www.roda2oro.com/,False,Lun a vier de 10 a 13 y de 14.30 a 19 / Sáb de 10 a 13,FRAY JUSTO SANTAMARIA DE ORO,"2305",,FRAY JUSTO SANTAMARIA DE ORO 2305,Palermo,Comuna 14
"POINT (-58.4153429603451 -34.6533516212895)","3",Walter,Linch 3914,4912-2738,walterbikes-10@hotmail.com,,False,,LYNCH,"3914",,LYNCH 3914,Nueva Pompeya,Comuna 4
"POINT (-58.4432441275002 -34.5943508729756)","4",Bici Shop,Villaroel 1093,4855-8329,info@tubicicleteria.com,www.tubicicleteria.com,False,,VILLARROEL,"1093",,VILLARROEL 1093,Villa Crespo,Comuna 15
"POINT (-58.3773343753292 -34.6083635891506)","5",Bicicleterias El colo,Rivadavia 770,4342--3887,info@bicicleteriaelcolo.com.ar,http://www.bicicleteriaelcolo.com.ar/,True,Lun a vier de 9 a 19/Sáb de 9 a 13,RIVADAVIA AV.,"770",,RIVADAVIA AV. 770,Monserrat,Comuna 1
"POINT (-58.4158017616162 -34.5976774009676)","6",Canaglia (Córdoba),Avda. Cordoba 3489,3535-2381,cordoba3489@canaglia.com,http://www.canaglia.com/,True,Lun a Vier de 9.30 a 13.30 y de 15.30 a 19.30/Sáb de 9 a 13 y 15 a 18,CORDOBA AV.,"3489",,CORDOBA AV. 3489,Recoleta,Comuna 2
"POINT (-58.3806491176522 -34.6000592581596)","7",Canaglia (Viamonte),Viamonte 967,4322-3426,canagliacentro@gmail.com,http://www.canaglia.com/,True,Lun a Vier de 9 a 18.30,VIAMONTE,"967",,VIAMONTE 967,San Nicolas,Comuna 1
"POINT (-58.5141232337963 -34.63941542437)","8",Canaglia (Rivadavia),Av. Rivadavia 10700,4644-3531,liniers@canaglia.com,http://www.canaglia.com/,True,Lun a vier de 9 a 13 y de 15 a 19.30/Sáb de 9 a 13.30 y de 15 a 18,RIVADAVIA AV.,"10700",,RIVADAVIA AV. 10700,Liniers,Comuna 9
"POINT (-58.4140531026509 -34.580139415205)","9",Canaglia (Lafinur),Lafinur 3057,4801-6007,palermo@canaglia.com,http://www.canaglia.com/,True,Lun a vier de 10 a 13.30 y de 15 a 19.45/Sáb de 10 a 14 y de 15 a 18,Lafinur,"3057",,LAFINUR 3057,Palermo,Comuna 14
"POINT (-58.3964882750075 -34.605806495677)","10",Espindola BIKE,Junin 305,4953 7335,info@espindolabikes.com.ar,www.espindolabikes.com.ar,False,Lun a Vier de 9.30 a 20/Sáb de 9.30 a 17,JUNIN,"305",,JUNIN 305,Balvanera,Comuna 3
"POINT (-58.3778164765587 -34.625752245726)","11",La esquina del Rodado,Av. Garay 900,4300-2781,,,False,Lun a vier 9 a 19,"GARAY, JUAN DE AV.","900",,"GARAY, JUAN DE AV. 900",Constitucion,Comuna 1
"POINT (-58.4309194650562 -34.5780059394994)","12",Millenium Bike,Bonpland 2393,4779-0871,mileniumbike@hotmail.es // mileniumbiker@yahoo.com,,True,Lun a Sáb de 9 a 20,BONPLAND,"2393",,BONPLAND 2393,Palermo,Comuna 14
"POINT (-58.4325651431927 -34.6090495721764)","13",Nodari Boutique,Eduardo Acevedo 575,4982-3418,ventas@nodari.com.ar,http://www.nodari.com.ar/,False,Lunes a Viernes de 10 a 19hs- Sabados 9 a 15hs,"ACEVEDO, EDUARDO","575",,"ACEVEDO, EDUARDO 575",Caballito,Comuna 6
"POINT (-58.4325763205718 -34.6089118173601)","15",Nodari Taller,Avda. D¡az Vélez 4686,4958-1405,ventas@nodari.com.ar,http://www.nodari.com.ar/,True,Lunes a Viernes de 10 a 19hs- Sabados 9 a 15hs,DIAZ VELEZ AV.,"4686",,DIAZ VELEZ AV. 4686,Caballito,Comuna 6
"POINT (-58.4406993916226 -34.6358144619009)","16",Los Primos,Asamblea 1126,4921-2906,losprimosbikes@hotmail.com,,False,Lun a Dom de 10 a 19.30,ASAMBLEA AV.,"1126",,ASAMBLEA AV. 1126,Parque Chacabuco,Comuna 7
"POINT (-58.38579512023 -34.5939473791802)","18",Belosophy,Talcahuano 1235,4815-7329,info@belosophybikes.com.ar,http://belosophybikes.com/,True,Lun a Vier de 10.30 a 19.30 / Sáb de 10.30 a 14,Talcahuano,"1235",,TALCAHUANO 1235,Retiro,Comuna 1
"POINT (-58.3688376369865 -34.6413412873863)","19",Rodados Saint Germain,Avenida Reg de Patricios 1,4302-2708,rodadossaintgermain@hotmail.com,,True,,REGIMIENTO DE PATRICIOS AV.,"1228",,REGIMIENTO DE PATRICIOS AV. 1228,Boca,Comuna 4
"POINT (-58.3850006184894 -34.6085189049291)","20",Bike-Shop,Talcahuano 10,4383-3925,bikeshops@yahoo.com.ar/anataborcias@yahoo.com.ar,http://www.bicicletasbikeshop.com.ar,True,Lun a vier de 9 a 19/Sáb de 9 a 16,TALCAHUANO,"10",,TALCAHUANO 10,San Nicolas,Comuna 1
"POINT (-58.4593802628315 -34.5580984212272)","21",New Bikes,Monroe 2364,4780-2066,info@newbikes.com.ar,http://www.newbikes.com.ar/,False,Lun a vier de 10 a 13.30 y de 14.30 a 20,MONROE,"2364",,MONROE 2364,Belgrano,Comuna 13
"POINT (-58.4155972652053 -34.5847008272945)","22",New Bikes,Scalabrini Ortiz 2552,4832-1232,info@newbikes.com.ar,http://www.newbikes.com.ar/,False,Lun a vier de 10 a 13.30 y de 14.30 a 20,"SCALABRINI ORTIZ, RAUL","2552",,"SCALABRINI ORTIZ, RAUL 2552",Palermo,Comuna 14
"POINT (-58.4648097115711 -34.6156477608787)","23",Probikes,Boyaca 1130,4582-0876,info@probikes.com.ar,http://www.probikes.com.ar/,False,Lun a vier de 9 a 19 / Sáb de 9 a 16,BOYACA,"1130",,BOYACA 1130,Villa Gral. Mitre,Comuna 11
"POINT (-58.4402448135666 -34.6086308653793)","24",Rodados La esquina,Av D¡az Velez 5201,4981-4931,rodadoslaesquina@gmail.com,http://www.rodadoslaesquina.com.ar/,True,Lun a Vier de 9.30 a 14 y de 15 a 20.30/Sábados de 9.30 a 20,DIAZ VELEZ AV.,"5201",,DIAZ VELEZ AV. 5201,Caballito,Comuna 6
"POINT (-58.4215981407615 -34.6077098979491)","25",Sin-Límite,Medrano 262,4981-3434 // wpp: 1123475165,info@sin-limite.com.ar,http://www.sin-limite.com.ar/,True,Lu a Vi de 14 a 20.30 hs / Sáb de 10 a 15 hs,MeDRANO,"262",,MEDRANO AV. 262,Almagro,Comuna 5
"POINT (-58.3710691223147 -34.6268316029967)","26",Bicicletas Mila,Caseros 402,4307-4370,bicicletasmila@hotmail.com,www.bicicletasmila.com.ar - Facebook: /BicicletasMila - Instagram: @bicicletasmila,False,"Lunes a Viernes de 9 a 19hs, Sábados de 9 a 18hs y Domingos de 10 a 17hs",CASEROS AV.,"402",,CASEROS AV. 402,Barracas,Comuna 4
"POINT (-58.4071800974297 -34.6372122562483)","27",Power Bikes,Caseros 3081,4912-0141,jorge_samite@hotmail.com,,False,,CASEROS AV.,"3081",,CASEROS AV. 3081,Parque Patricios,Comuna 4
"POINT (-58.4463073605107 -34.5711125224665)","28",Runner Bike,Ciudad de la Paz 771,4771-9277,ventas@runnerbike.com.ar,http://www.runnerbike.com.ar/,True,Lun a Vier de 10 a 14 y 15 a 20/Sáb de 10 a 14 y de 15 a 19,CIUDAD DE LA PAZ,"771",,CIUDAD DE LA PAZ 771,Colegiales,Comuna 13
"POINT (-58.4273955227088 -34.6249929815008)","29",Bicicleterias Ale,Av. La Plata 795,4923-3931,info@alebikes.com.ar,http://www.alebikes.com.ar/,False,Lun a Vier de 10 a 13 y de 15 a 19.30/ Sáb de 9.30 a 16,LA PLATA AV.,"795",,LA PLATA AV. 795,Caballito,Comuna 6
"POINT (-58.4256469899459 -34.5803655540624)","30",Andino Bikes,Guemes 4818,4775-3677,andino_bike@hotmail.com,http://www.andinobike.com.ar/,False,Lun a Vier de 9 a 19 / Sáb de 10:00 - 17:00,GUEMES,"4818",,GUEMES 4818,Palermo,Comuna 14
"POINT (-58.4267014841982 -34.5829444795815)","31",Bicicletería Orense,Paraguay 4718,4774 6293,orensebikes@yahoo.com.ar,http://www.bicicletasorense.com.ar/,True,Lun a vier de 9.30-13 y de 15 a 19.30,PARAGUAY,"4718",,PARAGUAY 4718,Palermo,Comuna 14
"POINT (-58.4127987603878 -34.5919153728136)","32",American Bike,Av. Cnel. Diaz 1664,4822-0889,info@americanbike.com.ar,http://www.americanbike.com.ar/,True,Lun a Vier de 10 a 14 y de 15 a 20.30 / Sáb de 10 a 14 y de 15 a 20,"DIAZ, CNEL. AV.","1664",,"DIAZ, CNEL. AV. 1664",Palermo,Comuna 14
"POINT (-58.442391551387 -34.5859087869051)","33",Bicicletería Orense,Av. Cordoba 5801,4772-2265,orensebikes@yahoo.com.ar,http://www.bicicletasorense.com.ar/,True,Lun a vier de 9.30-13 y de 15 a 19.30,CORDOBA AV.,"5801",,CORDOBA AV. 5801,Palermo,Comuna 14
"POINT (-58.4881954817608 -34.6482052323649)","34",Rodados Universo,Av Directorio 4699,4682-3627,info@rodadosuniverso.com.ar,http://www.rodadosuniverso.com.ar/,False,Lun a vier de 9 a 13 y de 15 a 20/Sáb de 9 a 14,DIRECTORIO AV.,"4699",,DIRECTORIO AV. 4699,Parque Avellaneda,Comuna 9
"POINT (-58.4882995382971 -34.6351744082474)","35",Rodados Universo,Av. Rivadavia 8829,4671-0478,info@rodadosuniverso.com.ar,http://www.rodadosuniverso.com.ar/,False,Lun a vier de 9 a 13 y de 15 a 20/Sáb de 9 a 14,RIVADAVIA AV.,"8829",,RIVADAVIA AV. 8829,Velez Sarsfield,Comuna 10
"POINT (-58.4746421099342 -34.540009667519)","36",Bicicleterias Marino,Av. Cabildo 4883,4701-5485,bicicletasmarino@fibertel.com.ar,,False,Lun a Vier de 9 a 12 y de 15 a 19/Sáb de 9 a 13,CABILDO AV.,"4883",,CABILDO AV. 4883,Nuñez,Comuna 13
"POINT (-58.4594924500695 -34.6142763492559)","37",Rodados Schisano,Av. Donato Alvarez 1064,4584-8159,info@schisano.com.ar,www.schisano.com.ar,False,,"ALVAREZ, DONATO, Tte. Gral.","1064",,"ALVAREZ, DONATO, Tte. Gral. 1064",Flores,Comuna 7
"POINT (-58.4950041303711 -34.5816150143853)","38",Rodados Diaz,Av Mosconi 2255,4571-6481/4574-1613,info@rodasdosdiaz.com.ar,http://www.rodadosdiaz.com.ar/,False,Lun a Vier de 7 a 15/Sáb de 8 a 13,MOSCONI GENERAL AV.,"2255",,MOSCONI GENERAL AV. 2255,Villa Pueyrredon,Comuna 12
"POINT (-58.5139755599379 -34.6590859137992)","39",Ham Bike,Guamin¡ 1928,4686-3486,hambike@hotmail.com,http://www.hambike.com.ar/,False,Lun - Vie: 9:30 - 18:30/Sáb: 9:30 - 18:00,GUAMINI,"1928",,GUAMINI 1928,Mataderos,Comuna 9
"POINT (-58.4596141774487 -34.5540741397022)","40",Nino Bikes,Av. Congreso 2114,3527-4001,bicicleterianino@gmail.com,http://www.ninobikes.com/,True,,Congreso,"2114",,CONGRESO 2114,Belgrano,Comuna 13
"POINT (-58.4395188657828 -34.6286709366344)","42",Mega Bike Center,Av Directorio 899,4923-7767,alejonappi@yahoo.com.ar,,False,Lun a Sáb de 9 a 19,DIRECTORIO AV.,"899",,DIRECTORIO AV. 899,Caballito,Comuna 6
"POINT (-58.4715631550633 -34.5441887368499)","43",Rodados Atalaya,Av.Cabildo 4337,4702-2952,atalaya@rodadosatalaya.com,http://www.rodadosatalaya.com.ar/,False,Lun a Vier de 9 a 12 y de 15 a 19 / Sáb de 9 a 14,CABILDO AV.,"4337",,CABILDO AV. 4337,Nuñez,Comuna 13
"POINT (-58.4249961279682 -34.5907058294205)","44",Only Bikes de Rodados Lucern,Scalabrini Ortiz 1602,4831-4286,rodadoslucerna@fibertel.com.ar,http://www.onlybikes.com.ar/,False,Lun a Sáb de 10 a 20,"SCALABRINI ORTIZ, RAUL AV.","1602",,"SCALABRINI ORTIZ, RAUL AV. 1602",Palermo,Comuna 14
"POINT (-58.4642708438042 -34.6447786067153)","46",Rodados Vidal,Av.Eva Per¢n 3454,4612-8198,biciman75@hotmail.com,,False,,"PERON, EVA AV.","3454",,"PERON, EVA AV. 3454",Flores,Comuna 7
"POINT (-58.4954395802788 -34.6019000296054)","47",Zotta,R. Gutierrez 3222,4503 1882,info@zotta.com.ar,http://www.zotta.com.ar,False,Lun a Vier de 8.30 a 13 y de 14 a 18/Sáb de 8.30 a 13.30,"GUTIERREZ, RICARDO","3222",,"GUTIERREZ, RICARDO 3222",Villa Del Parque,Comuna 11
"POINT (-58.4906455423958 -34.6072912852277)","48",Miely,Cuenca 2474,1552481346/ 4502-8690,rodados_mieli@yahoo.com,,False,Lun a vier de 9 a 12.30 y de 15.30 a 19.30/Sáb de 9 a 18,CUENCA,"2474",,CUENCA 2474,Villa Del Parque,Comuna 11
"POINT (-58.4379089812699 -34.584625070227)","50",Monochrome,Gorriti 5656,"1136268694",info@monochrome.com.ar,http://www.monochrome.com.ar/,False,Lun a vier de 11.30 a 19,GORRITI,"5656",,GORRITI 5656,Palermo,Comuna 14
"POINT (-58.4842303926027 -34.5546469869851)","51",Thunder Bikes,Av. Ricardo Balb¡n 3827,4547-0451,info.thunderbikes@gmail.com,http://www.thunderbikes.com.ar,False,Lun a vier 9 a 13 y 15 a 19/Sáb de 10 a 14 y 15 a 17,"BALBIN, RICARDO, DR. AV.","3827",,"BALBIN, RICARDO, DR. AV. 3827",Saavedra,Comuna 12
"POINT (-58.4660412494516 -34.5570602159848)","52",11 a fondo,Congreso 2757,4542-1835,info@11afondo.com,http://www.11afondo.com,False,Lun a Vie de 10 a 14 y de 16 a 20/Sáb de 10 a 14,CONGRESO AV.,"2757",,CONGRESO AV. 2757,Nuñez,Comuna 13
"POINT (-58.3726542364846 -34.621739459689)","53",Bicicleteria Balcarce,San Juan 495,4300-5369,,,False,Lun a vier de 7 a 19 / Sáb de 8 a 14,SAN JUAN AV.,"495",,SAN JUAN AV. 495,San Telmo,Comuna 1
"POINT (-58.4141108589074 -34.5957642488676)","54",Tecno Bikes,billinghurst 1186,4962-7158,vicicletero@hotmail.com,,True,Lun a vier de 10 a 20/Sáb de 10 a 16,BILLINGHURST,"1186",,BILLINGHURST 1186,Recoleta,Comuna 2
"POINT (-58.3736264836217 -34.6298334036598)","55",Bici Vazquez,Ituzaingo 602,4300-2081,dava62@hotmail.com,,True,,ITUZAINGO,"602",,ITUZAINGO 602,Barracas,Comuna 4
"POINT (-58.4315935857146 -34.5889148573247)","56",Muvin,Gorriti 5051,"4833.2154",info@muvin.com.ar,http://www.muvin.com.ar/,False,Lun a sáb de 10 a 19,GORRITI,"5051",,GORRITI 5051,Palermo,Comuna 14
"POINT (-58.4190168472607 -34.6112474989457)","57",Bicicleteria Movimiento / Biciland,Av. Rivadavia 3746,4983-9569,,,False,Lun a vier de 9.30 a 13.30 y de 16 a 20,RIVADAVIA AV.,"3746",,RIVADAVIA AV. 3746,Almagro,Comuna 5
"POINT (-58.407958858312 -34.619952906611)","58",Bicicleterias Alejo,La rioja 815,4957-1067/15-6553-6869,bicicletasalejo@yahoo.com.ar,http://www.bicicletasalejo.com.ar/,False,Lun a vier de 8.30 a 19/Sáb de 9 a 18,LA RIOJA,"815",,LA RIOJA 815,San Cristobal,Comuna 3
"POINT (-58.4565086424785 -34.5803202988197)","59",Busato,Giribone 990,4553-4278,rodadosbusato@hotmail.com,,True,Lun a Vier de 9 a 13 y de 15 a 19/Sáb de 9 a 13,GIRIBONE,"990",,GIRIBONE 990,Chacarita,Comuna 15
"POINT (-58.3900093426822 -34.622908400538)","60",Furia Specialized Shop,Solis 1221,4304 - 8638,furiashop@gmail.com,http://www.furiashop.com/,False,Lunes a Viernes de 10.30 a 19,SOLIS,"1221",,SOLIS 1221,Constitucion,Comuna 1
"POINT (-58.4360330263864 -34.5885901629786)","61",Soho Bike,Godoy cruz 1518,4777-2394,diosteama_tantocomoyo@hotmail.com.ar,,True,Lun a vier de 10 a 20,GODOY CRUZ,"1518",,GODOY CRUZ 1518,Palermo,Comuna 14
"POINT (-58.5000282623505 -34.5653461588656)","63",Rodados Daye,Av. Crisologo Larralde 569,4541-4374,mdaye@dayebicycles.com,http://www.dayebicycles.com/dayebicycl,False,Lun a Vier de 10 a 19 y Sáb de 10 a 16,"LARRALDE, CRISOLOGO AV.","5690",,"LARRALDE, CRISOLOGO AV. 5690",Villa Urquiza,Comuna 12
"POINT (-58.513538474402 -34.622590150497)","64",Rodados Daye,Lope de Vega 1887,4567-6269,mdaye@dayebicycles.com,http://www.dayebicycles.com/dayebicycl,False,Lun a Vier de 10 a 19 y Sáb de 10 a 16,LOPE DE VEGA AV.,"1887",,LOPE DE VEGA AV. 1887,Monte Castro,Comuna 10
"POINT (-58.4898208806942 -34.5746866046005)","65",Urquiza Bikes (sólo venta),Bucarelli 2530,4523-6031,consultas@urquizabikes.com.ar,http://urquizabikes.com.ar,False,Lun a Vier de 10.30 a 14 y de 16.30 - 20.30/Sáb de 9.30 a 14.30,BUCARELLI,"2530",,BUCARELLI 2530,Villa Urquiza,Comuna 12
"POINT (-58.4227541475468 -34.5947856672086)","66",Vida Sana Bike,Gascon 1349,6380-3192,vidasana@yahoo.com.ar,www.vidasanabike.com.ar,False,Lun a Sáb de 10 a 19,GASCON,"1349",,GASCON 1349,Palermo,Comuna 14
"POINT (-58.45474417037 -34.5635912664704)","67",Bici Urbana,sucre 2357,4784-0155 / 4787-2056,contacto@biciurbana.com.ar,www.biciurbana.com.ar,True,Lun a Sáb de 10 a 19,"SUCRE, ANTONIO JOSE de, Mcal.","2357",,"SUCRE, ANTONIO JOSE de, Mcal. 2357",Belgrano,Comuna 13
"POINT (-58.413237106154 -34.5951110114845)","69",Santilli,Soler 3470,4963-0416,zekito@hotmail.com,,True,Lun a Vier de 10 a 19 / Sáb de 10 a 14,soler,"3470",,SOLER 3470,Recoleta,Comuna 2
"POINT (-58.4074446684751 -34.5818763390871)","72",Lucky Bikes,Cabello 3266,4781-6910,info@lbikes.com.ar,http://luckybikes.mercadoshops.com.ar/,False,Lun a vier de 12 a 19/Sáb de 10 a 14,Cabello,"3266",,CABELLO 3266,Palermo,Comuna 14
"POINT (-58.4016417101728 -34.5893178120918)","73",Via Bike,French 2695,4806-5566 / 15 3432-2748,info@viabike.com.ar,https://www.facebook.com/viabikeweb/info,True,Lun a Vie de 10 a 20/Sáb de 10 a 13,French,"2695",,FRENCH 2695,Recoleta,Comuna 2
"POINT (-58.3845367668705 -34.5938558630205)","74",Libertad Cycling (Sucursal 2),Libertad 1238,4811-9112,recoleta@libertadcycling.com.ar,https://libertadcycling.com.ar/,True,Lun a Viernes 10 a 19 - Sábados 11 a 14.,Libertad,"1238",,LIBERTAD 1238,Retiro,Comuna 1
"POINT (-58.3867324756149 -34.6095812007647)","75",Rodados Ferreri,Av De Mayo 1454,4381-3683,https://www.facebook.com/rodadosferreri,http://www.rodadosferreri.com.ar,False,Lun-Mar-Mier y Vier de 10 a 20/Jue de 10 a 17/Sáb de 10 a 13,De Mayo Av,"1454",,DE MAYO AV. 1454,Monserrat,Comuna 1
"POINT (-58.4090271478509 -34.5811436455371)","76",Tu Hogar Sustentable,Cabello 3433,6091-3838,info@tuhogarsustentable.com,http://www.tuhogarsustentable.com/,False,Lun a Vier 10 a 13.30 y 15 a 20/Sáb 10 a 14 y de 15 a 18,Cabello,"3433",,CABELLO 3433,Palermo,Comuna 14
"POINT (-58.4298812808182 -34.5899427569391)","77",BiciUp,Gurruchaga 1519,3530-1000  // 15 4039-5619,info@biciup.com.ar,http://www.biciup.com.ar/,False,Martes a Sábados de 11 a 20 / Domingos de 15:30 a 20,Gurruchaga,"1519",,GURRUCHAGA 1519,Palermo,Comuna 14
"POINT (-58.4969257955866 -34.6113426558201)","78",Venton,San Nicolás 2338 Puerta B,4568-0123,info@venton.com.ar,venton.com.ar,False,Lun a vier de 9 a 18,San Nicolás,"2338",,SAN NICOLAS 2338,Villa Del Parque,Comuna 11
"POINT (-58.4580864102498 -34.5687418675291)","79",Lord Bike,Crámer Av 1720,"47814984",lordbikeventas@gmail.com,https://www.facebook.com/Ldbike,False,Lun a vier de 10.30 a 13.30 y de 15.30 a 19.30/Sáb de 10.30 a 14,Crámer,"1720",,CRAMER AV. 1720,Belgrano,Comuna 13
"POINT (-58.5058609240612 -34.5886641082733)","80",Filardi,Mosconi 3192,4571-9265,,http://www.bicicletasfilardi.com.ar/inicio.htm,False,Lun a vier de 8:30 a 12 y de 15 a 19,Mosconi,"3192",,MOSCONI GENERAL AV. 3192,Villa Pueyrredon,Comuna 12
"POINT (-58.46497512325 -34.6031204875507)","81",Rodados Paternal,Donato Álvarez 2090,4586-4243,rodadospaternal@hotmail.com.ar,www.rodadospaternal.com.ar,True,Lun a Vier de 9 a 19.30/Sab de 9 a 17,Donato Álvarez,"2090",,"ALVAREZ, DONATO, Tte. Gral. AV. 2090",Villa Gral. Mitre,Comuna 11
"POINT (-58.4353238244358 -34.5646537633219)","82",Libertad Cycling (Sucursal 1),Av. del Libertador 4884,4772-4408,palermo@libertadcycling.com.ar,https://libertadcycling.com.ar/,True,Lun a Viernes 10 a 13 y 14 a 19 - Sábados 10 a 14.,Del Libertador,"4884",,DEL LIBERTADOR AV. 4884,Palermo,Comuna 14
"POINT (-58.4239993580936 -34.590040736856)","83",Soldani Cycling,Costa Rica 4401,3963-4083,costarica@soldanicycling.com,http://www.soldainicycling.com/,False,Lun a Vier de 10 a 20/Sáb de 10 a 16,Costa Rica,"4401",,COSTA RICA 4401,Palermo,Comuna 14
"POINT (-58.4332412259351 -34.6004091086599)","84",Sin Rueditas,Aguirre 184,4857-9594,bicisinrueditas@gmail.com,,False,,Aguirre,"184",,AGUIRRE 184,Villa Crespo,Comuna 15
"POINT (-58.4180500956765 -34.6258654742837)","85",Team Bikes,San Juan 3738,4922-8973,info@team-bikes.com.ar,http://team-bikes.com.ar/,False,Lun a vier de 10 a 13 y de 15 a 20/Sáb de 10 a 17:30,San Juan,"3738",,SAN JUAN AV. 3738,Boedo,Comuna 5
"POINT (-58.4361220537001 -34.5858022927225)","86",Rouen,Gorriti 5484,,,,False,,Gorriti,"5484",,GORRITI 5484,Palermo,Comuna 14
"POINT (-58.4361678197685 -34.585841966264)","88",Rouen,Gorriti 5484,15 6545-2933,info@rouen.cc,https://www.facebook.com/RouenCycling,False,,Gorriti,"5484",,GORRITI 5484,Palermo,Comuna 14
"POINT (-58.5163862996818 -34.6100585533756)","89",Viento Bikes,Jose Pedro Varela 4735,4639-0616,vientobikes@gmail.com,http://vientobikes.blogspot.com.ar - www.facebook.com/vientobikes,False,,Jose Pedro Varela,"4735",,"VARELA, JOSE PEDRO 4735",Villa Devoto,Comuna 11
"POINT (-58.4757350075368 -34.6182592106038)","90",Victorian Bikes,Av Nazca 1303,4582-0116 / 3973-7209,victorianbike@hotmail.com,www.victorianbike.com.ar // Facebook: @VICTORIANBIKE,True,Lun a Vier de 9.30 a 20/Sáb de 9.30 a 18,NAZCA,"1303",,NAZCA AV. 1303,Villa Santa Rita,Comuna 11
"POINT (-58.379479294642 -34.6045839958177)","91",Via Bike,Suipacha 318,4806-5566 / 15 3432-2748,info@viabike.com.ar,https://www.facebook.com/viabikeweb/info,True,Lun a Vie de 10 a 20/Sáb de 10 a 14,SUIPACHA,"318",,SUIPACHA 318,San Nicolas,Comuna 1
"POINT (-58.3987788814313 -34.5912567886913)","92",One love one bike,French 2350,4823-2890,onelove.onebike@gmail.com,http://www.oneloveonebike.com.ar/,False,Lun y feriados cerrado/Mar a Vier 11 a 19/Sáb y Dom 10 a 15,French,"2350",,FRENCH 2350,Recoleta,Comuna 2
"POINT (-58.4400564043563 -34.5826065395708)","93",Hollywood Bikes,Gorriti 5887,4777-4451,info@hollywoodbikes.com.ar,http://www.hollywoodbikes.com.ar/,False,Lun a vier de 11.30 a 19.30/Sáb de 11 a 16,Gorriti,"5887",,GORRITI 5887,Palermo,Comuna 14
"POINT (-58.3839944556766 -34.6179398150059)","94",Funbikers,Av. Independencia 1276,15 3328-9289,funbikers.arg@gmail.com,https://www.facebook.com/funbikers.arg,False,Lun-Vie: 9:00 - 19:30 // Sáb: 9:00 - 17:00,Av Independencia,"1276",,INDEPENDENCIA AV. 1276,Constitucion,Comuna 1
"POINT (-58.5003576515096 -34.5654704101338)","95",Venton,Av Crisologo Larralde 5704,4568-0123,info@venton.com.ar/dario@venton.com.ar,http://www.venton.com.ar/,False,,Av Crisologo Larralde,"5704",,"LARRALDE, CRISOLOGO AV. 5704",Villa Urquiza,Comuna 12
"POINT (-58.4131470129079 -34.5980954455178)","96",Schisano Bikes,Av. Córdoba 3300,4861-3334,schisano@schisano.com.ar,https://www.facebook.com/schisanobikes,False,,Córdoba,"3300",,CORDOBA AV. 3300,Almagro,Comuna 5
"POINT (-58.4759903410453 -34.5796743774967)","98",Carbonobikes,Av. Triunvirato 3905,4521-0292,info@carbonobikes.com.ar,www.carbonobikes.com.ar,True,Lunes de 16 a 20/Martes a Viernes de 10 a 13 y de 16 a 20,Triunvirato,"3905",,TRIUNVIRATO AV. 3905,Villa Ortuzar,Comuna 15
"POINT (-58.4524071474882 -34.5958906214649)","99",Service Top,Av. Dorrego 311,4856-0799,servicetop@hotmail.com,www.bicispersonalizadas.com,False,Lunes a Viernes de 10 a 19/Sábados de 9 a 13,Dorrego,"311",,DORREGO AV. 311,Villa Crespo,Comuna 15
"POINT (-58.4667507281558 -34.5511005038968)","100",Tienda Bike,Av Cabildo 3490,3529-6723,info@TiendaBike.com.ar,www.TiendaBike.com.ar,True,Lunes a Viernes de 10 a 13 y de 15 a 20/Sábados de 10 a 20,Cabildo,"3490",,CABILDO AV. 3490,Nuñez,Comuna 13
"POINT (-58.4741031180358 -34.6163040246333)","101",Bicicletería Works (Juan B Justo),Juan B. Justo 5502,4584-9533,wkbicicletas@hotmail.com,www.bicicleteriaworks.com.ar,False,Lunes a Sábado de 9.30 a 19.30,Juan B Justo,"5502",,"JUSTO, JUAN B. AV. 5502",Villa Santa Rita,Comuna 11
"POINT (-58.4709285677327 -34.6157126092404)","102",Bicicletería Works (Artigas),José G. Artigas 1302,4582-8510,wkbicicletas@hotmail.com,www.bicicleteriaworks.com.ar,False,Lunes a Sábado de 9.30 a 19.30,Artigas,"1302",,"ARTIGAS, JOSE GERVASIO, GRAL. 1302",Villa Gral. Mitre,Comuna 11
"POINT (-58.4905354905035 -34.6022843569202)","103",Bicicletería Works (Nogoyá),Nogoyá 2998,4504-1771,wkbicicletas@hotmail.com,www.bicicleteriaworks.com.ar,False,Lunes a Sábado de 9.30 a 19.30,Nogoyá,"2998",,NOGOYA 2998,Villa Del Parque,Comuna 11
"POINT (-58.4545587692114 -34.5549597679443)","104",CR Bikes,Monroe 1817,3974-7126,crbikes1@hotmail.com.ar,https://www.facebook.com/CrBikes?fref=ts,False,Lunes a Viernes de 10 a 20/Sábados de 10 a 15,Monroe,"1817",,MONROE 1817,Belgrano,Comuna 13
"POINT (-58.492866511267 -34.5713874655297)","105",Venton,Av. Congreso 5336,4568-0123,info@venton.com.ar,https://www.facebook.com/pages/Venton-SRL/496803220343228?fref=ts,False,,Congreso,"5336",,CONGRESO AV. 5336,Villa Urquiza,Comuna 12
"POINT (-58.4747103040855 -34.5628766882312)","106",McGiver,Manuel Ugarte 3663,4547-0327,,,False,,Manuel Ugarte,"3663",,"UGARTE, MANUEL 3663",Coghlan,Comuna 12
"POINT (-58.437608880681 -34.6045094278806)","107",Babe Bikes,Warnes 10,4854-9862,info@babebikes.com.ar,,False,,Warnes,"10",,WARNES AV. 10,Villa Crespo,Comuna 15
"POINT (-58.4581551666852 -34.5749862156747)","108",Bicicletería De Felice,Superí 1300,4553-2700,bicicleteriadefelice@hotmail.com,,False,,Superi,"1300",,SUPERI 1300,Colegiales,Comuna 13
"POINT (-58.4159566479263 -34.5862359016237)","109",Black Bike,Aráoz 2446,4832-2676,blackbikearaoz@gmail.com,,False,,Araoz,"2446",,ARAOZ 2446,Palermo,Comuna 14
"POINT (-58.3845574551647 -34.5970131668896)","110",Ciclo,Marcelo T. de Alvear 1228,,info@craftybikes.com.ar,,False,,Marcelo T. de Alvear,"1228",,"ALVEAR, MARCELO T. DE 1228",Retiro,Comuna 1
"POINT (-58.4574119531551 -34.5569363202729)","111",Green Line,Monroe 2146,4780-5318,greenlinebike@hotmail.com,,False,,Monroe,"2146",,MONROE 2146,Belgrano,Comuna 13
"POINT (-58.3851873845823 -34.5958198432518)","112",Huella Verde Bicicletas,Santa Fe 1270 - Local 17,15 5722-9129,huellaverdebicicletas@gmail.com,,False,,Santa Fe,"1270",,SANTA FE AV. 1270,Retiro,Comuna 1
"POINT (-58.4152302782022 -34.5954674107376)","113",Cyklos,Gorriti 3609,2002-6566,cyklos@outlook.com,https://www.facebook.com/cyklosbicipartes,True,,Gorriti,"3609",,GORRITI 3609,Palermo,Comuna 14
"POINT (-58.4532870118742 -34.5799347951373)","114",Ochoa Bikes,Av. Álvarez Thomas 786,4551-7586 - 15 2264-0532,info@ochoabikes.com.ar,http://www.ochoabikes.com.ar/,True,Lunes a viernes de 9 a 20 y Sábados de 9.30 a 17.30,alvarez thomas,"786",,ALVAREZ THOMAS AV. 786,Chacarita,Comuna 15
"POINT (-58.5025613901412 -34.5665513699511)","115",Golden Bike,Ceretti 3596,4571-7101,info@goldenbike.com.ar,www.goldenbike.com.ar,True,Lun a viernes de 10 a 19 y Sábados de 10 a 17,Ceretti,"3596",,CERETTI 3596,Villa Urquiza,Comuna 12
"POINT (-58.5139421566047 -34.66015584055)","116",Ham Bike,Juan B. Alberdi 7198 y Montiel,4686-6508,hernanmare@gmail.com,https://www.facebook.com/profile.php?id=100001678634224,False,Lun - Vie: 9:30 - 18:30/Sáb: 9:30 - 18:00,Juan Alberdi,"7198",,"ALBERDI, JUAN BAUTISTA AV. 7198",Mataderos,Comuna 9
"POINT (-58.3924248557014 -34.5940165738457)","117",Betrece B13,Juncal 1760,4811-1135,b13bicis@gmail.com,http://b13bicis.com/,False,Lun a Vier de 10 a 20/Sáb de 10 a 14,Juncal,"1760",,JUNCAL 1760,Recoleta,Comuna 2
"POINT (-58.4395989083032 -34.5854749922099)","118",Belgravia Tailor Made Bicyles,Bonpland 1459,(15) 4429 1001,hola@belgravia.com.ar,www.facebook.com/BelgraviaBikes,False,,Bonpland,"1459",,BONPLAND 1459,Palermo,Comuna 14
"POINT (-58.4514064416743 -34.6064832870543)","119",Pedal BA,Av. San Martín 1544,2063-8558,bicicleteriapedal@gmail.com,https://www.facebook.com/bicicleteriapedal,False,Lun a vier de 10 a 13 y de 15 a 20/Sáb de 11 a 14,San Martin Av,"1544",,SAN MARTIN AV. 1544,Caballito,Comuna 6
"POINT (-58.41682788474 -34.595271412766)","120",BiciCity,Bulnes 1422,4862-2574,info@bicicity.com.ar,www.facebook.com/BiciCity-1615714655383646/?fref=ts),True,Lunes a Sábados de 9:30 a 13:00 y 15:00 a 19:30,Bulnes,"1422",,BULNES 1422,Palermo,Comuna 14
"POINT (-58.4352606531347 -34.5676102200762)","121",Bicis,Jorge Newbery 1741,011 3964-1570,bicis@outlook.com.ar,www.bicisbikes.com.ar,False,Lunes a Sábados de 10 a 20 hs. Feriados Cerrado.,jorge newbery,"1741",,"NEWBERY, JORGE 1741",Palermo,Comuna 14
"POINT (-58.4540104298256 -34.6132076385661)","122",Bicicletería Bike Doctor,Fragata Pres. Sarmiento 966,3976-5602,,https://www.facebook.com/BushBikeDoctor/  -- https://www.instagram.com/bikedoctorbici/,False,Martes a Viernes de 10 a 13 y de 15 a 19 - Sábado y Domingo de 12 a 18,Fragata Sarmiento,"966",,FRAGATA PRES. SARMIENTO 966,Caballito,Comuna 6
"POINT (-58.4221769107392 -34.5994544804325)","123",Rodados La Esquina Express,Francisco Acuña de Figueroa 1000,2659-7421,expresslaesquina@gmail.com,Facebook: rodadoslaesquinaexpress,True,,Francisco Acuña de Figueroa,"1000",,"ACUÑA DE FIGUEROA, FRANCISCO 1000",Almagro,Comuna 5
