long,lat,id,nombre,tipo,colectividad,telefono,fax,web,email,observaciones,calle_nombre,calle_altura,calle_cruce,piso,dpto,oficina,barrio,comuna,codigo_postal,codigo_postal_argentino
-58.4386195595045,-34.6023756511242,12,El Buen Sabor,Gastronomía,Afro,48548800,,https://www.elbuensaborafricano.com.ar/,info@elbuensaborafricano.com.ar,,Camargo,296,,,,,Villa Crespo,Comuna 15,1414,C1414AHF
-58.3802030805365,-34.647370148293,359,Asociación Patriótica Albanesa Skenderbeu,Institución Cultural - Social,Albanesa,4302-4392 / 4243-9317,,,apa_senderbeu@yahoo.com.ar,,Goncalves Dias,429,,,,,Barracas,Comuna 4,1276,C1276ACC
-58.4007825952252,-34.5768277195136,380,Embajada de Albania,Embajada,Albanesa,4809-3574 / 4807-8767,,,embassy.buenosaires@mfa.gov.al,,Juez Tedín,3036,,,,,Palermo,Comuna 14,1425,C1425CWH
-58.4628206299654,-34.5687278954368,696,Comunidad de Trabajo de Escuelas Argentino Alemanas - AGDS,Institución Educativa,Alemana,4719-71731,,http://www.agds.org.ar/,secretaria@agds.org.ar,,Freire,1882,,,,,Belgrano,Comuna 13,1428,C1428CYB
-58.3878069576351,-34.6004544959253,633,Fundación Alexander von Humboldt,Institución Cultural - Social,Alemana,4370-4909,,www.clubhumboldt.org.ar,carloselbert@sion.com,,Viamonte,1479,,5,,,San Nicolas,Comuna 1,1055,C1055ABA
-58.4374931891222,-34.5905918214569,13,"Asociación Civil de Derechos Humanos Mujeres Unidas, Migrantes y Refugiadas en Argentina - AMUNRA",Institución Cultural - Social,Alemana,4864-4593,,www.amumra.org.ar,amunra@gmail.com; naty_amunra@yahoo.com.ar,,Jufré,1051,,pb,2,,Villa Crespo,Comuna 15,1414,C1414AYU
-58.3715101899687,-34.6029026498732,632,Cámara de Industria y Comercio Argentino Alemana,Institución Profesional,Alemana,5219-4000/4001 / 4394-0979,,www.ahkargentina.com.ar/,ahkargentina(at)ahkargentina.com.ar,,Av. Corrientes,327,,23,,,San Nicolas,Comuna 1,1043,C1043AAD
-58.3795788137338,-34.6052936881181,631,Asociación Jurídica Argentino Germana,Institución Profesional,Alemana,4321-7509,,www.ajag.org,,,Suipacha,268,,12,,,San Nicolas,Comuna 1,1008,C1008AAF
-58.3714097949847,-34.602896042867,630,Asociación Argentina de Ex Becarios en la República Federal de Alemania AERFA,Institución Profesional,Alemana,4311-8964,,www.aerfa.com.ar,aerfacultura@yahoo.com.ar,,Av. Corriente,319,,1,,,San Nicolas,Comuna 1,1043,C1043AAD
-58.3781294674453,-34.6063820001685,629,Parroquia Centro,Institución Religiosa,Alemana,4328-8520,,,ierpcentroceaba@yahoo.com.ar,,Esmeralda,162,,,,,San Nicolas,Comuna 1,1035,C1035ABD
-58.3717172654715,-34.6029269189128,628,Club Alemán en Buenos Aires,Institución Cultural - Social,Alemana,4311-0716 / 4311-0716,,www.clubaleman.com.ar,info@clubaleman.com.ar; secretaria@clubaleman.com.ar,,Av. Corrientes,327,,21,,,San Nicolas,Comuna 1,1043,C1043AAD
-58.3765703549819,-34.6003093301606,627,"Hogar ""Rodolfo Funke""",Institución Cultural - Social,Alemana,4322-8613,,http://www.fundacionfunke.org.ar/,correo@fundacionfunke.org.ar,,Maipú,671,,4,,42,San Nicolas,Comuna 1,1006,C1006ACG
-58.3704222460709,-34.6103674361947,583,Centro de Ingenieros Alemanes en la Argentina VDI A,Institución Profesional,Alemana,4343-8234 / 4342-4766,,www.vdi-arg.com.ar,socios@vdi-arg.com.ar,,Balcarce,226,,3,,8,Monserrat,Comuna 1,1064,C1064AAF
-58.3704628817181,-34.6122007795696,582,Federación de Asociaciones Argentino Germanas FAAG,Institución Cultural - Social,Alemana,4343-9817,,www.faag.org.ar,faag@fibertel.com.ar; info@faag.org.ar,,Av. Belgrano,295,,6,17,,Monserrat,Comuna 1,1092,C1092AAC
-58.4018995088875,-34.5925935857334,765,Sociedad Alemana de Socorros a Enfermos DKV,Institución Cultural - Social,Alemana,4827-2520,,www.dkv.com.ar,gerencia@dkv.com.ar,,Beruti,2524,,,,,Recoleta,Comuna 2,1425,C1425BBB
-58.3968304854863,-34.5970855936113,766,Institución Cultural Argentino Germana,Institución Educativa,Alemana,4824-4038 / 4824-8383,,,culturalag@yahoo.com,,Marcelo T. de Alvear,2051,,,,,Recoleta,Comuna 2,1122,C1122AAE
-58.401513663704,-34.5920844737364,767,Hospital Alemán,Institución de Salud,Alemana,4827-7000,,www.hospitalaleman.org.ar,comunicaciones@hospitalaleman.com,,Av. Pueyrredon,1640,,,,,Recoleta,Comuna 2,1118,C1118AAT
-58.4485135438272,-34.6148704708473,69,Asociación Argentina de Descendientes de Alemanes del Volga  AADAv,Institución Cultural - Social,Alemana,4431-9715,,www.alemanesdelvolga.com,aadAv@hotmail.com,,Pujol,662,,,2,,Caballito,Comuna 6,1405,C1405ALD
-58.4647522389237,-34.5892617910989,1,Congregación Evangélica Alemana de Buenos Aires,Institución Religiosa,Alemana,4551-6642 / 4559-5377,,www.ceaba.org.ar,administracion@ceaba.org.ar,,Elcano,4530,,1,,,Chacarita,Comuna 15,1427,C1427CIQ
-58.4061907639997,-34.6192571182271,243,Unión Alemana Munro,Institución Cultural - Social,Alemana,4764-3841 / 4767-0125,,www.deutscheverein.com.ar,deutschevm@gmail.com,,Deán Funes,780,,,,,Balvanera,Comuna 3,1231,C1231ABF
-58.4013157623056,-34.6123600786868,244,Club Berlín,Institución Cultural - Social,Alemana,4308-4782,,www.cluberlin.com.ar,info@cluberlin.com.ar,,Alberti,216,,,,,Balvanera,Comuna 3,1082,C1082AAF
-58.3924177448918,-34.6090218611657,245,Fundación Friedrich Naumann,Institución Política,Alemana,4953-1546 / 4953-2974,,www.la.fnst-freiheit.org,argentina@fnst.org,,Av. Rivadavia,1829,,9,,,Balvanera,Comuna 3,1033,C1033AAI
-58.464436179689,-34.5888638816875,2,Cementerio Alemán,Institución Cultural - Social,Alemana,4551-3241,,,cementerio.aleman@ceaba.org.ar,,Elcano,4530,,,,,Chacarita,Comuna 15,1427,C1427CIQ
-58.3797515244917,-34.5943987960565,846,Fundación Konrad Adenauer,Institución Política,Alemana,4326 2552,4326-9944,www.kas.org.ar,info.buenosaires@kas.de,,Suipacha,1175,,3,,,Retiro,Comuna 1,1008,C1008AAW
-58.4935034403895,-34.6008390631355,38,Sociedad Educacionista Alemana de Villa Devoto y Villa del Parque. Schiller Schule,Institución Educativa,Alemana,4501-5929 / 4501-0293,,www.schiller.com.ar; www.institutoschiller.edu.ar,administracion@institutoschiller.com.ar,,Helguera,3071,,,,,Villa Del Parque,Comuna 11,1417,C1417CRA
-58.379642555354,-34.5963049450896,845,Fundación Friedrich Ebert,Institución Política,Alemana,4312-1732,,www.fes.org.ar,en-contacto@fes.org.ar,,Marcelo T. de Alvear,883,,4,,,Retiro,Comuna 1,1058,C1058AAK
-58.440011438855,-34.5674105158242,382,Consulado de Alemania,Consulado,Alemana,4778-2582 / 4778-2500/2550,4778-2500,www.buenos-aires.diplo.de,,,Villanueva,1055,,,,,Palermo,Comuna 14,1426,C1426BMC
-58.4401650714239,-34.5672952797472,381,Embajada de Alemania,Embajada,Alemana,4778-2528 / 4778-2500/2550,4778-2500,http://www.buenos-aires.diplo.de/,info@buenos-aires.diplo.de,,Villanueva,1055,,,,,Palermo,Comuna 14,1426,C1426BMC
-58.4593617688521,-34.5662490604552,698,Parroquia Belgrano,Institución Religiosa,Alemana,4781-7108,,,bruno.knoblauch@ceaba.org.ar,,Sucre,2855,,,,,Belgrano,Comuna 13,1428,C1428DVY
-58.4627764596226,-34.5687785937508,697,Asociación Cultural Pestalozzi,Institución Educativa,Alemana,4555-3688,4554 1157,www.pestalozzi.edu.ar,direccion.general@pestalozzi.com.ar; info@pestalozzi.edu.ar,,Cap. Ramón Freire,1882,,,,,Belgrano,Comuna 13,1428,C1428CYB
-58.4509142929662,-34.5683153864666,236,Embajada de Angola,Embajada,Angolana,4789-9714 / 15-3424-2222 / 4554-8383/8877,,,embaixada.argentina@mirexgov.ao,,Virrey Loreto,2477,,,,,Colegiales,Comuna 13,1426,C1426DXS
-58.4508756525728,-34.5682596886922,237,Consulado de Angola,Consulado,Angolana,4554-8383/8877,,,embaixada.argentina@mirexgov.ao,,Virrey Loreto,2477/79/81,,,,,Colegiales,Comuna 13,,
-58.4020985918031,-34.5792228136952,384,Consulado de Arabia Saudita,Consulado,Árabe,4802-3375/4303/0760,,www.embajadasaudi.org,embasaudita@fibertel.com.ar,,Alejandro de Aguado,2881,,,,,Palermo,Comuna 14,1425,C1425CEA
-58.3941902196967,-34.5917905117278,770,Club Sirio Libnés,Institución Cultural - Social,Árabe,4806 3002,,http://www.clubsiriolibanes.org.ar/,info@clubsiriolibanes.org.ar,,Ayacucho,1496,,,,,Recoleta,Comuna 2,1111,C1111AAN
-58.402075627179,-34.5792824384951,383,Embajada Reino de Arabia Saudita,Embajada,Árabe,4802-3375/4303/0760,,www.embajadasaudi.org,embasaudita@fibertel.com.ar,,Alejandro de Aguado,2881,,,,,Palermo,Comuna 14,1425,C1425CEA
-58.4610891869408,-34.5690655536906,699,Liga Arabe,Institución Cultural - Social,Árabe,4554-0456,4551-4543,,ligaarabe@argentina.com; elfarodelsur@live.com.ar,,La Pampa,3124,,,,,Belgrano,Comuna 13,1428,C1428ECD
-58.3893783390513,-34.6027667259844,634,Camara de Comercio Argentino Arabe,Institución Profesional,Árabe,4372-8167,,http://www.ccaa.com.ar/,,,Montevideo,513,,,,,San Nicolas,Comuna 1,1019,C1019ABK
-58.3941628453362,-34.5917735092101,771,Federación de Entidades Argentino Árabes Ciudad de Buenos Aires y Conurbano - FEARAB,Institución Cultural - Social,Árabe,4326-7431 / 4931-3577,,http://fearab.org/br/,fearabuenosaires@gmail.com,,Ayacucho,1496,,,,,Recoleta,Comuna 2,1111,C1111AAN
-58.4956634384485,-34.5593287929757,215,Club Sirio Libanés,Institución Cultural - Social,Árabe,4544 6967,,http://www.clubsiriolibanes.org.ar/,info@clubsiriolibanes.org.ar,,Av. Triunvirato,6401,,,,,Saavedra,Comuna 12,1431,C1431FDE
-58.3933489081427,-34.5978593620323,768,Embajada Arabe Siria,Embajada,Árabe,4813-2113 / 4813-5438,4814-3211,,embajadasiria@speedy.com.ar,,Av. Callao,956,,,,,Recoleta,Comuna 2,1023,C1023AAP
-58.3933417313911,-34.5978901718165,769,Consulado de Arabia Saudita,Consulado,Árabe,4813-2113 / 4813-5438,4814-3211,www.embassy-finder.com/es/syria_in_buenos-aires_argentina,embajadasiria@speedy.com.ar,,Av. Callao,956,,,,,Recoleta,Comuna 2,1023,C1023AAP
-58.3848878420107,-34.5889942181497,847,Embajada de Argelia,Embajada,Argelina,4815-1271 / 4815-8837,,,embajadaargelia@fibertel.com.ar; argelia@interserver.com.ar,,Montevideo,1889,,,,,Retiro,Comuna 1,1021,C1021AAE
-58.3849241866759,-34.5890469475817,848,Consulado de Argelia,Consulado,Argelina,4815-1271 /4815-8837,,,embajadaargelia@fibertel.com.ar ; argelia@interserver.com.ar,,Montevideo,1889,,,,,Retiro,Comuna 1,1021,C1021AAE
-58.4601390181642,-34.6469024475387,104,"Iglesia Armenia ""Santa Cruz de Varak""",Institución Religiosa,Armenia,4612-1733,,,,,José Martí,1562,,,,,Flores,Comuna 7,1406,C1406FCF
-58.4305483660348,-34.5918418833817,385,Institución Administrativa de la Iglesia Armenia,Institución Cultural - Social,Armenia,4772-3558,,www.centroarmenio.com.ar,centroarmenio@centroarmenio.com.ar,,Armenia,1353,,,,,Palermo,Comuna 14,1414,C1414DKC
-58.4321167733451,-34.5923902730001,386,Unión Compatriótica Armenia de Marash,Institución Cultural - Social,Armenia,4773-2120,,,,,Armenia,1242,,,,,Palermo,Comuna 14,1414,C1414DKB
-58.4307797620565,-34.5915178640266,387,Unión Juventud Armenia,Institución Cultural - Social,Armenia,4775-7595,,,,,Armenia,1366,,,,,Palermo,Comuna 14,1414,C1414DKD
-58.4188530291394,-34.5871907368596,388,Unión Residentes Armenios de Hadjin,Institución Cultural - Social,Armenia,4813-9931,,,,,Av. Scalabrini Ortiz,2273,,,,,Palermo,Comuna 14,1425,C1425DBD
-58.4323676628258,-34.5917954419055,389,Unión Compatriótica Armenia de Aintab,Institución Cultural - Social,Armenia,4773-1933,,,,,Cnel. Niceto Vega,4876,,,,,Palermo,Comuna 14,1414,C1414BEF
-58.3810131627426,-34.5951390942964,849,Cámara de Comercio Argentino Armenia,Institución Profesional,Armenia,4393-0151 / 4393-0354,,www.camararmenia.org.ar,info@camararmenia.org.ar,,Av. Santa Fe,969,,2,,,Retiro,Comuna 1,1059,C1059ABD
-58.4347997772933,-34.6577754180419,553,"Escuela ""Isaac Bakchellian""",Institución Educativa,Armenia,4918-7245,,www.institutobakchellian.esc.edu.ar,info@institutobakchellian.esc.edu.ar,,Corrales,2527,,,,,Villa Soldati,Comuna 8,1437,C1437GMG
-58.5149722361143,-34.6473879424232,565,"Parroquia ""Surp Boghos""",Institución Religiosa,Armenia,4952-7777,,,,,Patrón,6373,,,,,Liniers,Comuna 9,1408,C1408FAU
-58.3942989259987,-34.5917169497447,772,Embajada de la República de Armenia,Embajada,Armenia,4816-8710,4812-2803,www.armeniaforeignministry.com,armargentineembassy@mfa.am,,José Andrés Pacheco de Melo,1922,,,,,Recoleta,Comuna 2,1126,C1126AAD
-58.4303309376964,-34.5931804669411,395,"Unión Cultural ""Sharyum""",Institución Cultural - Social,Armenia,,,,,,Malabia,1287,,,,,Palermo,Comuna 14,1414,C1414DLY
-58.4476695625679,-34.6233434948444,70,Asociación Misionera Armenia,Institución Cultural - Social,Armenia,,,,,,Av. Rivadavia,5848,,,,,Caballito,Comuna 6,1406,C1406GLO
-58.4313075758189,-34.5918570435619,396,Liga de Jóvenes de la U.G.A.B.,Institución Cultural - Social,Armenia,4771-6500 / 4773-2820,,www.ugab.org.ar,,,Armenia,1322,,,,,Palermo,Comuna 14,1414,C1414DKD
-58.4306189324149,-34.5918791930269,397,Organización de Damas de la Iglesia Armenia,Institución Cultural - Social,Armenia,4772-3558,,,,,Armenia,1353,,,,,Palermo,Comuna 14,1414,C1414DKC
-58.4309054113643,-34.5915863392433,398,Fundación Consejo Nacional Armenio,Institución Cultural - Social,Armenia,4775-7595,,www.cna.org.ar,cna@cna.org.ar,,Armenia,1366,,,,,Palermo,Comuna 14,1414,C1414DKD
-58.4148950782382,-34.589543643692,399,"Parroquia Católica Armenia ""Nuestra Señora de Narek""",Institución Religiosa,Armenia,4824-1613 / 4824-4518,,,,,Charcas,3529,,,,,Palermo,Comuna 14,1425,C1425BMU
-58.4307768869992,-34.5919733962608,400,"Iglesia Apostólica Armenia ""San Gregorio El Iluminador""",Institución Religiosa,Armenia,4772-3558,,,,,Armenia,1353,,,,,Palermo,Comuna 14,1414,C1414DKC
-58.43348524821,-34.5691752681981,401,Escuela Armenio Argentina N°8 D.E. 9,Institución Educativa,Armenia,4771-2047,,,,,Arce,611,,,,,Palermo,Comuna 14,1426,C1426BSI
-58.4307042912767,-34.5919333455162,402,"Instituto Educativo ""San Gregorio El Iluminador""",Institución Educativa,Armenia,4772-3558,,www.centroarmenio.com.ar,centroarmenio@centroarmenio.com.ar,,Armenia,1353,,,,,Palermo,Comuna 14,1414,C1414DKC
-58.4278157379605,-34.5981449630705,15,Garbis Villa Crespo,Gastronomía,Armenia,4866-4000,,www.garbis.com.ar,garbis@garbis.com.ar,,Av. Estado de Israel,4393,,,,,Villa Crespo,Comuna 15,1185,C1185AAC
-58.4312110588758,-34.5917934156452,403,"Instituto ""Marie Manoogian""",Institución Educativa,Armenia,4771-6500 / 4773-2820,,www.ugab.org.ar,,,Armenia,1322,,,,,Palermo,Comuna 14,1414,C1414DKD
-58.4307843444264,-34.5915584236939,404,Restaurant Armenia,Gastronomía,Armenia,4776-2500,,armeniarestaurant.com.ar,restaurantarmenia@sion.com,,Armenia,1366,,,,,Palermo,Comuna 14,1414,C1414DKD
-58.4367219081939,-34.5809268623813,405,El Manto,Gastronomía,Armenia,4774-2409,,www.elmanto.com,,,Costa Rica,5801,,,,,Palermo,Comuna 14,1414,C1414BTI
-58.4311385335693,-34.5917512417821,406,Ugab Restaurant. Cena de los viernes y sábados,Gastronomía,Armenia,4773-2820,,www.ugab.org.ar/cena-de-los-viernes-y-sabados,,,Armenia,1322,,,,,Palermo,Comuna 14,1414,C1414DKD
-58.4361303986097,-34.5914424533146,14,Sarkis,Gastronomía,Armenia,4772-4911,,,,,Thames,1101,,,,,Villa Crespo,Comuna 15,1414,C1414DCW
-58.430648712842,-34.5914229136237,407,Viejo Agump,Gastronomía,Armenia,4773-5081,,,,,Armenia,1382,,,,,Palermo,Comuna 14,1414,C1414DKD
-58.4316839444442,-34.5921699063673,408,"Centro Cultural ""Tadrón""",Gastronomía,Armenia,4777-7976,,www.tadronteatro.com.ar,tadronteatro@gmail.com,,Cnel. Niceto Vega,4806,,,,,Palermo,Comuna 14,1414,C1414BEF
-58.374655356942,-34.6075951634257,635,"Fundación ""Boghos Arzoumanian""",Institución Cultural - Social,Armenia,4343-8101,,,,,Roque Saenz Peña,570,,EP,,,San Nicolas,Comuna 1,1035,C1035AAN
-58.4542702044077,-34.5546770006451,701,Garbis Bajo Belgrano,Gastronomía,Armenia,4789-9300,,www.garbis.com.ar,garbis@garbis.com.ar,,11 de septiembre,2517,,,,,Belgrano,Comuna 13,1428,C1428AJE
-58.4648630753481,-34.5724832795239,700,Colegio Mekhitarista,Institución Educativa,Armenia,4552-3690 / 4552-9658,,www.colegiomekhitarista.edu.ar,makhitarista@colegiomakhitarista.edu.ar,,Virrey del Pino,3511,,,,,Belgrano,Comuna 13,1426,C1426EHM
-58.4665748502465,-34.6250002062778,105,Iglesia Evangélica Congregacional Armenia,Institución Religiosa,Armenia,4611-6490,4613-9793,www.ieca.com.ar,pastor@ieca.com.ar,,Av. Avellaneda,2538,,,,,Flores,Comuna 7,1406,C1406FYX
-58.4528913973741,-34.6349980151471,106,Iglesia Evangélica Armenia,Institución Religiosa,Armenia,4613-8008 / 4631-7747,,www.iearmenia.org.ar,info@iearmenia.org.ar,,Av. Carabobo,743,,,,,Flores,Comuna 7,1406,C1406DGH
-58.4598166074841,-34.6471463414082,107,Colegio Arzruni,Institución Educativa,Armenia,4612-1733,,,,,José Martí,1596,,,,,Flores,Comuna 7,1406,C1406FCF
-58.4337016443236,-34.5907858691036,409,"Casa de Descanso ""O.Bodourian- O. Diarbekirian""",Institución Cultural - Social,Armenia,4774-9785 / 4775-8362,,,,,Serrano,1290,,,,,Palermo,Comuna 14,1414,C1414DEZ
-58.4308379733191,-34.5915926589153,410,Diario Armenia,Institución Profesional,Armenia,4775-7595 / 4775-7494,,www.diarioarmenia.org.ar,redaccion@diarioarmenia.org.ar,,Armenia,1366,,,,,Palermo,Comuna 14,1414,C1414DKD
-58.4308244092761,-34.5915386816644,390,Asociación Damas de Beneficencia,Institución Cultural - Social,Armenia,4775-7595,,,,,Armenia,1366,,,,,Palermo,Comuna 14,1414,C1414DKD
-58.4313815752969,-34.5919361384165,391,Unión General Armenia de Beneficencia,Institución Cultural - Social,Armenia,4771-6500 / 4773-2820,,www.ugab.org.ar,secretaria@ugab.org.ar,,Armenia,1322,,,,,Palermo,Comuna 14,1414,C1414DKD
-58.4308625069706,-34.5915622464669,392,Asociación Cultural Armenia,Institución Cultural - Social,Armenia,4773-4452,,,asociacionculturalarmenia@diarioarmenia.org.ar,,Armenia,1366,,,,,Palermo,Comuna 14,1414,C1414DKD
-58.4309480210151,-34.592081168268,393,"Asociación Cultural ""Tekeyan""",Institución Cultural - Social,Armenia,4773-0314,,,,,Armenia,1329,,,,,Palermo,Comuna 14,1414,C1414DKC
-58.4308521884024,-34.5920170689597,411,Periódico Sardarabad,Institución Profesional,Armenia,4771-2520,,,,,Armenia,1329,,,,,Palermo,Comuna 14,1414,C1414DKC
-58.4311599006042,-34.5926118857047,394,Unión Cultural Armenia,Institución Cultural - Social,Armenia,4777-7976,,,,,Cnel. Niceto Vega,4764,,,,,Palermo,Comuna 14,1414,C1414BED
-58.4437643802927,-34.5644146381566,413,Consulado de Australia,Consulado,Australiana,4779-3500,,www.argentina.embassy.gov.au,info.ba.consular@dfat.gov.au.,,Villanueva,1400,,,,,Palermo,Comuna 14,1426,C1426BMJ
-58.4436641695385,-34.5645043157886,412,Embajada de Australia,Embajada,Australiana,4779 3500,4779 3581,http://argentina.embassy.gov.au/       https://www.facebook.com/pg/AustraliaEnArgentinaUruguayYParaguay/about/?ref=page_internal,info.ba.general@dfat.gov.au,,Villanueva,1400,,,,,Palermo,Comuna 14,1426,C1426BMJ
-58.3669761145437,-34.6031650320843,576,Cámara de Comercio e Industria Argentina Australiana,Institución Profesional,Australiana,4590-8787,,http://www.auscham.com.ar/,info@auscham.com.ar,,Alicia Moreau de Justo,400,,3,,,Puerto Madero,Comuna 1,1107,C1107AAH
-58.4117431106133,-34.582721505706,414,Embajada de Austria,Embajada,Austriaca,4809 5800 / 4805 4016,,https://www.bmeia.gv.at/es/oeb-buenos-aires/,buenos-aires-ob@bmeia.gv.at,,French,3671,,,,,Palermo,Comuna 14,1425,C1425AXC
-58.459226807284,-34.5570284695965,702,Asociación Austríaca de Beneficencia,Institución Cultural - Social,Austriaca,4783-6018,,http://austriabenef.org.ar/,,,Vuelta de Obligado,2561,,,,,Belgrano,Comuna 13,1428,C1428ADO
-58.3735994633349,-34.6038972526216,636,Asociación Argentina Austríaca,Institución Cultural - Social,Austriaca,4816-1546,,http://argentino-austriaca.weebly.com/  www.facebook.com/argentinoaustriaca,info@argentino-austriaca.org,,San Martin,345,,3,,7,San Nicolas,Comuna 1,1004,C1004AAG
-58.3735861088313,-34.603968779671,637,Cámara de Comercio Argentino Austríaca,Institución Profesional,Austriaca,4394-2168,,www.ccargaust.com.ar,ccargaust@ccargaust.com.ar,,San Martín,345,,3,,7,San Nicolas,Comuna 1,1004,C1004AAG
-58.4399698740658,-34.5698606050433,415,Embajada de Azerbaiyan,Embajada,Azerbaiyana,4777-3655,4777-6722,www.azembassy.com.ar,buenosaires@azembassy.org.ar,,Maure,2151,,,,,Palermo,Comuna 14,1426,C1426CUM
-58.4398560104031,-34.5697919271403,416,Consulado de Azerbaiyan,Consulado,Azerbaiyana,4777-4655/8928,,,buenosaires@azembassy.org.ar,,Maure,2151,,,,,Palermo,Comuna 14,1426,C1426CUM
-58.3818019908233,-34.5920857934885,850,Consulado de Bahamas,Consulado,Bahameña,1163140000 / 1560546676,,,pyfrom@argenmar.com,,Carlos Pelegrini,1362,,2,,,Retiro,Comuna 1,1011,C1011AAB
-58.4072924906906,-34.5803281595163,417,Consulado de Bangladesh,Consulado,Bangladeshí,4804-5279 / 4815-2321 / 4806-0851,,,consuladodebangladesh@yahoo.com.ar,,Ruggieri,2944,,Torre Dulcale piso 1,,,Palermo,Comuna 14,1425,C1425DLF
-58.4439346027106,-34.553613990914,704,Consulado de Bielorusia,Consulado,Belarusa,4778-9394,,www.argentina.mfa.gov.by,argentina@mfa.gov.by,,Cazadores,2166,,,,,Belgrano,Comuna 13,1428,C1428AVH
-58.4439881043445,-34.5535543461985,703,Embajada de Belarus,Embajada,Belarusa,4778-9394,,www.argentina.mfa.gov.by,argentina@mfa.gov.by,,Cazadores,2166,,,,,Belgrano,Comuna 13,1428,C1428AVH
-58.3723364064898,-34.6091324700711,584,Embajada de Bélgica,Embajada,Belga,4331-0069/0066/0067,,http://argentina.diplomatie.belgium.be/es,buenosaires@diplobel.fed.be,,Defensa,113,,8,,,Monserrat,Comuna 1,1065,C1065AAA
-58.4206189513285,-34.6033897541808,41,"Vertegenwoordiger VIW, Vlamingen in de Wereld",Institución Cultural - Social,Belga,1533758243,,www.viw.be,reincastle@hotmail.com,,Corrientes,3978,,,,,Almagro,Comuna 5,1194,C1194AAS
-58.3807601751108,-34.5951168353591,851,Cámara de Comercio Belga Luxemburguesa en la República Argentina,Institución Profesional,Belga,1557488800,,www.ccbl.com.ar,info@ccbl.com.ar; ccblar@gmail.com,,Av. Santa Fe,951,,2,,,Retiro,Comuna 1,1059,C1059ABD
-58.3744904861808,-34.6030902400197,638,Embajada de Bolivia en Buenos Aires,Embajada,Boliviana,4394 1463,4394-0460,www.embajadadebolivia.com.ar,embolivia-baires@ree.gov.bo,,Av. Corrientes,545,,2,,6,San Nicolas,Comuna 1,1043,C1043AAF
-58.3954681212125,-34.6218377034602,150,Sajama,Gastronomía,Boliviana,,,,,,Humberto 1°,2100,,,,,San Cristobal,Comuna 3,1229,C1229AAF
-58.5288023927293,-34.6411107745553,567,Asociación de Profesionales Bolivianos en Argentina- APBA,Institución Cultural - Social,Boliviana,4641-8693 / 4581-0339,,,comunidadboliviana.com.ar@gmail.com,,Av. Gral. Paz,10746,,local 15,,,Liniers,Comuna 9,1408,C1408FGT
-58.5270833737251,-34.641850751858,568,Miriam,Gastronomía,Boliviana,4641-3064,,,,,Ibarrola,7184,,,,,Liniers,Comuna 9,1408,C1408DXR
-58.5285261077305,-34.6419009822837,569,Pollo Copacabana,Gastronomía,Boliviana,,,,,,Ibarrola,7274,,,,,Liniers,Comuna 9,1408,C1408DXT
-58.4770118956189,-34.6243568407265,128,El Conejo,Gastronomía,Boliviana,,,,,,Cuenca,700,,,,,Floresta,Comuna 10,1406,C1406ARL
-58.4680236885055,-34.6337985209702,108,El Renacer,Gastronomía,Boliviana,6423-2616,,www.facebook.com/pg/restauranteelrenacer,,,San Pedrito,250,,,,,Flores,Comuna 7,1406,C1406EXP
-58.4573325113581,-34.5640679445985,705,La Paceña,Gastronomía,Boliviana,4788-2282,,http://www.lapacena.com/,,,Echeverría,2570,,,,,Belgrano,Comuna 13,1428,C1428DRT
-58.4676860202488,-34.6329896443317,928,Federacion de Asociaciones Folkloricas y Culturales Bolivianas,Institución Cultural - Social,Boliviana,,,https://www.facebook.com/federacionafcb/,,,Avenida Juan Bautista Alberdi,2837,,,,,Flores,Comuna 7,1406,C1406GSE
-58.4063764506124,-34.6086915823615,246,Consulado de Boliavia,Consulado,Boliviana,5263-3790,,www.consuladoboliviano.com.ar,consuladodebolivia@ciudad.com.ar,,Bartolomé Mitre,2815,,1,,106,Balvanera,Comuna 3,1201,C1201AAA
-58.5234937988156,-34.6390692519835,566,Federación de Asociaciones Civiles Bolivianas en Argentina- FACBOL,Institución Cultural - Social,Boliviana,4633-5580,,,facbol@yahoo.com.ar; culturafacbol@hotmail.com; febofacbol@gmail.com;colec_6deagosto@hotmail.com; gruporaices@hotmail.com,,Cosquín,10,,8,C,,Liniers,Comuna 9,1408,C1408GIB
-58.4665639785868,-34.6370993996526,109,La Flor de Chuquisaca,Gastronomía,Boliviana,4613-0149,,,,,San Pedrito,546,,,,,Flores,Comuna 7,1406,C1406EXS
-58.4590939565422,-34.6061623319052,71,Me Leva Que Eu Vou,Institución Cultural - Social,Brasilera,4582-5517,,http://www.melevaqueeuvou.com.ar/,melevaqueeuvou@hotmail.com,,Fragata Pte. Sarmiento,1670,,,D,,Caballito,Comuna 6,1416,C1416CBL
-58.3911741056435,-34.6057435720968,639,Maluco Beleza,Gastronomía,Brasilera,4373-0959 / 4372-1737,,www.facebook.com/MalucoBelezaDisco/,,,Sarmiento,1728,,,,,San Nicolas,Comuna 1,1042,C1042ABH
-58.3740134832595,-34.6127811651519,585,Centro Cultural Brasil-Argentina,Institución Cultural - Social,Brasilera,5235-1152,,http://ccba.itamaraty.gov.br/pt-br/,ccba.buenosaires@itamaraty.gov.br,,Av. Belgrano,552,,,,,Monserrat,Comuna 1,1092,C1092AAS
-58.433392155469,-34.5911028819497,421,Foynes,Gastronomía,Brasilera,6409-4954,,www.facebook.com/barfoynes,foynesrestobar@gmail.com,,Av. Cnel. Niceto Vega,4984,,,,,Palermo,Comuna 14,1414,C1414BEH
-58.3813514840646,-34.5920111198975,853,Consulado de Brasil,Consulado,Brasilera,4515-6500/6531/6511,4508-6520,www.cgbuenosaires.itamaraty.gov.br,cg.baires@itamaraty.gov.br; assistencia.baires@itamaraty.gov.br,,Carlos Pellegrini,1363,,5,P,,Retiro,Comuna 1,1011,C1011AAA
-58.3830833600007,-34.5922734497603,852,Embajada de Brasil,Embajada,Brasilera,5246-7400,,http://buenosaires.itamaraty.gov.br/es-es/,brasemb.buenosaires@itamaraty.gov.br,,Cerrito,1350,,,,,Retiro,Comuna 1,1010,C1010ABB
-58.4329347155239,-34.590744688656,420,Devenir,Gastronomía,Brasilera,4776-3368,,,,,Serrano,1327,,,,,Palermo,Comuna 14,1414,C1414DFA
-58.4382160897257,-34.5829093382534,419,Boteco do Brasil,Gastronomía,Brasilera,3979-2970 / 4770-9130,,,botecodobrasil@hotmail.com,,Honduras,5774,,,,,Palermo,Comuna 14,1414,C1414BNH
-58.4250340578803,-34.5897315198487,418,Me leva Brasil,Gastronomía,Brasilera,4832-4290,,http://www.melevabrasil.com.ar/,,,Costa Rica,4488,,,,,Palermo,Comuna 14,1414,C1414BSF
-58.3732647153848,-34.6030151124372,645,Cámara de Comercio Argentino-Británica,Institución Profesional,Británica,4394-2762,,www.ccab.com.ar,info@ccab.com.ar,,Av. Corrientes,457,,10,,,San Nicolas,Comuna 1,1043,C1043AAE
-58.3952058167019,-34.5856167235474,795,Embajada Britanica,Embajada,Británica,4808-2200 (Conmutador),,https://www.facebook.com/ukinargentina/,askinformation.baires@fco.gov.uk,,Dr. Luis Agote,2412,,,,,Recoleta,Comuna 2,1425,C1425EOF
-58.5097926663305,-34.609586170914,554,Sociedad de Beneficencia de Británicos y Estaodunidenses,Institución Cultural - Social,Británica,4567-9997,,www.babs.org.ar,consultas@babs.org.ar,,Av. Segurola,2941,,,,,Villa Devoto,Comuna 11,1417,C1417BBS
-58.3879496378999,-34.6345647520364,361,Hospital Británico,Institución de Salud,Británica,4309-6400 / 4309-6801,,http://www.hospitalbritanico.org.ar/,consultas@hbritanico.com.ar,,Perdriel,74,,,,,Barracas,Comuna 4,1280,C1280AEB
-58.3784100042988,-34.6008299451155,644,Consejo Comunidad Arg. Britanica,Institución Cultural - Social,Británica,5254-8064/5,,http://www.abcc.org.ar/,,,Esmeralda,634,,2,D,,San Nicolas,Comuna 1,1007,C1007ABF
-58.4467069222195,-34.5592062468197,706,Embajada de Bulgaria,Embajada,Búlgara,4781-8644 / 4786-6273 / 4781-1214,,,,,Sucre 1568 (1428),,,,,,Belgrano,Comuna 13,,
-58.4467069222195,-34.5592062468197,707,Consulado de Bulgaria,Consulado,Búlgara,4781-8644,4781-1214,www.webs.uol.sinectis.com.ar/embular,embassy.buenosaires@mfa.bg; bg.buenosaires@mfa.bg,,Sucre 1568 (1428),,,,,,Belgrano,Comuna 13,,
-58.3830278219014,-34.6129188277993,586,Fundación Argentino Búlgara,Institución Cultural - Social,Búlgara,4639-4301,,,fundacionargentinobulgara@gmail.com; gerardoluca@hotmail.com,,Salta,378,,4,,,Monserrat,Comuna 1,1074,C1074AAH
-58.3804108017546,-34.610107780469,587,Consulado de CaboVerde,Consulado,Caboverdiana,4334-0524,,www.gov.cv/minnec,mne@gov.cv,,Bernardo de Irigoyen,146,,1,,C,Monserrat,Comuna 1,1072,C1072AAD
-58.3732069630999,-34.6033731391574,640,Cámara de Comercio Argentino Canadiense,Institución Profesional,Canadiense,4327-4280,4327-4279,http://www.argcancham.com.ar,ccac@argcancham.com.ar,,Av. Corrientes,456,,19,,194,San Nicolas,Comuna 1,1043,C1043AAR
-58.3913993711865,-34.5890945430396,773,Luna Negra,Gastronomía,Canadiense,4803-1313,,,,,Guido,1936,,,,,Recoleta,Comuna 2,1119,C1119AAD
-58.3978520528239,-34.5799800323703,422,Embajada de Canadá,Embajada,Canadiense,4808-1000,4808-1111,www.buenosaires.gc.ca,bairs-webmail@international.gc.ca,,Tagle,2828,,,,,Palermo,Comuna 14,1425,C1425EEH
-58.3953104701516,-34.5914594656522,774,Embajada de República Checa,Embajada,Checa,4807-3107,4800-1088,www.mfa.cz/buenosaires,buenosaires@embassy.mzv.cz,,Junín,1461,,,,,Recoleta,Comuna 2,1113,C1113AAM
-58.3953211309364,-34.5914199171624,776,Centro Checo de Buenos Aires,Institución Cultural - Social,Checa,4807-3107,4807-3109,www.czechcentres.cz/buenos,ccbuenosaires@czech.cz,,Junín,1461,,,,,Recoleta,Comuna 2,1113,C1113AAM
-58.3952706332618,-34.5914330740631,775,Consulado Checo,Consulado,Checa,4807-3107,,www.mzv.cz/buenosaires,buenosaires@embassy.mzv.cz,,Junín,1461,,,,,Recoleta,Comuna 2,1113,C1113AAM
-58.4382090698761,-34.6275476340576,72,Ceský Dum Argentina,Institución Cultural - Social,Checa,4541-9437 / 1568240131,,"www.cesky-dum.com.ar, www.facebook.com/pg/colectividad.ceskydumargentina",info@cesky-dum.com.ar;  rbasovnik@cesky-dum.com.ar,,José Bonifacio,758,,2,D,,Caballito,Comuna 6,1424,C1424CHP
-58.4029790015658,-34.61273465943,248,Centro Cultural chileno Gabriela Mistral,Institución Cultural - Social,Chilena,4942-5263,,,ccchgmistral@hotmail.com; magallymillan@hotmail.com; luisjalep@yahoo.com.ar;,,Saavedra,244,,,,,Balvanera,Comuna 3,1083,C1083ACF
-58.3561089608678,-34.6360392543451,921,Agrupación Sólo Chile,Institución Cultural - Social,Chilena,4301-6307,,,solo-chile@hotmail.com,,Lamadrid,259,,,,,Boca,Comuna 4,1166,C1166AAC
-58.3741355907101,-34.6074381584797,641,Consulado de Chile,Consulado,Chilena,4331-6228/29/30/31/32/33,4331-6235/4328,www.consuladodechile.org.ar,cg.baires@minrel.gov.cl,,Av. Roque Saenz Peña,547,,2,,,San Nicolas,Comuna 1,1035,C1035AAA
-58.3922361375658,-34.6090080471774,250,Federación Estudiantil Chile Intenacional - FECHI,Institución Cultural - Social,Chilena,4953-1480,,http://fechint.tripod.com,fechi-int@yahoo.com.ar; fechi_int@hotmail.com,,Av Rivadavia,1815,,5,B,,Balvanera,Comuna 3,1033,C1033AAI
-58.3600054138937,-34.6330054961632,920,Centro Chileno Bernardo O´Higgins,Institución Cultural - Social,Chilena,1536312028,,http://ccbohiggins.blogspot.com,centrochilenobo@yahoo.com.ar; centrochilenobernardoohiggins@gmail.com,,Almirante Brown,928,,,,,Boca,Comuna 4,1159,C1159ABO
-58.4255461511379,-34.6035400380713,42,Centro Cultural chileno Pablo Neruda,Institución Cultural - Social,Chilena,4867-2587 - 4777-3555,,http://ccpabloneruda.blogspot.com.ar/,,,Palestina,651,,9,A,,Almagro,Comuna 5,1182,C1182ADC
-58.3801392726965,-34.5961964977081,854,Los chilenos,Gastronomía,Chilena,4328-3123,,,,,Suipacha,1024,,,,,Retiro,Comuna 1,1008,C1008AAV
-58.4157720159406,-34.6236323607803,165,Agrupación de Manos Chilenas en Argentina,Institución Cultural - Social,Chilena,4941-6019/ 1558709925/ 1562042269,,,agrupmachi@yahoo.com.ar; penecatroncoso@yahoo.com.ar; silvia_galle@yahoo.com.ar,,Carlos Calvo,3565,,,,,Boedo,Comuna 5,1230,C1230ABI
-58.4234671315702,-34.6289041498154,166,Asociación Cultural Lemu-Milla (Bosque Dorado),Institución Cultural - Social,Chilena,4925-1027,,,,,José Mármol,1200,,,,,Boedo,Comuna 5,1255,C1255ABD
-58.3705553596909,-34.6390736415891,360,Centro Violeta Parra Buenos Aires,Institución Cultural - Social,Chilena,4302-9593,,centrovioletaparra@hotmail.com,,,Olavarría,1321,,,,,Barracas,Comuna 4,1267,C1267AEC
-58.4019222535502,-34.6106917676969,247,Red Solidaria “Chilenos en Argentina”,Institución Cultural - Social,Chilena,4951-7284,,"redsolidariachilenosenargentina.blogspot.com.ar, www.facebook.com/redsolidariachilenosenargentina",info@redsolchiarg.org.ar,,Alberti,73,,2,F,,Balvanera,Comuna 3,1082,C1082AAA
-58.3989065145639,-34.6235524379683,151,Comision Derechos Humanos y Exonerados Politicos chilenos en Argentina,Institución Cultural - Social,Chilena,1551353797,,,codehepchi@gmail.com,,Av. San Juan,2380,,,,,San Cristobal,Comuna 3,1232,C1232AAS
-58.3988059950677,-34.5814224793664,423,Embajada de Chile,Embajada,Chilena,4808 8600 / 4808-8601/ 4808 8655,4804 5927,http://chile.gob.cl/argentina/es/,echile.argentina@minrel.gov.cl,,Tagle,2762,,,,,Palermo,Comuna 14,1425,C1425EEF
-58.4393868110845,-34.5975038302797,16,Red de Mujeres Chilenas en Argentina,Institución Cultural - Social,Chilena,4854-3376,,,redmujereschiarg@hotmail.com,,Acevedo,491,,3,B,,Villa Crespo,Comuna 15,1414,C1414DJI
-58.4388196461134,-34.5986120270676,17,Cofochilex Argentina,Institución Cultural - Social,Chilena,4855-4811,,https://www.facebook.com/ConfederacionDeFolclorChilenoEnElExtranjero/,cofochilexargentina@yahoo.com.ar,,Malabia,465,,,,,Villa Crespo,Comuna 15,1414,C1414DLI
-58.4080292339892,-34.5993676202666,249,Agrupación Social y Cultural Semilla Latinoamericana,Institución Cultural - Social,Chilena,49634381 /1140537157,,chivychile@yahoo.com.ar;semillaslatinoamericana@yahoo.com.ar,,,San Luis,3057,,PB,2,,Balvanera,Comuna 3,1186,C1186ACG
-58.45105466158,-34.5566159329098,710,Hsiang Ting-Tang,Gastronomía,China,4788-0125/0371,,,,,Arribeños,2245,,,,,Belgrano,Comuna 13,1428,C1428APC
-58.4958342380555,-34.5629838098408,216,Embajada de la República Popular China en Argentina,Embajada,China,4547-8166/8100/8110,4545-1141,http://ar.chineseembassy.org/esp,protocoloembchina@live.cn; chinaemb_ar@mfa.gov.cn,,Av. Crisólogo Larralde,5349,,,,,Saavedra,Comuna 12,1431,C1431APM
-58.4961030762577,-34.56309296842,217,Consulado de China,Consulado,China,4547-8166/8100/8110,,,consulate_arg@msa.gov.fn,,Av. Crisólogo Larralde,5349,,,,,Saavedra,Comuna 12,1431,C1431APM
-58.4210063365925,-34.6124974271379,44,Tou-Fu,Gastronomía,China,4958-0842,,,,,Castro Barros,59,,,,,Almagro,Comuna 5,1178,C1178AAA
-58.4509662355717,-34.557416975327,708,Asociación Barrio Chino de Belgrano,Institución Cultural - Social,China,4787-5606,4787-5606,,barriochinodebelgrano@hotmail.com,,Mendoza,1718,,,,,Belgrano,Comuna 13,1428,C1428DKB
-58.4517154718882,-34.5564716499999,709,BuddhaBA,Institución Cultural - Social,China,4706-2382,,http://www.buddhaba.com.ar/,INFO@BUDDHABA.COM.AR,,Arribeños,2288,,,,,Belgrano,Comuna 13,1428,C1428APD
-58.4501839625608,-34.5576223344331,711,Dragón Porteño,Gastronomía,China,4780-0984 / 4784-6464,,,,,Arribeños,2137,,,,,Belgrano,Comuna 13,1428,C1428APA
-58.4491310726905,-34.5568309459737,712,Hong Kong Style,Gastronomía,China,4786-3456,,,,,Montañeses,2149,,,,,Belgrano,Comuna 13,1428,C1428AQG
-58.4504864191305,-34.5572727310423,713,Todos Contentos,Gastronomía,China,4780-3437,,,,,Arribeños,2177,,,,,Belgrano,Comuna 13,1428,C1428APA
-58.4508364384444,-34.5568946938219,714,China Rose,Gastronomía,China,4780-5358,,,,,Mendoza,1689,,,,,Belgrano,Comuna 13,1428,C1428DJO
-58.4510400717592,-34.5566327973808,715,Palitos,Gastronomía,China,4786-8566,,,,,Arribeños,2243,,,,,Belgrano,Comuna 13,1428,C1428APC
-58.4507652179645,-34.5575700002988,716,Lai Lai,Gastronomía,China,4780-4900,,,,,Arribeños,2168,,,,,Belgrano,Comuna 13,1428,C1428APB
-58.4278857149701,-34.620498589029,43,China Doll,Gastronomía,China,4983-9925,,,,,Av. La Plata,492,,,,,Almagro,Comuna 5,1235,C1235ABO
-58.3757419857882,-34.6082640751402,589,Chino Central,Gastronomía,China,4331-3670 / 4343-3783,,,,,Av. Rivadavia,656,,,,,Monserrat,Comuna 1,1002,C1002AAR
-58.3922931141739,-34.6074075151189,252,Casa de la Cultura China,Institución Cultural - Social,China,5361-1248,,,,,Callao,150,,,,,Balvanera,Comuna 3,1022,C1022AAO
-58.4088642953424,-34.604541650273,251,"Asociación Cultural China Argentina ""Phoenix Dorada""",Institución Cultural - Social,China,4954-8267 / 1566429835,,,sf.carola@gmail.com,,Jean Jaures,469,,2,C,,Balvanera,Comuna 3,1215,C1215ACG
-58.4087636855311,-34.5811494510363,424,Lindo Jardín,Gastronomía,China,4803-0914 / 4802-6851,,http://lindojardin.tripod.com/,,,Cabello,3419,,,,,Palermo,Comuna 14,1425,C1425API
-58.3653629119264,-34.6196454934361,577,Royal China,Gastronomía,China,4313-8121,,,,,Alicia Moreau de Justo,1808,,,,,Puerto Madero,Comuna 1,1107,C1107AFL
-58.450217615488,-34.5674432253391,239,Tao Tao,Gastronomía,China,4783-5806,,,,,Av. Cabildo,1418,,,,,Colegiales,Comuna 13,1426,C1426ABO
-58.4454142399289,-34.5704812333292,238,Asociación Cultural Chino Argentino -ACCA,Institución Cultural - Social,China,4775-3113,,http://www.chinoargentina.org.ar/,info@chinoargentina.org.ar; eventos@chinoargentina.org.ar,,Av. Federico Lacroze,2437,,,,,Colegiales,Comuna 13,1426,C1426CPJ
-58.3948129593509,-34.5951895586374,778,Garden,Gastronomía,China,4813-7555 / 4816-3915,,,,,Riobamba,1156,,,,,Recoleta,Comuna 2,1116,C1116ABH
-58.3754033197217,-34.6041180629536,643,Asociación de Amigos entre Argentina y el Pueblo de China,Institución Cultural - Social,China,4327-1135,,http://www.aaachi.com.ar/ https://www.facebook.com/pg/AAACHINA,mail@aaachi.com.ar,,Florida,336,,,,,San Nicolas,Comuna 1,1005,C1005AAH
-58.3831394202736,-34.6001950901148,642,"Cámara de la Producción,la Industria y el Comercio Argentino-China",Institución Profesional,China,4372-6133,,http://www.argenchina.org/institucional/contacto.asp,argenchina@ciudad.com.ar,,Viamonte,1145,,7,A,,San Nicolas,Comuna 1,1053,C1053ABW
-58.4024718133532,-34.5836105108305,777,Cinco Corderos,Gastronomía,China,4806-9466,,,,,Las Heras,2920,,,,,Recoleta,Comuna 2,1425,C1425AST
-58.4362214048102,-34.5667024103712,425,La Casita China,Gastronomía,China,4771-6681,,,,,Maure,1711,,,,,Palermo,Comuna 14,1426,C1426CUE
-58.4342671108075,-34.5758384355834,426,Nueva Casita China,Gastronomía,China,4778-0940,,,,,Santa Fé,5300,,,,,Palermo,Comuna 14,1425,C1425BIO
-58.4425593171568,-34.5672778248119,427,Los Chinos,Gastronomía,China,4777-6789 / 4776-0229 / 4778-9688,,,,,Federico Lacroze,2121,,,,,Palermo,Comuna 14,1426,C1426CPG
-58.4885413259276,-34.5673542232039,232,Cinco Corderos,Gastronomía,China,4545-8596,,,,,Pacheco,3107,,,,,Villa Urquiza,Comuna 12,1431,C1431FJM
-58.4144311518157,-34.5969420745701,781,Corronchos,Gastronomía,Colombiana,4964-5919,,,,,José Antonio Cabrera,3412,,,,,Recoleta,Comuna 2,1186,C1186AAN
-58.3813652333192,-34.5920771682315,857,Embajada de Colombia,Embajada,Colombiana,4325-1106 / 4323-1610 / 4325-0258,,,ebaires@cancilleria.gov.co,,Carlos Pellegrini,1363,,3,,,Retiro,Comuna 1,1011,C1011AAA
-58.4379913923482,-34.5830855903799,435,Colombia Mia,Gastronomía,Colombiana,4778-1293,,,,,Honduras,5750,,,,,Palermo,Comuna 14,1414,C1414BNH
-58.4308676584405,-34.5774347614761,436,La Arepería de Buenos Aires,Gastronomía,Colombiana,4774-0308,,,,,Bonpland,2430,,,,,Palermo,Comuna 14,1425,C1425FWH
-58.4045115007137,-34.6016264338819,254,Asociación de Mujeres Colombianas en Argentina- AMCA,Institución Cultural - Social,Colombiana,4811-7340 / 4812-1478,,www.amcaweb.com.ar,amca2008@gmail.com,,Av. Pueyrredón,725,,10,20,,Balvanera,Comuna 3,1032,C1032ABU
-58.3813051974586,-34.5949182751378,858,Consulado de Colombia,Consulado,Colombiana,6079-5472/95,,www.buenosaires.consulado.gov.co,ccbaires@cancilleria.gov.co;  olga.reyes@cancilleria.gov.co,,Carlos Pellegrini,1135,,PB,,,Retiro,Comuna 1,1009,C1009ABW
-58.3872345959644,-34.5977369384061,780,Los recuerdos,Gastronomía,Colombiana,4811-3302,,,,,Uruguay,946,,,,,Recoleta,Comuna 2,1015,C1015ABT
-58.431416259217,-34.57646018911,433,Asociación de Cultura Colombiana en Argentina,Institución Cultural - Social,Colombiana,4776-1370 / 1535242510 / 1124572608,,https://www.facebook.com/como.vos.18,asociacionculturalcolombiana@gmail.com,,Av. Santa Fe,5099,,11,B,,Palermo,Comuna 14,1425,C1425BHM
-58.4438914756287,-34.6002630799622,24,i Latina,Gastronomía,Colombiana,4857-9095 /1564007622,,http://www.ilatinabuenosaires.com/,,,Murillo,725,,,,,Villa Crespo,Comuna 15,1414,C1414AFE
-58.4348490719,-34.5788368686176,434,Epa la Arepa,Gastronomía,Colombiana,4777-2370,,http://www.epalaarepa.com.ar/,,,Soler,5837,,,,,Palermo,Comuna 14,1425,C1425BYK
-58.4559767818403,-34.5582191228551,717,Embajada del Congo,Embajada,Congoleña,4896-4963,,,eargentina@cancilleria.gov.co,,Arcos,2340,,2,G,,Belgrano,Comuna 13,1428,C1428AFL
-58.4760439790426,-34.6249151088957,115,BAB Cocina Coreana,Gastronomía,Coreana,4637-1200,,,,,Morón,3155,,,,,Flores,Comuna 7,1406,C1406FVQ
-58.4744302395946,-34.6255975384002,114,Kyopo,Gastronomía,Coreana,4637-3465,,,,,Aranguren,3053,,,,,Flores,Comuna 7,1406,C1406FXE
-58.4042070255097,-34.5792483487475,439,Centro Cultural Coreano,Institución Cultural - Social,Coreana,4803-3167/1572,4807-7880,www.argentina.korean-culture.org,info.centroculteralcoreano@gmail.com; cccoreano@gmail.com,,Av. Cnel. Díaz,2884,,,,,Palermo,Comuna 14,1425,C1425DRO
-58.4759020085016,-34.6226341253488,113,Yugane,Gastronomía,Coreana,4613-4623,,,,,Paez,3063,,,,,Flores,Comuna 7,1406,C1406FRA
-58.4457016837093,-34.6420220719438,112,Mido,Gastronomía,Coreana,4632-7111,,,,,Carabobo,1575,,,,,Flores,Comuna 7,1406,C1406DHC
-58.4496988184901,-34.6393335353145,110,Instituto Coreano Argentino,Institución Educativa,Coreana,4631-6027 / 4634-1558,,http://www.e_ica.org/,institutocoreano@yahoo.com.ar; institutocoreano@gmail.com,,Av. Asamblea,1840,,,,,Flores,Comuna 7,1406,C1406HVV
-58.4459409774444,-34.6418467540368,111,Una canción coreana,Gastronomía,Coreana,4631-8852,,,,,Av. Carabobo,1549,,,,,Flores,Comuna 7,1406,C1406DHC
-58.4770424719006,-34.6251764597459,129,"Cámara Argentina de Comercio, Industria y Agropecuaria Coreanas - CACIAC",Institución Profesional,Coreana,,,,kyorebeun@gmail.com;  kyore87@hotmail.com; monicalee.ar@gmail.com,,Morón,3243,,,,,Floresta,Comuna 10,1406,C1406FVS
-58.4783451056845,-34.6244189827458,133,Kil Chong,Gastronomía,Coreana,4674-5900,,,,,Campana,714,,,,,Floresta,Comuna 10,1406,C1406AUN
-58.4811038972048,-34.6254108676079,132,Maniko,Gastronomía,Coreana,4671-3672,,,,,Felipe Vallese,3600,,,,,Floresta,Comuna 10,1407,C1407MHF
-58.4737459048543,-34.6320420690088,131,Sinko,Gastronomía,Coreana,4613-6338,,,,,Av. Rivadavia,7728,,,,,Floresta,Comuna 10,1406,C1406GMU
-58.4785842771273,-34.6264453761434,130,Cámara de Empresarios Coreanos en Argentina- CAEMCA,Institución Profesional,Coreana,5365-7080/7090,,www.caemca.com.ar,caemca@caemca.com.ar,,Concordia,540,,3,C,,Floresta,Comuna 10,1407,C1407DIJ
-58.4053341521242,-34.5794004546994,437,Embajada de Corea del Sur,Embajada,Coreana,4802-8865/8062,4803-6993,http://arg.mofa.go.kr,argentina@mofa.go.kr,,Av. de Libertador,2395,,,,,Palermo,Comuna 14,1425,C1425AAJ
-58.4296676703312,-34.5906079843955,440,Nail Lee Coffee,Gastronomía,Coreana,1136939160,,,,,Gorriti,4832,,,,,Palermo,Comuna 14,1414,C1414BJN
-58.4052306660829,-34.5792886358576,438,Consulado de Corea,Consulado,Coreana,4806-6796 / 4802-0923 / 4802-9665,4801-1443,www.arg.mofa.go.k,argentina@mofa.go.kr,,San Martín de Tours,2817,,,,,Palermo,Comuna 14,1425,C1425DNA
-58.3971915702033,-34.6027763427457,255,Bi Won,Gastronomía,Coreana,4372-1146,,,,,Junín,548,,,,,Balvanera,Comuna 3,1026,C1026ABL
-58.4771553937997,-34.6240821571275,134,Suk jung,Gastronomía,Coreana,4612 1385,,,,,Felipe Vallese,3209,,,,,Floresta,Comuna 10,1406,C1406FTK
-58.3755624516022,-34.5988987711591,646,Embajada de Costa Rica,Embajada,Costarricense,4801-3222,,embcr-ar@rree.go.cr,embcr-ar@rree.go.cr,,Av Córdoba,612,,1,A,,San Nicolas,Comuna 1,1054,C1054AAS
-58.4640753059598,-34.5720634875029,718,Colegio Cristo Rey Hermanas Vicentinas de Zagreb,Institución Educativa,Croata,,,,caridad@ssdnet.com.ar,,Virrey del Pino,3451,,,,,Belgrano,Comuna 13,1426,C1426EHK
-58.3723671369384,-34.626155395651,196,"Asociación Civil ""La Defensa del Hogar Croata""",Institución Cultural - Social,Croata,153280485,,http://hrvatskidomobran.blogspot.com.ar/,domobran@unioncroata.com.ar,,Bolívar,1556,,,,,San Telmo,Comuna 1,1141,C1141AAH
-58.3723747586951,-34.6260398010177,197,Hrvatski Domobran,Institución Cultural - Social,Croata,,,,,,Bolívar,1546,,,,,San Telmo,Comuna 1,1141,C1141AAH
-58.3734364142704,-34.6220936351069,198,Dobar Tek,Gastronomía,Croata,1555041442 / 4307-5235,,,,,San Juan,548,,,,,San Telmo,Comuna 1,1147,C1147AAQ
-58.4407440987338,-34.5740993514879,442,Club Cultural Argentino Croata,Institución Cultural - Social,Croata,4771-4954,4771-4954,,fmmajcen@hotmail.com clubcroata@hotmail.com,,Benjamín Matienzo,2532,,,,,Palermo,Comuna 14,1426,C1426DAV
-58.44015488434,-34.5686861035754,441,Embajada de Croacia,Embajada,Croata,4777-6409/ 4778-0203,4777-9159,http://ar.mvep.hr/es/,croemb.ar@mvep.hr,,Gorostiaga,2104,,,,,Palermo,Comuna 14,1426,C1426CTN
-58.4967254934467,-34.549327250443,218,Unión de Asociaciones Croatas en la República Argentina,Institución Cultural - Social,Croata,4542 - 5927,,http://www.unioncroata.com.ar/,unioncroata@gmail.com,,Lugones,4936,,,,,Saavedra,Comuna 12,1430,C1430EDV
-58.4967557133014,-34.5492798356878,219,Cámara Argentino Croata de Industria y Comercio,Institución Profesional,Croata,4443-5777,,http://www.camaracroata.org.ar,info@camaracroata.org.ar,,Lugones,4936,,,,,Saavedra,Comuna 12,1430,C1430EDV
-58.4967763919738,-34.5492521762256,220,El Hogar Croata,Institución Cultural - Social,Croata,4542-5927,4542-5927,www croaciacomerce com ar,hogarcroatasa@sinectis.com.ar; croaciacomerce@sinectis.com.ar,,Lugones,4936,,,,,Saavedra,Comuna 12,1430,C1430EDV
-58.4987033824748,-34.5515403447339,221,"Centro Católico Croata ""Sveti Nikola Tavelic""",Institución Cultural - Social,Croata,4542-3400,4542-3400,,tehar@ciudad.com.ar,,Av. Ricardo Balbín,4925,,,,,Saavedra,Comuna 12,1430,C1430ABH
-58.4986785317932,-34.5515815033721,222,Juventud Croata en Buenos Aires - D.H.K.S.S.,Institución Cultural - Social,Croata,4542-3400,,,dhkss@hotmail.com,,Av. Ricardo Balbín,4925,,,,,Saavedra,Comuna 12,1430,C1430ABH
-58.4978899039196,-34.5517205601069,223,Centro Juvenil Croata Argentino,Institución Cultural - Social,Croata,4542-3400,4542-3400,,tehar@ciudad.com.ar,,Pico,4930,,,,,Saavedra,Comuna 12,1430,C1430CYP
-58.4987680536197,-34.5515711891321,224,"""Proljece""",Institución Cultural - Social,Croata,,,,,,Av. Ricardo Balbín,4925,,,,,Saavedra,Comuna 12,1430,C1430ABH
-58.4987382248418,-34.5516020614244,225,"""Bosna""",Institución Cultural - Social,Croata,,,,tzbosna@yahoo.com.ar,,Av. Ricardo Balbín,4925,,,,,Saavedra,Comuna 12,1430,C1430ABH
-58.4967922944217,-34.5492205675659,226,Centro de Jubilados y Pensionados Comunidad Croata,Institución Cultural - Social,Croata,4544-6767,,,jubiladoscroatas@fibertel.com.ar; gajobulat@yahoo.com.ar,,Lugones,4938,,,,,Saavedra,Comuna 12,1430,C1430EDV
-58.4978471588265,-34.5516940545133,227,Escuela Croata de idiomas,Institución Educativa,Croata,,,,,,Pico,4930,,,,,Saavedra,Comuna 12,1430,C1430CYP
-58.3828608165317,-34.6151429078372,591,Cuba Mía,Gastronomía,Cubana,4382-1465/3427,,www.restaurantecubamia.com.ar/,info@restaurantecubamia.com.ar,,Salta,580,,,,,Monserrat,Comuna 1,1074,C1074AAL
-58.3745425387224,-34.6119567269511,590,Rey Castro Cuban Bar & Restaurant,Gastronomía,Cubana,4342-9998/6665,,www.reycastro.com,info@reycastro.com,,Perú,342,,,,,Monserrat,Comuna 1,1067,C1067AAH
-58.453761375637,-34.6239597621166,73,Mojitos de Cuba,Gastronomía,Cubana,4251-1262 / 1540739800,,www.mojitosdecuba.com.ar/,,,Yerbal,1655,,,,,Caballito,Comuna 6,1406,C1406GJM
-58.4655991332439,-34.5524961325663,909,Azúcar Belgrano,Gastronomía,Cubana,4780-2447 / 4861-3344,,www.azucarbelgrano.com,,,Av. Cabildo,3250,,,,,Nuñez,Comuna 13,1429,C1429AAQ
-58.4301503303673,-34.5724187731258,443,La Bodeguita del medio,Gastronomía,Cubana,4775-5616,,www.labdelm.com.ar/,reservas@labdelm.com.ar,,Baez,211,,,,,Palermo,Comuna 14,1426,C1426BRE
-58.4463288340102,-34.563214575099,719,Embajada de Cuba,Embajada,Cubana,4782-9049 / 4782-9089,4786-7713,www.embacuba.com.ar,secretaria@ar.embacuba.cu,,Virrey del Pino,1810,,,,,Belgrano,Comuna 13,1426,C1426EGF
-58.4461925527577,-34.5631556528671,720,Consulado de Cuba,Consulado,Cubana,4782-9049 int 112,4780-5633,www.cubadiplomatica.cu,consulado@ar.embacuba.cu,,Virrey del Pino,1810,,,,,Belgrano,Comuna 13,1426,C1426EGF
-58.3895630182528,-34.6053029065774,647,Oye chico,Gastronomía,Cubana,5252-3339 / 6320-5342,,www.oyechico.com.ar/,,,Montevideo,310,,,,,San Nicolas,Comuna 1,1019,C1019ABH
-58.3730819653321,-34.5953155446338,860,Embajada de Dinamarca,Embajada,Danesa,4312-6901,4312-7857,argentina.um.dk,bueamb@um.dk,,Av. Leandro N. Alem,1074,,9,,,Retiro,Comuna 1,1001,C1001AAS
-58.3730397447735,-34.5953171761203,861,Cámara de Industria y Comercio Argentina Danesa,Institución Profesional,Danesa,5252-0839,,http://www.camaradanesa.org.ar/,contact@camaradanesa.org.ar,,Av. Leandro N. Alem,1074,,12,,,Retiro,Comuna 1,1001,C1001AAS
-58.3730960757442,-34.5952806424849,859,Club Danés,Institución Cultural - Social,Danesa,4312-9266,,,danskmad@arnet.com.ar,,Av. Leandro N Alem,1074,,12,,,Retiro,Comuna 1,1001,C1001AAS
-58.3696872953608,-34.6191832831235,200,Centro de Juventud Danesa- DUBA,Institución Cultural - Social,Danesa,4362-9154,,http://www.dubafolke.com.ar/,info@dubafolke.com.ar,,Carlos Calvo,257,,,,,San Telmo,Comuna 1,1102,C1102AAE
-58.3697696889446,-34.6191899382815,199,"Iglesia Dinamarquesa en Buenos Aires ""Dansk Kirke""",Institución Religiosa,Danesa,4362-9154,,www.iglesiadinamarquesa.com.ar,revistadk@gmail.com,,Carlos Calvo,257,,,,,San Telmo,Comuna 1,1102,C1102AAE
-58.3786645333113,-34.5930653727497,862,Embajada de República Dominicana,Embajada,Dominicana,4312-9378 / 4312-8562 / 1122717541,,http://embajadadominicana.com.ar/,embajada@embajadadominicana.com.ar,,Juncal,802,,6,n,,Retiro,Comuna 1,1062,C1062ABF
-58.381347715929,-34.5944840634666,863,Consulado de Doinicana,Consulado,Dominicana,4312-8562 /4894-2080,4894-2078,http://embajadadominicana.com.ar/oficina-consular-en-buenos-aires/,sconsular@embajadadominicana.com.ar,,Carlos Pellegrini,1175,,PB,C,,Retiro,Comuna 1,1009,C1009ABW
-58.4646275852109,-34.6000995646671,7,República Dominicana Unidos,Institución Cultural - Social,Dominicana,4584-4701 / 1532923744,,,martamaitz@hotmail.com,,Cucha Cucha,2577,,,,,Paternal,Comuna 15,1416,C1416CKC
-58.3887969171808,-34.6161963613805,592,La Fiesta,Gastronomía,Dominicana,4381-3037,,,,,Virrey Cevallos,654,,,,,Monserrat,Comuna 1,1077,C1077AAN
-58.390430179346,-34.5877297250824,782,Embajada de Ecuador,Embajada,Ecuatoriana,4804-0073/74/3464,,,ecuador@embaecuador.com.ar; consulado@emecuador.com.ar,,Av. Pte. Quintana,585,,9,,,Recoleta,Comuna 2,1129,C1129ABB
-58.3904897289704,-34.5876907985078,783,Consulado de Ecuador,Consulado,Ecuatoriana,4804-6408 int 109,,www.argentina.embajada.gob.ec/es,consuldorbaiec@embecuador.com.ar,,Av. Pte. Quintana,585,,10,,,Recoleta,Comuna 2,1129,C1129ABB
-58.3801855124761,-34.6116277972163,593,Rincón Ecuatoriano,Gastronomía,Ecuatoriana,4078-9193,,www.facebook.com/pg/rincon.ecuatoriano1,,,Moreno,977,,,,,Monserrat,Comuna 1,1091,C1091AAS
-58.4064869707645,-34.6009033101236,256,Ecuador 787,Gastronomía,Ecuatoriana,,,,,,Ecuador,787,,,,,Balvanera,Comuna 3,1214,C1214ACK
-58.3766731872644,-34.6065426501247,648,Ecuador,Gastronomía,Ecuatoriana,,,,,,Roque Saenz Peña,702,,,,,San Nicolas,Comuna 1,1035,C1035AAP
-58.4350746826052,-34.566964491677,444,Sabores ecuatorianos,Gastronomía,Ecuatoriana,4331-1123,,,,,Soldado de la Independencia,831,,,,,Palermo,Comuna 14,1426,C1426BTI
-58.4411005044809,-34.6003214097036,25,Asociación Ecuatorianos Residentes en Argentina - AERA,Institución Cultural - Social,Ecuatoriana,4966 0706 / 1561247675,,,escuelafredamontano@gmail.com;  fredamontano@gmail.com; ecuatorianos.residentes@gmail.com; aera.buenosaires@gmail.com,,Malabia,257,,pb,c,,Villa Crespo,Comuna 15,1414,C1414DLE
-58.4602374210844,-34.5704470776329,721,Embajada de Egipto,Embajada,Egipcia,4553-3311,4553-0067,,embegypt@fibertel.com.ar,,Virrey del Pino,3140,,,,,Belgrano,Comuna 13,1426,C1426EHF
-58.4415445980833,-34.56830788974,445,Consulado de Ecuador,Consulado,Egipcia,4899-0300,,embegypt@fibertel.com.a,embegypt@fibertel.com.ar,,Olleros,2140,,,,,Palermo,Comuna 14,1426,C1426CRN
-58.4410177017901,-34.5673264193387,447,Consulado Emirati,Consulado,Emiratí (Emiratos Árabes),4772-9709 / 4771-9716 / 4778-3110,4772-5169,,secretaria@embajadaemiratos.org.ar,,Olleros,2021,,,,,Palermo,Comuna 14,1426,C1426CRK
-58.4408991907677,-34.5672336434072,446,Embajada de Emiratos Árabes,Embajada,Emiratí (Emiratos Árabes),4772-9709 / 4771-9716 / 4778-3109,4772-5169,www.embajadaemiratos.org.ar,secretaria@embajadaemiratos.org.ar,,Olleros,2021,,,,,Palermo,Comuna 14,1426,C1426CRK
-58.4263641767767,-34.5765881145965,448,Buenos Aires Scottish Guard (Guardia Escocesa de Buenos Aires),Institución Cultural - Social,Escocesa,1564500712,,,rlagardeh@gmail.com; rlagardeh@scottishmail.co.uk,,Av. Bullrich,481,,,,,Palermo,Comuna 14,1425,C1425FTE
-58.3951115720744,-34.5854996377305,786,Consulado de Escocia,Consulado,Escocesa,4808-2200,4808-2274,www.argentina.nlembajada.org/,mschellhas@randstad.com.ar; askinformation.baires@fco.gov.uk,,Dr Luis Agote,2412,,,,,Recoleta,Comuna 2,1425,C1425EOF
-58.3761104651772,-34.592748081924,864,Asociación Escocesa Argentina,Institución Cultural - Social,Escocesa,4312-7244,,"www.scotlandinargentina.com.ar, https://www.facebook.com/pg/AsocEscArg",correoedtur@gmail.com; edsha@arnet.com.ar,,Juncal,615,,3,C,,Retiro,Comuna 1,1062,C1062ABA
-58.3728794573434,-34.5960838690555,865,The Kilkenny,Gastronomía,Escocesa,4312-7291,,,,,M. T. de Alvear,399,,,,,Retiro,Comuna 1,1058,C1058AAA
-58.3954226715253,-34.5857728881591,785,Embajada de Escocia,Embajada,Escocesa,4808-2200,4808-2274,,askinformation.baires@fco.gov.uk,,Dr Luis Agote,2412,,,,,Recoleta,Comuna 2,1425,C1425EOF
-58.3745358265873,-34.6120645395775,594,St. Andrew´s Society of the River Plate,Institución Cultural - Social,Escocesa,4312-7244 / 1563989978/ 4331-0308  / 4243-2077,,www.sasrp.org/pb/,thelmapamd@gmail.com,,Perú,352,,,,,Monserrat,Comuna 1,1067,C1067AAH
-58.4016241150465,-34.5790951284139,450,Consulado de Eslovaquia,Consulado,Eslovaca,4807-9451 / 4801-3917 /4804-8622,4801- 4654,www.embassy-finder.com/es/slovakia,cons.buenosaires@mzv.sk,,Av. Figueroa Alcorta,3240,,,,,Palermo,Comuna 14,1425,C1425CKY
-58.4255257408403,-34.620856867581,45,Asociación Cultural Eslovaca en la República Argentina,Institución Cultural - Social,Eslovaca,4983-2567,,,asoc.eslovaca@gmail.com,,José Mármol,629,,,,,Almagro,Comuna 5,1236,C1236ABE
-58.4017022892006,-34.5790380003682,449,Embajada de Eslovaquia,Embajada,Eslovaca,4807-9451 / 4801-3917,4801- 4653,www.mzv.sk/buenosaires,emb.buenosaires@mzv.sk,,Av. Figueroa Alcorta,3240,,,,,Palermo,Comuna 14,1425,C1425CKY
-58.5292930404866,-34.6218928831084,102,Club Triglav,Institución Cultural - Social,Eslovena,4644-0605,,,,,Manuel Porcel de Peralta,1458,,,,,Villa Real,Comuna 10,1408,C1408CBX
-58.4852563727587,-34.6362274936861,173,Cursos Secundarios Eslovenos,Institución Educativa,Eslovena,4636-2422,,,,,Ramón Falcón,4158,,,,,Velez Sarsfield,Comuna 10,1407,C1407GSR
-58.4854027296692,-34.6363085581847,174,Curso Primario,Institución Educativa,Eslovena,4636-2423,,,,,Ramón Falcón,4158,,,,,Velez Sarsfield,Comuna 10,1407,C1407GSR
-58.4853312206079,-34.6362920782569,175,Asociación Eslovena Benéfica de Madres,Institución Cultural - Social,Eslovena,4636-2424,,,,,Ramón Falcón,4158,,,,,Velez Sarsfield,Comuna 10,1407,C1407GSR
-58.4852480735305,-34.6362838470482,176,Asociación Civil Eslovenia Unida,Institución Cultural - Social,Eslovena,4636-2421 / 4636-0841,4636-2421,,,,Ramón Falcón,4158,,,,,Velez Sarsfield,Comuna 10,1407,C1407GSR
-58.4854126812008,-34.6362137203296,177,Acción Cultural Eslovena,Institución Cultural - Social,Eslovena,,,,,,Ramón Falcón,4158,,,,,Velez Sarsfield,Comuna 10,1407,C1407GSR
-58.4853045870369,-34.6361917494542,178,Misicón Católica Eslovena,Institución Religiosa,Eslovena,,,,,,Ramón Falcón,4158,,,,,Velez Sarsfield,Comuna 10,1407,C1407GSR
-58.3796077265927,-34.5915634984486,866,Embajada,Embajada,Eslovena,4894-0631 / 4894-0621,,www.buenosaires.veleposlanistvo.si,vba@gov.si,,Arroyo,880,,3,,,Retiro,Comuna 1,1007,C1007AAB
-58.379676962083,-34.5915349291437,867,Consulado de Eslovenia,Consulado,Eslovena,4895 0631 / 4894-0621,,www.buenosaires.veleposlanistvo.si,vba@gov.si,,Arroyo,880,,3,,,Retiro,Comuna 1,1007,C1007AAB
-58.5293708622134,-34.6218401757665,101,Asociación Mutual Eslovena Triglav –AME Triglav-,Institución Cultural - Social,Eslovena,4644-0605,,www.ametriglAv.com.ar,info@ametriglAv.com.ar,,Manuel Porcel de Peralta,1458,,,,,Villa Real,Comuna 10,1408,C1408CBX
-58.4853361958561,-34.6362425976803,172,Centro Esloveno Slovenska Hiša de Buenos Aires,Institución Cultural - Social,Eslovena,4636-2421 / 4636-0841,,,,,Ramón Falcón,4158,,,,,Velez Sarsfield,Comuna 10,1407,C1407GSR
-58.4439033858581,-34.5756654988059,240,Centro Montañés de Buenos Aires,Institución Cultural - Social,Española,4553-2802,,www.casasdecantabria.org/buenosaires/index.htm,casadecantabria@casadecantabria.com.ar,,Jorge Newbery,2818,,,,,Colegiales,Comuna 13,1426,C1426CYB
-58.4462913371317,-34.5883654205912,3,Asociación Civil Club Tinetense Residencia Asturiana,Institución Cultural - Social,Española,4855-6253,,www.vivirasturias.com/asturias/sin-especificar/club-tinetense-residencia-tineo-de-buenos-aires/es,clubtinetenseresidenciaasturiana@hotmail.com,,Guevara,35,,,,,Chacarita,Comuna 15,1427,C1427BRA
-58.4181952288898,-34.6148612828917,46,Centro Navarro,Institución Cultural - Social,Española,4932-7518 / 4931-1441,,www.centronAvarro.org,,,Moreno,3682,,,,,Almagro,Comuna 5,1209,C1209ABR
-58.4158521171682,-34.6165608455922,47,Comunidad Tuy-Salceda,Institución Cultural - Social,Española,4931-5800,,,,,Maza,457,,,,,Almagro,Comuna 5,1206,C1206ACI
-58.4169635930073,-34.6112763106332,48,Asociación Santa Comba de Xallas en Buenos Aires,Institución Cultural - Social,Española,4864-3663,,,xallas2004@yahoo.com.ar,,Maza,30,,,,,Almagro,Comuna 5,1206,C1206ACB
-58.421302261455,-34.6111140143069,49,Asociación Centro Partido De Carballiño,Institución Cultural - Social,Española,4981-9675 / 4718-0138,,,,,Medrano,28,,2,,,Almagro,Comuna 5,1178,C1178ABB
-58.4223307137033,-34.618043382768,50,Asociación Mutualista Residentes de Vigo,Institución Cultural - Social,Española,4982-7431,,,,,Quintino Bocayuva,522,,,,,Almagro,Comuna 5,1216,C1216AAB
-58.4465509938469,-34.6229044013203,74,Centro Burgalés de Buenos Aires,Institución Cultural - Social,Española,4988-1639 / 4433-1812,,https://www.facebook.com/centroburgales/,,,Av. Rivadavia,5764,,,,,Caballito,Comuna 6,1406,C1406GLN
-58.4838313517421,-34.6231569101795,92,Asociación De Moraña,Institución Cultural - Social,Española,4671-3623 / 4502-1198,,,,,Galicia,3651,,,D,,Villa Santa Rita,Comuna 11,1407,C1407FGG
-58.4611558405583,-34.6320762169863,116,Centro Archipiélago Canario,Institución Cultural - Social,Española,4613-5898,,https://es-la.facebook.com/CACBsAs/,centro@archipielagocanario.org.ar,,Rivera Indarte,280,,,,,Flores,Comuna 7,1406,C1406DXF
-58.4548860153376,-34.6318526052915,117,Asociación Unión Residentes de Fragas en Buenos Aires,Institución Cultural - Social,Española,,,,,,Directorio,1954,,2,A,,Flores,Comuna 7,1406,C1406GZV
-58.3865038963847,-34.6213900849181,144,Centro Soriano Numancia,Institución Cultural - Social,Española,,,http://www.centronumancia.com.ar,presidencia@centronumancia.com.ar,,Humberto I,1462,,,,,Constitucion,Comuna 1,1103,C1103ADD
-58.3866025717486,-34.6213959734706,145,Centro Región Castellano Leonesa de Ayuda Mutua,Institución Cultural - Social,Española,4304-5595,,,,,Humberto I,1462,,,,,Constitucion,Comuna 1,1103,C1103ADD
-58.3934935446634,-34.6239529999928,152,Fundación Xeito Novo de Cultura Gallega,Institución Cultural - Social,Española,,,https://www.facebook.com/FundacionXeitoNovo/,info@xeitonovo.org.ar,,Sarandi,1280,,,,,San Cristobal,Comuna 3,1251,C1251ADB
-58.3956179557356,-34.6249983981913,153,Centro Zamorano - Casa de Castilla y León,Institución Cultural - Social,Española,4306-4900 / 4901-3069,,https://www.facebook.com/centrozamoranodeargentina/  //  https://casadecastillayleon.org.ar/centro-zamorano/,,,Pasco,1358,,,,,San Cristobal,Comuna 3,1251,C1251AAD
-58.4014699507717,-34.6188812129013,154,Centro Salamanca,Institución Cultural - Social,Española,4942-7498,,https://es-la.facebook.com/CentroSalamancaBuenosAires/,info_centrosalamanca@hotmail.com,,Av. Independencia,2540,,,,,San Cristobal,Comuna 3,1225,C1225AAU
-58.4053882804092,-34.6214779457747,155,Asociación Juventud Viana Trives y Valdeorras,Institución Cultural - Social,Española,4943-0767 /  4902-6797,,,vianatrivesyvaldeorras@argentina.com,,Carlos Calvo,2851,,,,,San Cristobal,Comuna 3,1230,C1230AAU
-58.4110493278479,-34.6262161497652,156,Centro Arzuano Mellidense,Institución Cultural - Social,Española,4957-0518 / 4932-6137,,https://www.facebook.com/centroarzuanomellidense/,arzuanomelidense@ciudad.com.ar,,Cochabamba,3245,,,,,San Cristobal,Comuna 3,1252,C1252ABC
-58.4093034730953,-34.6226791525832,157,Centro Noia Rianxo,Institución Cultural - Social,Española,4957-2539 / 1550098700,,https://noiarianxo.wordpress.com/,noiarianxo@hotmail.com,,Gral. Urquiza,1021,,,,,San Cristobal,Comuna 3,1221,C1221ADK
-58.4177124814832,-34.6227553652199,167,Casa Balear,Institución Cultural - Social,Española,4931-1112,,https://www.facebook.com/casabalear.ba/,casabalear@fibertel.com.ar,,Colombres,841,,,,,Boedo,Comuna 5,1218,C1218ABI
-58.4184005783096,-34.6243679050809,168,Rincon Familiar Andaluz,Institución Cultural - Social,Española,4931-4800 / 4982-7431,,www.rinconandaluz.org.ar,rinconfamiliarandaluz@fibertel.com.ar  rinconfamiliarandaluz@yahoo.es,,Carlos Calvo,3745,,,,,Boedo,Comuna 5,1230,C1230ABM
-58.4247800649129,-34.6226029827834,169,Sociedad Parroquial de Vedra,Institución Cultural - Social,Española,4931-3448,,www.galespa.com.ar/vedra.htm,info@vedra.com.ar,,José Mármol,760,,,,,Boedo,Comuna 5,1236,C1236ABH
-58.495070195892,-34.6395923735404,184,Círculo Social Valle Miñor,Institución Cultural - Social,Española,4635-6657,,,,,Rafaela,4840,,,,,Villa Luro,Comuna 10,1407,C1407GVB
-58.495149563192,-34.6396004509105,185,Círculo Social del Valle Miñor,Gastronomía,Española,4683-0903   / 4683-3693,,www.galespa.com.ar/valminhor.htm,valminior@yahoo.com.ar,,Rafaela,4840,,,,,Villa Luro,Comuna 10,1407,C1407GVB
-58.3760978369379,-34.6180945566922,201,Casal de Catalunya,Gastronomía,Española,4300-4141 / 4300-0359,,www.casal.org.ar,info@casal.org.ar,,Chacabuco,863,,,,,San Telmo,Comuna 1,1069,C1069AAQ
-58.3760400658702,-34.6191752124736,203,Asociación Residentes de Salvatierra de Miño,Institución Cultural - Social,Española,4383-0919,,,,,Chacabuco,955,,,1,,San Telmo,Comuna 1,1069,C1069AAS
-58.4125477207965,-34.6139216681251,257,"Sociedade Galega de Arantei, Vilamarín e A Peroxa",Institución Cultural - Social,Española,4931-7799,,,sociedadegalega@fibertel.com.ar; sgjuan@yahoo.com,,Moreno,3281,,,,,Balvanera,Comuna 3,1209,C1209ABI
-58.4027376982049,-34.6084827527877,258,Delegación de la Xunta de Galicia en Buenos Aires,Institución Cultural - Social,Española,4952 7887 / 4952-9400,,http://emigracion.xunta.gal/es/la-secretaria/la-xunta-en-el-exterior/delegacion-la-xunta-galicia-buenos-aires,delegacion.buenosaires@xunta.es; cidadaniagalega.buenosaire@xunta.es,,Bartolomé Mitre,2555,,,,,Balvanera,Comuna 3,1039,C1039AAO
-58.3939293225468,-34.6126508133232,259,Asoc.Unión Res. Ayunt. Cabria - Hoy V. de Cruces,Institución Cultural - Social,Española,4952-0773 / 4566-2559,,,,,Moreno,1949,,,,,Balvanera,Comuna 3,1094,C1094ABC
-58.3939818318231,-34.6126525794783,260,"Centro Lalín, Agolada y Silleda de Galicia en Buenos Aires",Gastronomía,Española,4952-0773 / 4952-7333,,http://www.guiaoleo.com.ar/restaurantes/Centro-Lalin-restaurant-6890,olecentrolalin@hotmail.com,,Moreno,1949,,,,,Balvanera,Comuna 3,1094,C1094ABC
-58.4025684562346,-34.608793913872,261,Centro Galicia de Buenos  Aires,Institución Cultural - Social,Española,4952-8858,,www.centrogalicia-bsas.org,info@centrogalicia-bsas.org  junta@centrogalicia-bsas.org,,Bartolomé Mitre,2538/60,,,,,Balvanera,Comuna 3,,
-58.397050696943,-34.6170970667728,262,Centro Juventud Asturiana de Siero y Noreña,Gastronomía,Española,4942-7778,,,,,Chile,2163,,,,,Balvanera,Comuna 3,1227,C1227AAG
-58.397150791726,-34.6155128572567,263,Asociación Benéfica y Cultural del Partido de Corcubión,Institución Cultural - Social,Española,4942-2101 /  4832-1009,,www.abccorcubion.org.ar,info@abccorcubion.org.ar,,Venezuela,2164,,,3,,Balvanera,Comuna 3,1096,C1096ABL
-58.3939649783003,-34.612713349853,265,Asociación Civil Residentes de Dodro,Institución Cultural - Social,Española,4952-0773,,,,,Moreno,1949,,,,,Balvanera,Comuna 3,1094,C1094ABC
-58.4060899081276,-34.617465350789,266,Centro Cultural del Partido de la Estrada,Institución Cultural - Social,Española,4931-7008 / 4932-7464,,www.guiacomunicacion.xunta.es/book/print/738,info@partidoaestrada.com.ar,,México,2849,,,,,Balvanera,Comuna 3,1223,C1223ABG
-58.3973112141367,-34.6140326280792,267,Centro Gallego de Buenos Aires,Institución Cultural - Social,Española,4983-8959 / 4127-1318,,www.centrogallegoba.com.ar,centrogallego@centrogallegoba.com.ar,,Av. Belgrano,2199,,,,,Balvanera,Comuna 3,1094,C1094AAD
-58.3816924633635,-34.6323917155559,362,Asociación Civil Unión Residentes de Outes,Institución Cultural - Social,Española,4304-3280,,www.residentesdeoutes.com.ar,sociedaddeoutes@hotmail.com,,Dr. Enrique FinochietTo,1219,,,A,,Barracas,Comuna 4,1275,C1275AAA
-58.465283758103,-34.6550993873225,369,"Club Social, Deportivo y Cultural Español de la República Argentina",Institución Cultural - Social,Española,4637-6903,,www.cde.lacorchea.com,,,Santiago de Compostela,3801,,2,A,,Parque Avellaneda,Comuna 9,1407,C1407MDB
-58.4009253948303,-34.5795340678393,451,Embajada,Embajada,Española,4809-4900 Ext. 4907 / 4908 / 4909,,www.exteriores.gob.es.,estanislao.degrandes@maec.es,,Av. Figueroa Alcorta,3102,,1º,,,Palermo,Comuna 14,1425,C1425CKX
-58.4298653758873,-34.5851003940233,452,Círculo de Aragón,Institución Cultural - Social,Española,4774-4172,,www.aragonbuenosaires.org.ar,info@aragonbuenosaires.org.ar,,Fray Justo Sta María de Oro,1872,,,,,Palermo,Comuna 14,1414,C1414DBD
-58.4246619541285,-34.5772715849244,453,Centro Cangas del Narcea,Gastronomía,Española,4771-4252,,,cangasbaires@yahoo.es,,Beruti,4643,,,,,Palermo,Comuna 14,1425,C1425BDE
-58.440724511286,-34.5734907541339,456,Agrupación Vecinos de Ponteareas en Buenos Aires,Institución Cultural - Social,Española,4778-3233,,,ponteareas@ciudad.com.ar  ponteareas@launion.org.ar,,Zapata,315,,1,4,,Palermo,Comuna 14,1426,C1426AEE
-58.5152473558857,-34.6417796899505,570,Falla Valenciana El Turia,Gastronomía,Española,4642-5604,,,fallAvalencianaelturia@arnet.com.ar,,Tonelero,6051,,,,,Liniers,Comuna 9,1408,C1408EOE
-58.3804107831121,-34.6103122311842,595,Federación de Sociedades Españolas,Institución Cultural - Social,Española,4343-8111,,www.fedespa.org.ar/home.php,,,Bernardo de Irigoyen,172,,3,,,Monserrat,Comuna 1,1072,C1072AAD
-58.3905965464184,-34.6145309975683,596,Centro Asturiano de  Buenos  Aires,Institución Cultural - Social,Española,4383-3577,,www.centroasturianobsas,asturiano@centroasturianobsas.org.ar,,Solís,475,,,,,Monserrat,Comuna 1,1078,C1078AAI
-58.3798314274097,-34.6131767551752,597,Centro Riojano Español de Buenos Aires,Gastronomía,Española,4331-3976 / 4331-3986,,www.centroriojano.com.ar,crbuenosaires@infovia.com.ar,,Av. Belgrano,958,,,,,Monserrat,Comuna 1,1092,C1092AAW
-58.3803970324274,-34.6103765160813,598,Club Español,Institución Cultural - Social,Española,4334-5112,,www.clubespanolba.com.ar,clubespanol@ciudad.com.ar,,Bernardo de Irigoyen,172,,,,,Monserrat,Comuna 1,1072,C1072AAD
-58.3859382279311,-34.6113894303463,599,Asociación Casa de Galicia,Institución Cultural - Social,Española,4381-5215 / 1540720728,,,,,San José,224,,,,,Monserrat,Comuna 1,1076,C1076AAF
-58.3842755266036,-34.612292379414,600,Hogar Gallego para Ancianos,Institución Cultural - Social,Española,4381-7390,,http://hogargallegoancianos.galiciaaberta.com,hogarancianosbuenosaires@galiciaaberta.comhogargallegparaamcoamps@infovia.com.ar,,Moreno,1270,,2,,,Monserrat,Comuna 1,1091,C1091AAZ
-58.3901400507556,-34.616602159401,601,Asociación Argentina de Mujeres Hispanistas,Institución Cultural - Social,Española,4381-1000,,,,,Solís,688,,4,32,,Monserrat,Comuna 1,1078,C1078AAN
-58.377769532348,-34.6136923330333,602,Asociación Española de Santiago Apóstol,Institución Cultural - Social,Española,4331-0607,,,,,Piedras,475,,,,,Monserrat,Comuna 1,1070,C1070AAI
-58.3723902005541,-34.6103488948406,603,Asociación Hispano Argentina de Profesionales,Institución Profesional,Española,4343-9061,,www.ahap.org.ar,adm@besteiraabogados.com.ar,,Adolfo Alsina,424,,,,,Monserrat,Comuna 1,1087,C1087AAF
-58.3801173437881,-34.6160561987113,604,Asociación Patriótica y Cultural Española,Institución Cultural - Social,Española,4334-1237,,www.cecra.com.ar,apyce@argentina.com,,Bernardo de Irigoyen,672,,,,,Monserrat,Comuna 1,1072,C1072AAN
-58.3784919410917,-34.6127286240018,605,Cámara Española de Comercio de la República Argentina,Institución Profesional,Española,4335-5000,,www.cecra.com.ar,recepcion.cecra@cecra.com.ar,,Av. Belgrano,863,,7,,,Monserrat,Comuna 1,1092,C1092AAI
-58.3912303601271,-34.6032889480736,649,Federación de entidades Vasco Argentinas,Institución Cultural - Social,Española,4372-3520,,http://www.fevaonline.org.ar,feva2000@ciudad.com.ar,,Lavalle,1718,,5,D,,San Nicolas,Comuna 1,1048,C1048AAP
-58.4551132029986,-34.5658892209711,722,Asociación Española de Socorros Mutuos de Belgrano,Institución Cultural - Social,Española,4784-3196,,,,,Ciudad de La Paz,1760,,7,32,,Belgrano,Comuna 13,1426,C1426AHH
-58.389779905491,-34.5904134449203,787,Consulado de España,Consulado,Española,4811-0070 / 4811-0079,,www.mae.es/consulados/buenosaires,consulado.buenosaires@correo.mae.es,,Guido,1770,,,,,Recoleta,Comuna 2,1016,C1016AAF
-58.398532407603,-34.5865558746862,788,Ribadumia Casa Gallega de Cultura en Buenos Aires,Institución Cultural - Social,Española,4803-3939 / 4334-0476,,,ribadumia@launion.org.ar,,Las Heras,2416,,,,,Recoleta,Comuna 2,1425,C1425ASO
-58.3876847657544,-34.5969088852491,790,Agencia Española de Cooperación Internacional,Institución Política,Española,4814-0210 / 4814-2842,,www.aecid.org.ar,otcbaires@speedy.com.ar,,Marcelo T. de Alvear,1449,,1,B,,Recoleta,Comuna 2,1060,C1060AAA
-58.3880289766829,-34.5978120156786,791,Centro Cultural de España en Buenos Aires,Institución Cultural - Social,Española,4812-0024,,www.cceba.org.ar,info@cceba.org.ar,,Parana,943,,,,,Recoleta,Comuna 2,1017,C1017AAS
-58.3796764449577,-34.5966986909641,870,Asociación Amigos de la Zarzuela,Institución Cultural - Social,Española,4313-7166,,www.amigosdelazarzuela.com.ar,martacordinacion@yahoo.com.ar,,Suipacha,987,,1,A,,Retiro,Comuna 1,1008,C1008AAS
-58.3565182216695,-34.6345758971079,922,Asociación Civil Hijos del Ayuntamiento de Zas,Institución Cultural - Social,Española,4302-4703 / 1540395439,,,zasbuenosaires@hotmail.com,,Suárez,236,,,A,,Boca,Comuna 4,1162,C1162AEF
-58.3828383760342,-34.6001773278062,650,Cámara de Comercio de Estados Unidos en Argentina,Institución Profesional,Estadounidense,4371-4500,,http://www.amchamar.com.ar,amcham@amchamar.com.ar,,Viamonte,1133,,,,,San Nicolas,Comuna 1,1053,C1053ABW
-58.418207425455,-34.5773208535632,518,Embajada de Estados Unidos,Embajada,Estadounidense,5777-4533 / 5777-4656 Sec.Política,5777-4240 5777-4543,https://ar.usembassy.gov/es/,Bue-Pol@state.gov,,Cerviño,4350,,,,Política,Palermo,Comuna 14,1425,C1425AHN
-58.4183157640097,-34.5775861696944,457,Embajada de los EE.UU.,Embajada,Estadounidense,5777-4533 / 5777-4240,5777-4214,https://ar.usembassy.gov/,,,Av. Colombia,4300,,,,,Palermo,Comuna 14,,
-58.3830588201225,-34.6001859901364,684,Cámara de Comerio EE.UU.,Institución Cultural - Social,Estadounidense,4371-4500,,http://www.amchamar.com.ar/index.html,amcham@amchamar.com.ar,,Viamonte,1133,,8,,,San Nicolas,Comuna 1,1053,C1053ABW
-58.3770061659304,-34.6003215597692,651,Instituto Cultural Argentino-Norteamericano (ICANA),Institución Educativa,Estadounidense,53821500,,http://www.icana.org.ar/,secretaria_c@icana.org.ar,,Maipu,672,,,,,San Nicolas,Comuna 1,1006,C1006ACH
-58.4614410153377,-34.5464514067788,919,"Mutual Yugoslava ""Nas Dom""",Institución Cultural - Social,Ex - Yugoslava,4222-2791,,,,,Nuñez,1751,,,,,Nuñez,Comuna 13,1429,C1429BVE
-58.4599252915423,-34.5699316736966,723,Embajada,Embajada,Filipina,4554-4856 / 4554-4015,4554-9194,,pheba@fibertel.com.ar,,Zapiola,1701,,,,,Belgrano,Comuna 13,1426,C1426AUI
-58.4598694145501,-34.5699411536483,724,Consulado de Filipinas,Consulado,Filipina,4555-2130,,www.buenosairesrespe.dfa.gov.ph,pheba@fibertel.com.ar,,Zapiola,1701,,,,,Belgrano,Comuna 13,1426,C1426AUI
-58.3793208151759,-34.5953525172216,871,Embajada,Embajada,Finlandesa,4312-0600,4312-0670,,sanomat.bue@formin.fi,,Av. Santa Fe,846,,Piso 5º,,,Retiro,Comuna 1,1059,C1059ABP
-58.3792677915415,-34.5953488267713,872,Consulado de Finlandia,Consulado,Finlandesa,4312-0600 Fax 4312-0670,,www.finlandia.org.ar,sanomat.bue@formin.fi,,Av. Santa Fe,846,,Piso 5º,,,Retiro,Comuna 1,1059,C1059ABP
-58.3771329731424,-34.5935180195115,874,Consulado de Francia,Consulado,Francesa,4515-6900,,https://ar.ambafrance.org,ael.trannoy@diplomatie.gouv.fr; culturafrancia@gmail.com; ambafr@abaconet.com.ar,,Basavilbaso,1253,,,,,Retiro,Comuna 1,1006,C1006AAA
-58.3778196251037,-34.6042355957197,653,La Marseillaise,Institución Educativa,Francesa,3009-8178,,instituto-la-marseillaise.com,,,Esmeralda,339,,,,,San Nicolas,Comuna 1,1035,C1035ABG
-58.4600942831374,-34.5652482563391,726,La Ruelle,Gastronomía,Francesa,4787-5197,,www.facebook.com/le.ruelle,,,Echeverría,2845,,,,,Belgrano,Comuna 13,1428,C1428DRY
-58.3870815198955,-34.5926108320056,877,Josephina’s Café,Gastronomía,Francesa,4811-5464 / 4815-7197,,www.facebook.com/JosephinasCafe,info@josephinascafe.com.ar,,Guido,1532,,,,,Retiro,Comuna 1,1016,C1016AAB
-58.3856844013416,-34.6124161290536,606,Centro Vasco Frances,Gastronomía,Francesa,4381-5415,,rvascofrances.com.ar,,,Moreno,1370,,,,,Monserrat,Comuna 1,1091,C1091ABB
-58.371577447571,-34.6147011154329,607,La Pétanque,Gastronomía,Francesa,4342-7930,,www.brasseriepetanque.com,leticia@brasseriepetanque.com,,Defensa,596,,,,,Monserrat,Comuna 1,1065,C1065AAJ
-58.4685819871452,-34.5524548795911,911,Asociación Gastronómica Francesa en Argentina - LUCULLUS,Gastronomía,Francesa,4703-4060,,http://www.lucullus.com.ar/,info@lucullus.com.ar,,Amenábar,3348,,,,,Nuñez,Comuna 13,1429,C1429AEJ
-58.4088492199965,-34.5884949559601,792,Alianza Francesa de Buenos Aires,Institución Cultural - Social,Francesa,4822-5084,,www.alianzafrancesa.org.ar,afba.palermo@alianzafrancesa.org.ar,,Billinghurst,1926,,,,,Recoleta,Comuna 2,1425,C1425DTN
-58.3878349039383,-34.5895889696792,793,Hotel Club Francés,Institución Cultural - Social,Francesa,4812 5235,,http://www.hotelclubfrances.com.ar/,info@hotelclubfrances.com.ar,,Rodríguez Peña,1832,,,,,Recoleta,Comuna 2,1021,C1021ABN
-58.4601541328723,-34.5684339511153,725,Fleur de Sel,Gastronomía,Francesa,4783-5482,,www.fleurdesel.com.ar,reservas@fleurdesel.com.ar,,La Pampa,3040,,,,,Belgrano,Comuna 13,1428,C1428ECB
-58.3877700634204,-34.5895379519685,794,Hotel Club Francés,Institución Cultural - Social,Francesa,4811-0348,,hotelclubfrances.com.ar,,,Rodríguez Peña,1832,,,,,Recoleta,Comuna 2,1021,C1021ABN
-58.3807343758986,-34.589666365994,875,Cámara de Comercio e Industria Franco-Argentina (CCIFA),Institución Profesional,Francesa,4310-1000/1001 Fax 4310-1021,,,ccifa@ccifa.com.ar,,Av. Libertador,498,,17,,,Retiro,Comuna 1,1001,C1001ABR
-58.3801910263799,-34.5992240453881,652,Alianza Francesa de Buenos Aires - Le Bistrot de Patricia Curtois,Institución Cultural - Social,Francesa,4322-0068,,www.alianzafrancesa.org.ar,info@alianzafrancesa.org.ar,,Av. Córdoba,936,,,,,San Nicolas,Comuna 1,1054,C1054AAV
-58.3710477458111,-34.6008073963072,656,La Cigale,Gastronomía,Francesa,4893-2332,,www.facebook.com/lacigalebar,barcigale@yahoo.com.ar,,25 de mayo,597,,,,,San Nicolas,Comuna 1,1002,C1002ABK
-58.459012432681,-34.6267892926724,119,Alianza Francesa de Buenos Aires,Institución Cultural - Social,Francesa,4631-5166,,www.alianzafrancesa.org.ar,afba.flores@alianzafrancesa.org.ar,,Granaderos,61,,,,,Flores,Comuna 7,1406,C1406BCA
-58.3783455141389,-34.5934979248332,876,Almacén 1249,Gastronomía,Francesa,4312-7136,,msalazaralmacen1249.com.ar; www.facebook.com/almacen1249,,,Esmeralda,1249,,,,,Retiro,Comuna 1,1007,C1007ABQ
-58.4418513222527,-34.569136860396,458,Alianza Francesa de Buenos Aires,Institución Cultural - Social,Francesa,4772-1607,,www.alianzafrancesa.org.ar,afba.belgrano@alianzafrancesa.org.ar,,11 de Septiembre,950,,,,,Palermo,Comuna 14,1426,C1426BKF
-58.4367201569773,-34.5840812018516,459,Peugeot Lounge,Gastronomía,Francesa,6091-1610,,www.facebook.com/PeugeotLounge,Eugenia@barpeugeotlounge.com.ar,,Honduras,5624,,,,,Palermo,Comuna 14,1414,C1414BNF
-58.3738564480629,-34.5999625649471,655,Frenchie,Gastronomía,Francesa,4312-7335,,www.facebook.com/FrenchieBuenosAires,,,San Martín,687,,,,,San Nicolas,Comuna 1,1004,C1004AAM
-58.382671256416,-34.5917301108802,873,Embajada de Francia,Embajada,Francesa,4515-7030,4515-0120,,ambafr.argentine@gmail.com; maricel.barbosa@diplomatie.gouv.fr,,Cerrito,1399,,,,,Retiro,Comuna 1,1010,C1010ABA
-58.3769010898891,-34.6048562759085,654,Instituto Anglo Francés,Institución Educativa,Francesa,4328-6004,,iafweb.com.ar,,,Sarmiento,722,,,,,San Nicolas,Comuna 1,1041,C1041AAP
-58.4660437004157,-34.5740045585532,354,Embajada Republica de Georgia,Embajada,Georgiana,4554-5176,,http://argentina.mfa.gov.ge,,,14 de julio,1656,,,,,Villa Ortuzar,Comuna 15,1430,C1430END
-58.4275339148224,-34.5928533668452,430,Asociación Helénica de Socorros Mutuos,Institución Cultural - Social,Griega,4831-1752,,www.sandemetrio.org.ar/,secretaria@sandemetrio.org.ar,,Av. Scalabrini Ortiz,1331,,,,,Palermo,Comuna 14,1414,C1414DOA
-58.4292752312555,-34.5960576201404,19,Asociación La Helénica de Buenos Aires,Institución Cultural - Social,Griega,4773-1546,,www.helenica.com.ar,info@helenica.com.ar,,Julián Álvarez,1030,,,,,Villa Crespo,Comuna 15,1414,C1414DRV
-58.4293186935263,-34.5960850221516,20,Iglesia Catedral,Institución Religiosa,Griega,4777-6222,,,,,Julián Álvarez,1030,,,,,Villa Crespo,Comuna 15,1414,C1414DRV
-58.3866519041204,-34.6214047446714,142,Unión Helénica Peloponense de la América del Sud,Institución Cultural - Social,Griega,4304-7219,,www.peloponense.org.ar,info@peloponense.org.ar,,Humberto Primo,1470,,,,,Constitucion,Comuna 1,1103,C1103ADD
-58.4304015857458,-34.5962143467635,21,Arquidiócesis Ortodoxa Griega de Buenos Aires,Institución Religiosa,Griega,4508-5402/03/04,,www.ortodoxia.com,buenosaires@ortodoxia.org,,Lerma,260,,1,,,Villa Crespo,Comuna 15,1414,C1414AZF
-58.4302721145128,-34.5963531134902,22,Instituto Griego Atenagoras - Nivel secundario,Institución Educativa,Griega,4777-2124,,www.egea.edu.ar,infosecundario@egea.edu.ar,,Lerma,242,,,,,Villa Crespo,Comuna 15,1414,C1414AZF
-58.4294280892993,-34.5961572967461,23,Instituto Griego Atenagoras - Nivel inicial y primario,Institución Educativa,Griega,4776-6398 / 4776-8176,,www.egea.edu.ar,,,Julián Álvarez,1030,,,,,Villa Crespo,Comuna 15,1414,C1414DRV
-58.3867118174028,-34.6214047820071,143,Federación Panhelénica de Argentina,Institución Cultural - Social,Griega,4304-7219 / 4508-5403,,www.fepha.org.ar,federación@gmail.com,,Humberto Primo,1470,,,,,Constitucion,Comuna 1,1103,C1103ADD
-58.4184722777721,-34.6557473968737,373,Helénica Panelinion,Institución Cultural - Social,Griega,4919-9765,,panelinion.org.ar/entidades.html,eventospanelinion@hotmail.com,,Av. Francisco Ravanal,1418,,,,,Nueva pompeya,Comuna 4,,
-58.4020277862177,-34.5909443909955,779,Asociación Cultural Helénica,Institución Cultural - Social,Griega,4826-2777,,www.nostosonline.gr,nostosargentina@gmail.com,,Juncal,2481,,8,J,,Recoleta,Comuna 2,1425,C1425AYA
-58.3758327359178,-34.6088451584811,588,Asociación Argentina de Cultura Helénica,Institución Cultural - Social,Griega,4342-8935,,cariatide.tripod.com/cariatide,jbrignone@hotmail.com,,Av. de Mayo,666,,,,,Monserrat,Comuna 1,1084,C1084AAO
-58.4184243148178,-34.6557316270142,374,Iglesia San Nicolás,Institución Religiosa,Griega,4919-9765,,,,,Av. Intendente Francisco Rabanal,1418,,,,,Nueva Pompeya,Comuna 4,1437,C1437FPO
-58.3997296909717,-34.5786110269273,428,Embajada de Grecia,Embajada,Griega,4805-1100,4806-4686 / 4807-5344,,gremb.bay@mfa.gr; grembsecr.bay@mfa.gr,,Ramón Castilla,2952,,,,,Palermo,Comuna 14,1425,C1425DZF
-58.3997680480093,-34.5786670945414,429,Consulado de Grecia,Consulado,Griega,4805-1100,4806-4686,www.mfa.gr/missionsabroad/en/Argentina-en,grcon.bay@mfa.gr,,Mariscal Ramón Castilla,2952,,,,,Palermo,Comuna 14,1425,C1425DZF
-58.3788457687036,-34.5930564853456,855,Embajada,Embajada,Guatemalteca,4313-9180/9181,,www.facebook.com/EmbaGuateArgentina/,Embajadaguatemala@fibertel.com.ar,,Juncal,802,,3 H,,,Retiro,Comuna 1,1062,C1062ABF
-58.4051091313499,-34.6180018637841,253,Asociación de Guatemaltecos en Argentina,Institución Cultural - Social,Guatemalteca,,,,Asociacionguateargentina@gmail.com,,Catamarca,666,,,,,Balvanera,Comuna 3,1231,C1231AAD
-58.4022337151454,-34.5781697195573,432,Consulado de Haití,Consulado,Haitiana,4802-5979 / 4807-0211,,,,,Av. Pte. Figueroa Alcorta,3297,,,,,Palermo,Comuna 14,1425,C1425CKL
-58.4021953309491,-34.5782109586569,431,Embajada,Embajada,Haitiana,4802-5979 / 4807-0211,,http://Embajadahaiti.com/,amb.argentine@diplomatie.ht,,Av. Pte. Figueroa Alcorta,3297,,,,,Palermo,Comuna 14,1425,C1425CKL
-58.3804891612329,-34.5954556032742,878,Embajada de Honduras,Embajada,Hondureña,5199-7078,,http://embajadahonduras.com.ar,emb.hondurasar@gmail.com/embajada@embajadahonduras.com.ar,,Av. Santa Fe,936,,6,,,Retiro,Comuna 1,1059,C1059ABQ
-58.3914570065459,-34.5910969443644,796,Consulado de Honduras,Consulado,Hondureña,4803-0077 / 4803-1769,,www.embajadahonduras.com.ar,Consulado@embajadahonduras.com.ar,,Av. Callao,1564,,2,,,Recoleta,Comuna 2,1024,C1024AAO
-58.4557135818836,-34.5661491301258,728,"Congregación Evangélica Luterana Húngara ""La Cruz de Cristo""",Institución Religiosa,Húngara,4790-0551,,,lacruzdecristo@uol.com.ar,,Amenábar,1767,,,,,Belgrano,Comuna 13,1426,C1426AKG
-58.4573863151815,-34.5575636768704,727,Asociación Civil de Música y Cultura,Institución Cultural - Social,Húngara,4782-9165 / 4788-8889,,www.arshungarica.com.ar,arshungarica@hotmail.com,,Cuba,2445,,,,,Belgrano,Comuna 13,1428,C1428AEM
-58.4217218359362,-34.5900968925118,463,Federación de Entidades Húngaras en la Argentina,Institución Cultural - Social,Húngara,4551-4903 / 4542-9877,,,cvhefty@yahoo.com.ar nvttay@aol.com,,Araoz,1857,,,,,Palermo,Comuna 14,1414,C1414DQK
-58.4217756120029,-34.5901259220486,464,Asociación de los Húngaros Católicos en la Argentina MINDSZENTYNUM,Institución Cultural - Social,Húngara,4864-7570,,www.mindszentynum.org,mindszentynum@fibertel.com.ar info@mindszentynum.org,,Aráoz,1857,,,,,Palermo,Comuna 14,1414,C1414DQK
-58.3768824470254,-34.6064330828345,657,Cámara Argentina Húngara de Comercio e Industria,Institución Profesional,Húngara,,,,,,Av. Sáenz Peña,720,,9,E,,San Nicolas,Comuna 1,1035,C1035AAP
-58.4404394080067,-34.5697417726556,462,Embajada,Embajada,Húngara,4553-4646,,,Embajada@embhungria.com.ar; secretarg@embhungria.com.ar;  mission.ue@mfa.gov.hu,,11 de Septiembre,839,,,,,Palermo,Comuna 14,1426,C1426BKC
-58.4704064960717,-34.5757058181267,355,Consulado de Hungría,Consulado,Húngara,4555-6862,,http://www.kormany.hu/en,"consulate.bue@mfa.gov.hu, embajada@embhungria.com.ar",,Virrey del Pino,4025,,,,,Villa Ortuzar,Comuna 15,1430,C1430CAM
-58.4419555363941,-34.5739507506136,465,Templo Hare Krishna: Iskcon Argentina,Institución Religiosa,India,,,facebook.com/iskcon.argentina,,,La Paz,353,,,,,Palermo,Comuna 14,1426,C1426AGE
-58.3704907362384,-34.5964874359574,879,Embajada de India,Embajada,India,4393-4156 / 4393-4001,4393-4063,http://www.indembarg.in/,consular@indembarg.org.ar,,Av. Eduardo Madero,942,,19,,,Retiro,Comuna 1,1106,C1106ACW
-58.3886016834143,-34.5890570822151,798,Bengal,Gastronomía,India,4515-0085,,,,,Avenida Callao,1823,,,,,Recoleta,Comuna 2,1024,C1024AAE
-58.407126070647,-34.5937720560299,797,Tandoor,Gastronomía,India,4821-3676 / 4823-2849,,http://www.tandoor.com.ar/,info@tandoor.com.ar,,Laprida,1293,,,,,Recoleta,Comuna 2,1425,C1425EKE
-58.3791126888849,-34.5939227045286,880,Bengal,Gastronomía,India,4314-2926,,,,,Arenales,837,,,,,Retiro,Comuna 1,1061,C1061AAC
-58.4419066053985,-34.5739776880701,466,Templo Hare Krishna: Iskcon Argentina,Gastronomía,India,,,,,,La Paz,353,,,,,Palermo,Comuna 14,1426,C1426AGE
-58.4226423426372,-34.5899408414458,467,Taj Mahal,Gastronomía,India,4831-5716,,http://www.tajmahalresto.com/,tajmahalbuenosaires@hotmail.com,,Nicaragua,4345,,,,,Palermo,Comuna 14,1414,C1414BVA
-58.4372880865582,-34.5836372335815,468,Mumbai,Gastronomía,India,4775-9791,,,,,Honduras,5684,,,,,Palermo,Comuna 14,1414,C1414BNF
-58.4253275015416,-34.5913869774766,469,Gran Dabbang,Gastronomía,India,4832-1186,,http://www.grandabbang.com/,,,Av. Scalabrini ortiz,1543,,,,,Palermo,Comuna 14,1414,C1414DOC
-58.3998475255895,-34.5794816970652,470,Embajada de Indonesia,Embajada,Indonesia,4807-2956 / 4807-2211,,www.kemlu.go.id/buenosaires/,emindo@indonesianembassy.org.ar,,Mariscal Ramón Castilla,2901,,,,,Palermo,Comuna 14,1425,C1425DZE
-58.4016619299024,-34.5785254879872,471,Embajada de Irán,Embajada,Iraní,4802-4821 / 4802-1470,,,Embajadairan@fibertel.com.ar,,Av. Figueroa Alcorta,3229,,,,,Palermo,Comuna 14,1425,C1425CKL
-58.4558402731472,-34.6159201077162,78,Instituto  Monseñor Dillon,Institución Educativa,Irlandesa,4581-4159,,www.monsdillon.esc.edu.ar,mdillon@monsdillon.esc.edu.ar,,Alte. F Seguí,863,,,,,Caballito,Comuna 6,1406,C1406BRM
-58.4676802672615,-34.5579416069071,913,Fahy Club,Institución Cultural - Social,Irlandesa,4544-1078,,www.fahyclub.com.ar,info@fahyclub.com.ar,,Congreso,2931,,,,,Nuñez,Comuna 13,1428,C1428BVU
-58.3942074232516,-34.6033954751556,276,Asociación Argentina Irlandesa de Capital Federal,Institución Cultural - Social,Irlandesa,4953-3562,,,,,Lavalle,1914,,,,,Balvanera,Comuna 3,1051,C1051ABD
-58.3941463908719,-34.6033921817248,275,"Asoc. Arg. Irlandesa  ""Almirante Brown""",Institución Cultural - Social,Irlandesa,,,https://www.facebook.com/pg/argentinoirlandesa/about/?ref=page_internal,asoargirl@yahoo.com.ar,,Lavalle,1914,,,7,A,Balvanera,Comuna 3,1051,C1051ABD
-58.3729785358905,-34.5960886907685,881,The Kilkenny,Gastronomía,Irlandesa,4312-9179,,,,,Marcelo T. de Alvear,399,,,,,Retiro,Comuna 1,1058,C1058AAA
-58.4568379797239,-34.6130211819547,75,Colegio Santa Brígida,Institución Educativa,Irlandesa,4581-1268,,www.santabrigida.esc.edu.ar,sb@santabrigida.esc.edu.ar,,Av. Gaona,2068,,,,,Caballito,Comuna 6,1416,C1416DRV
-58.4703069565104,-34.572279080647,233,Parroquia San Patricio,Institución Religiosa,Irlandesa,4552-6780,,www.sanpatricio.org.ar,consultas@sanpatricio.org.ar,,Estomba,1942,,,,,Villa Urquiza,Comuna 12,1430,C1430EGJ
-58.4660171972818,-34.568173846443,729,Colegio Saint Brendans,Institución Educativa,Irlandesa,4555-5002,,www.stbrendans.esc.edu.ar,mscanlan@arnet.com.ar,,Superí,2057,,,,,Belgrano,Comuna 13,1430,C1430FDE
-58.4565051038241,-34.6129018937336,76,Asociación Católica Irlandesa,Institución Cultural - Social,Irlandesa,4582-3398 / 4582-5745,,www.acirlandesa.org.ar,administracion@acirlandesa.org.ar,,Av. Gaona,2068,,,,,Caballito,Comuna 6,1416,C1416DRV
-58.4453426461833,-34.6227618168209,77,Colegio San Cirano,Institución Educativa,Irlandesa,4431-7069,,www.colegiosancirano.com,info@colegiosancirano.com,,Víctor Martínez,30,,,,,Caballito,Comuna 6,1406,C1406CDB
-58.4336419158874,-34.5836120015767,472,Clipper,Gastronomía,Irlandesa,4777-6760/8628,,,,,Humboldt,1893,,,,,Palermo,Comuna 14,1414,C1414CTS
-58.431418579155,-34.5872505695509,473,Down town Matias,Gastronomía,Irlandesa,4834-6674,,,,,Uriarte,1657,,,,,Palermo,Comuna 14,1414,C1414DAQ
-58.4292229371402,-34.5877663205689,474,Sullivan´s Irish pub & restaurant,Gastronomía,Irlandesa,4832-6442,,,,,El Salvador,4919,,,,,Palermo,Comuna 14,1414,C1414BPO
-58.4636246738908,-34.5673324516465,730,Down town Matias,Gastronomía,Irlandesa,4545-1050,,,,,Echeverría,3195,,,,,Belgrano,Comuna 13,1428,C1428DSE
-58.3869960488741,-34.5862985578339,799,Embajada de Irlanda,Embajada,Irlandesa,5787-0801 / 4808-5700,,,buenosairesembassy@dfa.ie,,Av. del Libertador,1068,,6º Piso,,,Recoleta,Comuna 2,1112,C1112ABN
-58.3724603943882,-34.5996011851715,658,Down town Matias,Gastronomía,Irlandesa,4311-0327,,,,,Reconquista,701,,,,,San Nicolas,Comuna 1,1003,C1003ABO
-58.3931292532378,-34.5856564943584,800,Down town Matias,Gastronomía,Irlandesa,4802-4141,,,,,Av. Pueyrredón,2501,,,,,Recoleta,Comuna 2,1119,C1119ACI
-58.3728361771491,-34.6179350987441,204,Breoghan Brew Pub,Gastronomía,Irlandesa,4362-4750 / 4300-9439,,https://www.facebook.com/pg/Breoghan-Brew-Bar,,,Bolívar,860,,,,,San Telmo,Comuna 1,1066,C1066AAR
-58.4677713347542,-34.557980910854,912,Federación de Sociedades Argentino - Irlandesas,Institución Cultural - Social,Irlandesa,,,,fsairlandesas@yahoo.com.ar,,Av. Congreso,2931,,,,,Nuñez,Comuna 13,1428,C1428BVU
-58.3775518529561,-34.6091163301305,608,The clover irish pub,Gastronomía,Irlandesa,4331-9700,,,,,Piedras,78,,,,,Monserrat,Comuna 1,1070,C1070AAB
-58.3916770129091,-34.5863139090367,801,Down town Matias,Gastronomía,Irlandesa,4802-4141,,,,,Junin,1960,,,,,Recoleta,Comuna 2,1113,C1113AAX
-58.4482099777215,-34.6075521267051,83,"Circolo Italiano Argentino ""Liber Piamont""",Institución Cultural - Social,Italiana,4581-5189,,,,,Manuel A. Rodríguez,1191,,,,,Caballito,Comuna 6,1416,C1416CMA
-58.4963745903261,-34.6201186651498,135,Padovani Nel Mondo Pcia. de Buenos Aires,Institución Cultural - Social,Italiana,4729-3885,,,,,J. A. García,4322,,,,,Floresta,Comuna 10,1407,C1407FWV
-58.4755866100284,-34.6384107698548,136,Sociedad Recanatese B. Gigli,Institución Cultural - Social,Italiana,4652-8747,,,,,Directorio,3615,,,,,Floresta,Comuna 10,1407,C1407HFD
-58.3732211383285,-34.6104606945349,611,Federación Argentina de Asociaciones Lombardas,Institución Cultural - Social,Italiana,4342-2195,,www.mialombardia.com.ar/lombardosargentina.htm,"lombardosbuenosaires@hotmail.com
boffi@sinectis.com.ar",,Bolívar,218,,5,,27,Monserrat,Comuna 1,1066,C1066AAF
-58.4216399291367,-34.6307127554595,170,Cinquefrondi,Institución Cultural - Social,Italiana,4923-1044,,,ferrarolucio@gmail.com,,Treinta y Tres Orientales,1392,,,,,Boedo,Comuna 5,1257,C1257ACH
-58.4825284694121,-34.6368979839727,179,"Circolo ""La Trevisana""",Institución Cultural - Social,Italiana,4671-8446,,"lo estan creando en esos dias, pero todavia no se conoce la direccíon",crossi@icssa.com.ar,,Diputado. O. Benedetti,195-199,,,,,Velez sarsfield,Comuna 10,,
-58.5066910155785,-34.6273130431099,180,Sociedad Giovanni Gentile,Institución Cultural - Social,Italiana,4566-8448,,,,,Juan Agustín García,5270,,,,,Velez Sarsfield,Comuna 10,1407,C1407FXN
-58.4825679936115,-34.6367841381353,181,Unione dei Triveneti nel Mondo,Institución Cultural - Social,Italiana,4502-1661,,www.quelveneto.it/nelmondo/?p=315,,,Dip. O. Benedetti,195,,,,,Velez Sarsfield,Comuna 10,1407,C1407JUC
-58.5068712963498,-34.6311679495312,186,Zungresa Virgen de las Nieves,Institución Cultural - Social,Italiana,4567-1780 / 4605-4265,,,,,Moliere,856,,,,,Villa Luro,Comuna 10,1407,C1407BTP
-58.4839581451026,-34.6565540780055,189,Asociación Civil Italo Argentina,Institución Cultural - Social,Italiana,,,,,,Basualdo,2031,,,,,Mataderos,Comuna 9,1440,C1440DOG
-58.4972896415426,-34.6470686722287,190,Asociación Italiana Santonofreses en Argentina,Institución Cultural - Social,Italiana,4682-3023 / 4652-9441,,,aisa1966@yahoo.com.ar,,Juan B. Alberdi,5192,,,,,Mataderos,Comuna 9,1440,C1440AAP
-58.505755100372,-34.6492422233716,191,Sociedad Siciliana de Socorro Mutuo,Institución Cultural - Social,Italiana,4635-5115,,,,,Zelada,6054,,,,,Mataderos,Comuna 9,1440,C1440BWT
-58.5031046080114,-34.6646465637575,192,Federación de Asociaciones Basilicata en Argentina,Institución Cultural - Social,Italiana,4687-1330,,,basilicataargentina@gmail.com ; basilicataargentna@fibertel.com.ar,,Av de los Corrales,6851,,,,,Mataderos,Comuna 9,1440,C1440BBE
-58.47184910833,-34.6906477887831,551,Centro Cultural Giuseppe Mazzini,Institución Cultural - Social,Italiana,4605-0049,,,,,Corrales,6534,,,,,Villa Riachuelo,Comuna 8,1439,C1439DBL
-58.510719754377,-34.5971712136622,560,Unión Regional Emilia Romagna de Buenos Aires,Institución Cultural - Social,Italiana,,,,,,Joaquín V. González,4207,,,,,Villa Devoto,Comuna 11,1419,C1419AXQ
-58.4973101518279,-34.6557183821136,193,Belmonte Calabro,Institución Cultural - Social,Italiana,4636-3159,,,,,Larrazabal,1778,,,,,Mataderos,Comuna 9,1440,C1440CUW
-58.5086786588493,-34.6029581846092,555,Sociedad Friulana de Buenos Aires,Institución Cultural - Social,Italiana,4501-0764,,,friulanabuenosaires@yahoo.com.ar,,Navarro,3974,,,,,Villa Devoto,Comuna 11,1419,C1419HUB
-58.5194219491755,-34.6116398378472,556,Centro Residentes Acerenza Lucania,Institución Cultural - Social,Italiana,4567-6813 / 4862-6701,,http://centroculturalacerenza.blogspot.com.ar/p/historia-del-centro-cultural-acerenza.html,centroculturalacerenza@fibertel.com.ar ; centroculturalacerenza@gmail.com,,Bermúdez,3127,,,,,Villa Devoto,Comuna 11,1417,C1417BWY
-58.5108030156996,-34.5970956276271,557,Sociedad Emilia Romagna,Institución Cultural - Social,Italiana,4502-1661,,,,,J. V. González,4207,,,,,Villa Devoto,Comuna 11,1419,C1419AXQ
-58.508666987738,-34.6029509704242,558,Sociedad Friulana de Pcia. de Buenos Aires,Institución Cultural - Social,Italiana,4501-0764,,,giovannigentileapi@gmail.com,,Navarro,3972,,,,,Villa Devoto,Comuna 11,1419,C1419HUB
-58.5084569240436,-34.6028211044421,559,Federación de Asociaciones Friuliani en Argentina,Institución Cultural - Social,Italiana,4501-0764,,,,,Navarro,3936,,,,,Villa Devoto,Comuna 11,1419,C1419HUB
-58.4062458822884,-34.6133913248427,299,Federación Círculos Giuliani en Argentina,Institución Cultural - Social,Italiana,,,,,,Moreno,2875,,6,A,,Balvanera,Comuna 3,1209,C1209ABA
-58.4422454360786,-34.5914916373395,27,Unión Ossolana,Institución Cultural - Social,Italiana,4854-3996,,,indata@arnet.com.ar,,Darwin,956,,,,,Villa Crespo,Comuna 15,1414,C1414CUT
-58.3909719753644,-34.5894779599362,810,La Pecora Nera,Gastronomía,Italiana,4804-2000,,http://www.lapecoranera.com.ar/,,,Ayacucho,1785,,,,,Recoleta,Comuna 2,1112,C1112AAE
-58.3955814706812,-34.5906306305472,809,Asociación Lombarda de Buenos Aires,Institución Cultural - Social,Italiana,4806-5244,,www.lombaires.com.ar,info@lombaires.com.ar,,Pacheco de Melo,2058,,2,A,,Recoleta,Comuna 2,1126,C1126AAF
-58.3981426784963,-34.5939195944682,808,Istituto Culturale  Argentino Ligure,Institución Cultural - Social,Italiana,,,www.liguri.net/ical/,ical@ciudad.com.ar,,José E. Uriburu,1228,,5,D,,Recoleta,Comuna 2,1114,C1114AAJ
-58.4220702749665,-34.6148798122709,53,Asociacion Calabresas,Institución Cultural - Social,Italiana,4981-9549,,http://www.asociacioncalabresa.org.ar,asociacioncalabresa@asociacioncalabresa.org.ar,,Hipólito Yrigoyen,3922,,,,,Almagro,Comuna 5,1208,C1208ABT
-58.4223179173488,-34.6148987228176,54,FACA - Federazione Delle Associazioni Calabresi In Argentina,Institución Cultural - Social,Italiana,6445-6652,,,,,Hipólito Yrigoyen,3950,,,,,Almagro,Comuna 5,1208,C1208ABT
-58.4221286007679,-34.6148798316815,57,Asociación Calabresa Mutual y Cultural,Institución Cultural - Social,Italiana,4981-9549 / 4958-1950,,http://www.asociacioncalabresa.org.ar/,asociacioncalabresa@asociacioncalabresa.org.ar,,Hipólito Yrigoyen,3922,,,,,Almagro,Comuna 5,1208,C1208ABT
-58.4263862366273,-34.6003117738462,58,Corigliano Calabro,Institución Cultural - Social,Italiana,4863-5793,,,,,Guardia Vieja,4376,,,,,Almagro,Comuna 5,1192,C1192AAV
-58.3740886137166,-34.5965519839602,888,Filo,Gastronomía,Italiana,4311-0312,,www.filo-ristorante.co,,,San Martin,975,,,,,Retiro,Comuna 1,1004,C1004AAS
-58.3846745525643,-34.5934422510324,887,Circolo Massimo,Gastronomía,Italiana,4519-8055,,http://www.circolomassimo.com.ar/,,,Libertad,1264,,,,,Retiro,Comuna 1,1012,C1012AAZ
-58.3834073007342,-34.596698034189,886,Universitá di Bologna - Representación en la República Argentina,Institución Educativa,Italiana,4570-3000,,,informes@unibo.edu.ar ; mturchi@unibo.edu.ar,,Marcelo T. De Alvear,1149,,4,,,Retiro,Comuna 1,1058,C1058AAQ
-58.3846632750849,-34.5935183238258,885,Círculo Italiano de Buenos Aires,Institución Cultural - Social,Italiana,4811-1160,,www.circuloitaliano.com.ar,informes@circuloitaliano.com.ar,,Libertad,1264,,,,,Retiro,Comuna 1,1012,C1012AAZ
-58.3831431303329,-34.5966822577885,883,Istituto Italiano di Cultura,Institución Cultural - Social,Italiana,5252-6800,,www.iicbuenosaires.esteri.it,iic@buenosaires.esteri.it  ; direzione.iibuenosaires@esteri.it,,Marcelo T de Alvear,1119,,3,,,Retiro,Comuna 1,1058,C1058AAQ
-58.3833082535245,-34.5966745631013,882,FEDITALIA,Institución Cultural - Social,Italiana,4816-5411,,http://www.feditalia.org.ar/arg/home.html,feditalia@feditalia.org.ar,,"M.T. de Alvear 1149, 2º",,,,,,Retiro,Comuna 1,,
-58.4258937624727,-34.6061364720265,59,Hospital Italiano,Institución de Salud,Italiana,4959-0200,,www.hospitalitaliano.org.ar,informes@hospitalitaliano.org.ar,,Tte. Gral. Juan Domingo Perón,4190,,,,,Almagro,Comuna 5,1199,C1199ABB
-58.3627022246734,-34.6370521189224,925,Asociación Ligure de Socorro Mutuo,Institución Cultural - Social,Italiana,4301-0502,,,asociacion@ligurebuenosaires.org.ar,,Suárez,676,,,,,Boca,Comuna 4,1162,C1162AEN
-58.4449858155806,-34.5648030714718,733,Doppio Zero,Gastronomía,Italiana,4784-3420,,,,,Zabala,1925,,,,,Belgrano,Comuna 13,1426,C1426DQI
-58.4597101442156,-34.563062750903,732,Asociación Italiana de Belgrano,Institución Cultural - Social,Italiana,4781-0371 / 4786-2362,,www.asociacionitaliana.com.ar,info@Asociaciónitaliana.com.ar,,Moldes,2153,,,,,Belgrano,Comuna 13,1428,C1428CRG
-58.459795815761,-34.5629759403182,731,Asociación Italiana de Belgrano,Institución Cultural - Social,Italiana,4786-2362,,wwww.asociacionitaliana.com.ar,info@asociacionitaliana.com.ar,,Moldes,2153,,,,,Belgrano,Comuna 13,1428,C1428CRG
-58.3712174260537,-34.626313886151,206,Asociación Filantrópica Massalubrense,Institución Cultural - Social,Italiana,4307-6506,,,info@torquatotasso.com.ar,,Defensa,1575,,,,,San Telmo,Comuna 1,1143,C1143AAG
-58.3720825876842,-34.6232785544457,205,"Asociación Católica ""Marina Grande de Sorrento""",Institución Cultural - Social,Italiana,4307-0971,,,,,Cochabamba,458,,,,,San Telmo,Comuna 1,1150,C1150AAF
-58.3626463021631,-34.6370196956747,924,Asociación Ligure de Socorros Mutuos,Institución Cultural - Social,Italiana,430-10502,,https://es-la.facebook.com/media/set/?set=a.143382325679571.22925.134753433209127&type=1,asociacion@ligurebuenosaires.org.ar,,Suárez,676,,,,,Boca,Comuna 4,1162,C1162AEN
-58.4659666104703,-34.5476179946471,916,"Sociedad Calabresa ""San Francisco de Paola""",Institución Cultural - Social,Italiana,4701-2926 / 4701-2990,,,,,Crisólogo Larralde,2173,,,,,Nuñez,Comuna 13,1429,C1429BTB
-58.4027030050285,-34.5822748536728,475,Embajada de Italia,Embajada,Italiana,4802-0071,,http://www.consbuenosaires.esteri.it/consolato_buenosaires/it/,info.buenosaires@esteri.it.,,Billinghurst,2577,,,,,Palermo,Comuna 14,1425,C1425DTY
-58.4376844537471,-34.5805626518877,483,Siamo nel forno,Gastronomía,Italiana,4775-0337,,https://www.facebook.com/Siamo-Nel-Forno-108065175897230,,,Costa Rica,5886,,,,,Palermo,Comuna 14,1414,C1414BTJ
-58.4641728363302,-34.5514306059861,915,EFASCE - Ente Pordenone,Institución Cultural - Social,Italiana,4701-8886 / 4791-4179,,www.efasce.org.ar,efasce@efasce.org.ar,,Campos Salles,2250,,,,,Nuñez,Comuna 13,1429,C1429CFF
-58.4670863697366,-34.5560802847447,914,Comitato Asociación Veneto en Argentina,Institución Cultural - Social,Italiana,4639-1306,,http://www.federacioncava.com.ar/,,,Vidal,3015,,PB,1,C,Nuñez,Comuna 13,1429,C1429AHC
-58.4475406976023,-34.6155183592568,80,Sardi Uniti,Institución Cultural - Social,Italiana,4433-1412,,www.sardiuniti.org.ar,circulo@sardiuniti.org.ar,,Méndez de Andes,884,,,,,Caballito,Comuna 6,1405,C1405CVJ
-58.4827707928815,-34.6544564621107,370,Centro Calabrese,Institución Cultural - Social,Italiana,4683-4443,,,lecoditalia@ciudad.com.ar,,Av. Escalada,1882,,,,,Parque Avellaneda,Comuna 9,1407,C1407LEL
-58.4299713436712,-34.6338339870474,372,Circolo Albidonese,Institución Cultural - Social,Italiana,4922-5959,,,,,Prov. Unidas,353,,,,,Parque Chacabuco,Comuna 7,1424,C1424CRA
-58.4320923678996,-34.6161577135609,81,Club Italiano de Buenos Aires,Institución Cultural - Social,Italiana,4901-1061 / 4901-1063,,www.clubitaliano.com.ar,"secretaria@clubitaliano.com.ar, clubitaliano@clubitaliano.com.ar",,Rivadavia,4731,,,,,Caballito,Comuna 6,1424,C1424CEC
-58.4306660025354,-34.6155102605543,82,Asociación Provincia de Varese,Institución Cultural - Social,Italiana,4901-5479,,,vareseargentina@speedy.com.ar,,Eduardo Acevedo,11,,4,1,,Caballito,Comuna 6,1405,C1405BUA
-58.4475068524507,-34.6155084788344,84,Sardi Uniti,Institución Cultural - Social,Italiana,4433-1412,,www.sardiuniti.org.ar,circulo@sardiuniti.org.ar,,Méndez de Andes,884,,,,,Caballito,Comuna 6,1405,C1405CVJ
-58.4474710172124,-34.6154936600482,86,Federación de Asociaciones. Sardi en Argentina,Institución Cultural - Social,Italiana,4450-1334 / 4431-8376,,,,,Méndez de Andes,884,,,,,Caballito,Comuna 6,1405,C1405CVJ
-58.466052647293,-34.6272806570284,120,Asociación Lucchesi e Toscani Nel Mondo,Institución Cultural - Social,Italiana,4611-9216,,digirad.com.ar/FlorenciaRequejo/CulturaToscana/quienessomos.html,,,Bacacay,2570,,6,A,,Flores,Comuna 7,1406,C1406GDT
-58.3784802682083,-34.5992333837374,675,Broccolino,Gastronomía,Italiana,4322-7652,,http://www.broccolino.com/,,,Esmeralda,776,,,,,San Nicolas,Comuna 1,1007,C1007ABH
-58.3859752151852,-34.6065913171865,674,Calabria Unita,Institución Cultural - Social,Italiana,,,,pedrogammetta@live.com.ar,,Tte. Gral. Juan Domingo Perón,1372,,,,,San Nicolas,Comuna 1,1038,C1038ABB
-58.3783640973087,-34.6014566487131,672,Unión Regional Asociaciones Molisane en Argentina,Institución Cultural - Social,Italiana,,,,,,Esmeralda,570,,,,,San Nicolas,Comuna 1,1007,C1007ABD
-58.3750757597183,-34.6017671894116,665,"Asociación Emigrados ""Comune di Gorizia""",Institución Cultural - Social,Italiana,4393-0995,,,emigratigoriziani@gorizia.com.ar,,Florida,537,,,,320,San Nicolas,Comuna 1,1005,C1005AAK
-58.3843044874451,-34.608560051379,664,Asociaciones Cristianas de Trabajadores Italianos,Institución Cultural - Social,Italiana,08003452254,,www.acli.org.ar,info@acli.org.ar,,Rivadavia,12557,,1,,120,San nicolas,Comuna 1,,
-58.3881219287796,-34.6050225404724,663,Federación de Instituciones Italianas de la Circunscripción del Consulado General de Buenos Aires,Institución Cultural - Social,Italiana,488-08312 / 4816-5411,,http://www.fediba.org/contacto/,fediba@feditalia.com.ar;fediba74@yahoo.com.ar,,Paraná,326,,1,,5,San Nicolas,Comuna 1,1017,C1017AAH
-58.3858529915378,-34.6065835963887,662,Asociación Italiana de Mutualidad e Instrucción (AIMI),Institución Cultural - Social,Italiana,4372 3025,,https://www.facebook.com/Unione-e-benevolenza-252052671482314/?rf=180893668624747,,,Tte. Gral. Juan Domingo Perón,1362,,,,,San Nicolas,Comuna 1,1038,C1038ABB
-58.390296922868,-34.6020326484831,661,Asociación Dante Alighieri,Institución Educativa,Italiana,4371 2480,,www.dante.edu.ar/,info@dante.edu.ar,,Tucumán 1646,,,,,,San nicolas,Comuna 1,,
-58.3783781010675,-34.6016049006193,660,Federación Molisana Urama,Institución Cultural - Social,Italiana,4246-6691,,https://es-la.facebook.com/Federaci%C3%B3n-Molisana-Urama-534405806722138/,federacion_urama@yahoo.com.ar; serafin_motillo@yahoo.com.ar,,Esmeralda,570,,,,2,San Nicolas,Comuna 1,1007,C1007ABD
-58.3727904847852,-34.6012258427451,659,Consulado de Italia,Consulado,Italiana,4114-4800,,http://www.consbuenosaires.esteri.it/Consolato_BuenosAires/it/,info.buenosaires@esteri.it.,,Reconquista 572 (1003),,,,,,San nicolas,Comuna 1,,
-58.4551904700383,-34.6173477600398,79,Federación Círculo Trentini en Argentina,Institución Cultural - Social,Italiana,4431-9385,,http://www.trentinosbsas.com.ar,,,Seguí,645,,,,,Caballito,Comuna 6,1406,C1406BRI
-58.429941376889,-34.5934355799071,478,Frascineto,Institución Cultural - Social,Italiana,4308-0301,,,asociacionfrascineto@fibertel.com.ar,,Niceto Vega,4656,,,,,Palermo,Comuna 14,1414,C1414BEB
-58.4384915382343,-34.5837025193998,479,Il Ballo del Mattone,Gastronomía,Italiana,4776-4247,,,,,Gorriti,5737,,,,,Palermo,Comuna 14,1414,C1414BKG
-58.4124348305288,-34.5792872266467,480,Olivetti,Gastronomía,Italiana,4802-7321 / 4802-4075,,,,,Cerviño,3800,,,,,Palermo,Comuna 14,1425,C1425AGT
-58.432415127181,-34.5887508125387,481,Il Materello,Gastronomía,Italiana,4307-0529,,https://www.facebook.com/Il-Matterello-243257079062069/,,,Gorriti,5102,,,,,Palermo,Comuna 14,1414,C1414BJT
-58.4347064478905,-34.5710421457858,482,La cucina de Michele,Gastronomía,Italiana,4899-1699,,,,,Av Luis Maria Campos,599,,,,,Palermo,Comuna 14,1426,C1426BOD
-58.4084959111356,-34.574926437167,455,Fundación Cultural Argentino-Japonesa - FCAJ,Institución Cultural - Social,Japonesa,4804-4922 / 4804-9141,,www.jardinjapones.org.ar,informes@jardinjapones.org.ar,,Casares,2966,,,,,,,,
-58.3690053208707,-34.6014714398413,677,Consulado de Japón,Consulado,Japonesa,4318-8220,4318-8210,www.ar.emb-japan.go.jp,conbsas@bn.mofa.go.jp,,Bouchard,547,,15,,,San Nicolas,Comuna 1,1106,C1106ABG
-58.3690260407167,-34.601323353445,676,Embajada  de Japón,Embajada,Japonesa,4318-8200,4318-8210,,taishikan@japan.org.ar,,Bouchard,547,,17,,,San Nicolas,Comuna 1,1106,C1106ABG
-58.3841791449392,-34.5982661587673,869,Círculo Católico Japonés,Institución Religiosa,Japonesa,4307-0929,,,,,Paraguay,1204,,,,,Retiro,Comuna 1,1057,C1057AAT
-58.4176421028805,-34.601689350976,60,Centro Nikkei Argentino,Institución Cultural - Social,Japonesa,4862-7774,,www.centronikkeiarg.org.ar,centronikkeiarg@hotmail.com,,Bulnes,841,,,,,Almagro,Comuna 5,1176,C1176ABO
-58.3725049129757,-34.6099952124781,613,Furaibo,Gastronomía,Japonesa,4334-3440,,,,,Alsina,429,,,,,Monserrat,Comuna 1,1087,C1087AAE
-58.401629181616,-34.6235292333281,159,Centro Okinawense en la Argentina,Institución Cultural - Social,Japonesa,4941-0546 / 4942-9267,4941-0546,http://www.okiren.org.ar/,okiren@sinectis.com.ar ; komesu-s@marubeni.com,,Av. San Juan,2651,,,,,San Cristobal,Comuna 3,1232,C1232AAI
-58.5023297805913,-34.6183300250923,98,DAIWA - Cultura Japopnesa,Institución Cultural - Social,Japonesa,4567-0692 / 4566-4591,,www.centrodaiwa.com.ar,info@centrodaiwa.com.ar,,Pasaje Albania,4507,,,,,Monte Castro,Comuna 10,1407,C1407FEC
-58.4085762006115,-34.5747548231084,484,Jardín Japonés,Institución Cultural - Social,Japonesa,4804-4922 Int. 133 / 134 / 4804-9141,,http://www.jardinjapones.org.ar/,informes@jardinjapones.org.ar,,Av. Casares,2966,,,,,Palermo,Comuna 14,,
-58.4340144264768,-34.5834305747726,485,Fukuro,Gastronomía,Japonesa,4773-6810,,https://fukuronoodlebar.com/,,,Costa Rica,5514,,,,,Palermo,Comuna 14,1414,C1414BTD
-58.4326309797093,-34.587302909288,486,Kiboo,Gastronomía,Japonesa,4831 2456,,https://www.facebook.com/kiboosakebaroficial,,,Honduras,5248,,,,,Palermo,Comuna 14,1414,C1414BMV
-58.4132637606324,-34.5914542988811,487,Heiwa,Gastronomía,Japonesa,4827-3860,,http://www.heiwa.com.ar/,,,Guise,1873,,,,,Palermo,Comuna 14,1425,C1425DPE
-58.3754536378059,-34.6304378904457,364,Centro de Cultura e idioma Japonés en la Argentina - KYOREN,Institución Educativa,Japonesa,4362-8893,,www.kyoren.com.ar,administracion@kyoren.com.ar,,Dr. Finochietto,840,,,,,Barracas,Comuna 4,1272,C1272AAB
-58.4662056066029,-34.6357209663191,118,Iglesia Evangélica Japonesa en la Argentina,Institución Religiosa,Japonesa,4613-9029,,,,,Lafuente,445,,,,,Flores,Comuna 7,1406,C1406ETE
-58.3960455275638,-34.6127875454634,264,Nihonbashi,Gastronomía,Japonesa,4951-7381,,,,,Moreno,2095,,,,,Balvanera,Comuna 3,1094,C1094ABE
-58.4303752825581,-34.5780005184853,454,Centro Universitario  Argentina-Nippón - CEUAN,Institución Educativa,Japonesa,4777-8643,,www.ceuan.com.ar,admceuan@fibertel.com.ar,,Charcas,5157,,,,,Palermo,Comuna 14,1425,C1425BOE
-58.370361549331,-34.6167880648436,202,Sukiyaki,Gastronomía,Japonesa,4361-8805,,,,,San Lorenzo,304,,,,,San Telmo,Comuna 1,1064,C1064AFD
-58.3734111304206,-34.5975492341941,889,Irifune,Gastronomía,Japonesa,4312-8787,,http://www.irifune.com.ar/,,,Paraguay,436,,,,,Retiro,Comuna 1,1057,C1057AAD
-58.3763682142704,-34.6175643050222,207,Asociación Japonesa en la Argentina -AJA,Institución Cultural - Social,Japonesa,4300-1182,,http://www.ajanikkai.com.ar/,asocjaponesa@yahoo.com.ar,,Av. Independencia,732,,,,,San Telmo,Comuna 1,1099,C1099AAU
-58.3759453772574,-34.5930677334483,868,Agencia Japonesa de Cooperación Internacional - JICA,Institución Profesional,Japonesa,4312-5244 / 4313-8901,4313-5778,https://www.jica.go.jp/argentine/english/index.html ; www.aaconi.com.ar,becarios@jica.org.ar,,Maipú,1300,,16,,,Retiro,Comuna 1,1006,C1006ACT
-58.3763036483168,-34.6175655926011,208,Federación  de Asociaciones Nikkei en la Argentina - FANA,Institución Cultural - Social,Japonesa,4307-2026,,http://fana.org.ar/,fanadantai@gmail.com,,Independencia,732,,2,,,San telmo,Comuna 1,,
-58.4142646727866,-34.5778554826427,493,Templo Yeshurun,Institución Cultural - Social,Judía,4802-9310,,,tijon@yeshurum.esc.edu.ar,,República de la India,3035,,1,,,Palermo,Comuna 14,1425,C1425FCG
-58.4070716152201,-34.6027220888668,310,Escuela Jazon Ovadia,Institución Educativa,Judía,4962-4632,,,Shubaisrael@yahoo.com,,Ecuador,627,,,,,Balvanera,Comuna 3,1214,C1214ACI
-58.3987010218842,-34.6058666354848,309,Federación Argentina de Centros Comunitarios Macabeos -FACCMA,Institución Cultural - Social,Judía,4951-5734,,http://www.faccma.org/,Info@faccma.org,,Sarmiento,2233,,12,,,Balvanera,Comuna 3,1044,C1044AAI
-58.403409811513,-34.6035470252077,308,Asociación Israelita Sefardi de Argentina - AISA,Institución Cultural - Social,Judía,4952-5998 / 4951 4707,,,Secretaria@aisa.org.ar,,Paso,493,,1,A,,Balvanera,Comuna 3,1031,C1031ABI
-58.3839486737486,-34.5996343383328,933,Templo Libertad,Institución Religiosa,Judía,4123-0832/0833,,http://www.templolibertad.org.ar/,comunidad@templolibertad.org.ar,,Libertad,769,,,,,San Nicolas,Comuna 1,1012,C1012AAO
-58.3721520885611,-34.6377778352393,365,Escuela Or Torah,Institución Educativa,Judía,4301-3426,,,Ortorah@yahoo.com.ar,,Brandsen,1444,,,,,Barracas,Comuna 4,1287,C1287AAF
-58.3720599847848,-34.6377646397456,366,"Asociación Unión Israelita Sefaradí, ""Luz Eterna""",Institución Cultural - Social,Judía,4301-3426,,,,,Bandsen,1444,,,,,Barracas,Comuna 4,,
-58.3896916237654,-34.5981636010045,934,Museo del Holocausto,Institución Cultural - Social,Judía,4811-3588,,https://www.museodelholocausto.org.ar/,info@museodelholocausto.org.ar,,Montevideo,919,,,,,Recoleta,Comuna 2,1019,C1019ABS
-58.4026403692954,-34.6002520490986,307,Congreso Judío Latinoamericano,Institución Cultural - Social,Judía,4961-4534,,,Info@congresojudio.org.ar,,Larrea,744,,,,,Balvanera,Comuna 3,1030,C1030AAP
-58.399502177728,-34.6018665911877,306,Delegación de Asociaciones Israelitas Argentina - DAIA,Institución Política,Judía,4378-3200 / 4953-1569,,www.daia.org.ar,secretariatecnica@daia.org.ar; daia@daia.org.ar; prensa@daia.org.ar,,Pasteur,633,,7,,,Balvanera,Comuna 3,1028,C1028AAM
-58.3995166544864,-34.601781687778,305,Asociación Mutual Israelita Arentina - AMIA,Institución Política,Judía,4959-8800,,www.amia.org.ar,,,Pasteur,633,,,,,Balvanera,Comuna 3,1028,C1028AAM
-58.3952881681486,-34.6035597633062,274,Instituto Judío de Investigaciones -IWO,Institución Cultural - Social,Judía,4953-9614 / 4953-0293,,www.iwo.org.ar,info@iwo.org.ar,,Ayacucho,483,,,,,Balvanera,Comuna 3,1026,C1026AAA
-58.3977714483176,-34.6020143537899,273,Centro Educativo Sefaradí en Jerusalem,Institución Cultural - Social,Judía,4954-3224 / 4954-3226,,,Csefar@hotmail.com,,Tucumán,2153,,,,,Balvanera,Comuna 3,1050,C1050AAQ
-58.4038596067789,-34.6044330469608,272,Asociación Israelita de Sobrevivientes de la Persecución Nazi,Institución Cultural - Social,Judía,4963-8701,,,Sherithapleita@fibertel.com.ar,,Paso,422,,,,,Balvanera,Comuna 3,1031,C1031ABJ
-58.3977143557994,-34.6020143233966,271,Centro Educativo Sefaradí en Jerusalem,Institución Cultural - Social,Judía,4954-3224 / 4954-3226,,,csefar@hotmail.com,,Tucumán,2153,,,,,Balvanera,Comuna 3,1050,C1050AAQ
-58.4047840951629,-34.6026940225063,270,Asociacion Hebera Argentina De Socorros Mutuos,Institución Cultural - Social,Judía,4961-8844 / 4962-4762,,,Asociacionhebrea@arnetbiz.com.ar,,Pueyrredon,645,,,,,Balvanera,Comuna 3,,
-58.3984568846669,-34.6058531742792,269,Sociedad Hebraica Argentina,Institución Cultural - Social,Judía,4127-2265 / 4127-2266,,www.hebraica.org.ar,Ssturze@hebraica.org.ar,,Sarmiento,2233,,,,,Balvanera,Comuna 3,1044,C1044AAI
-58.3995311345991,-34.601692315372,268,Organización Sionista Argentina - OSA,Institución Cultural - Social,Judía,4951-8733 / 4951-8788,,,Info@osaargentina.org.ar,,Pasteur,633,,8,,,Balvanera,Comuna 3,1028,C1028AAM
-58.453873788134,-34.5778507975016,242,Fundación Pardes,Institución Educativa,Judía,4555-1390,,www.pardes.org.ar,Info@pardes.org.ar,,Céspedes,3370,,,,,Colegiales,Comuna 13,1426,C1426DVJ
-58.4463481532003,-34.5750162540607,241,Asociacion Israelita Sefaradi Templo La Paz Chalom,Institución Cultural - Social,Judía,4552-2720 / 4552-6730,,www.chalom.org.ar,secretaria@chalom.org.ar,,Olleros,2876,,,,,Colegiales,Comuna 13,1426,C1426CSD
-58.4690544364326,-34.5615303774135,230,Asociación Filantrópica Israelita -AFI,Institución Educativa,Judía,4545-2828 / 4545-1955,,www.afi.org.ar,info@afi.org.ar,,Ramón Freire,2682,,,,,Coghlan,Comuna 12,1428,C1428CZN
-58.4113850839615,-34.6004735240936,935,Ieladeinu,Institución Cultural - Social,Judía,4002-0151,,https://ieladeinu.org.ar/,ieladeinu@ieladeinu.org.ar,,Tucumán,3238,,,,,Balvanera,Comuna 3,1189,C1189AAL
-58.4650475577117,-34.5556643643329,938,Comunidad Or El,Institución Religiosa,Judía,4544-1871,,,,,Amenábar,2972,,,,,Nuñez,Comuna 13,1429,C1429AEB
-58.4645054679313,-34.5764044221719,939,Torah y Vida,Institución Religiosa,Judía,4552-9039,,,,,Heredia,1460,,,,,Villa Ortuzar,Comuna 15,1427,C1427CNZ
-58.4267470466908,-34.631438917726,940,Comunidad Adat Israel,Institución Cultural - Social,Judía,4922 - 8760,,http://masortiolami.org/community/comunidad-adat-israel/,adatisrael@gmail.com,,Av. Asamblea,73,,,,,Parque Chacabuco,Comuna 7,1424,C1424COA
-58.4440035902904,-34.5658303579828,488,Arlene Fern,Institución Profesional,Judía,4788-3482 / 4787-1710,,www.arlenefern.edu.ar,secretaria@arlenefern.edu.ar,,Arribeños,1300,,,,,Palermo,Comuna 14,1426,C1426BLB
-58.4248056105208,-34.5833938802376,489,Colegio Beth,Institución Educativa,Judía,4899-0205 / 4899-0206,,www.beth.org.ar,Institucional@beth.org.ar,,Thames,2246,,,,,Palermo,Comuna 14,1425,C1425FIF
-58.4203055994038,-34.5846635600945,490,Instituto Martín Buber,Institución Educativa,Judía,4831-6000,,http://www.buber.edu.ar/institucional/app.php,martin@buber.edu.ar,,Armenia,2362,,,,,Palermo,Comuna 14,1425,C1425FBH
-58.413744506302,-34.579982089105,491,Centro Simón Wiesenthal,Institución Cultural - Social,Judía,4802-1744,,https://www.facebook.com/CSWLA/,Info@cswlatinoamerica.org,,Cabello,3872,,PB,C,,Palermo,Comuna 14,1425,C1425APR
-58.4121161300617,-34.5834992262985,492,Bet Hilel Comunidad Judía de Palermo,Institución Cultural - Social,Judía,4804-2286,,www.bethilel.org.ar,bethilel@bethilel.org.ar,,Aráoz,2854,,,,,Palermo,Comuna 14,1425,C1425DGT
-58.4060955991673,-34.5763086733469,494,Brera,Institución Política,Judía,4805-2450 / 4801-0593,,,,,Cavia,3099,,3,,,Palermo,Comuna 14,1425,C1425DDC
-58.4122111196008,-34.5767559781918,495,Mishiguene,Gastronomía,Judía,3969-0764,,http://mishiguene.com/,,,Lafinur,3368,,,,,Palermo,Comuna 14,1425,C1425FAJ
-58.4271063495001,-34.591043707102,496,Eretz Cantina Israelí,Gastronomía,Judía,2062-3810,,https://www.facebook.com/Eretzcantinaisraeli/,,,Malabia,1583,,,,,Palermo,Comuna 14,1414,C1414DME
-58.4289207368429,-34.586741342815,497,Hola Jacoba,Gastronomía,Judía,4833-5858,,www.holajacoba.com.ar,,,Thames,1801,,,,,Palermo,Comuna 14,1414,C1414DDK
-58.5040220487457,-34.6556201054602,194,Comunidad Tfilat Shalom,Institución Cultural - Social,Judía,4687-5677,,www.tfilatshalom.com.ar,,,Martiniano Leguizamón,1860,,,,,Mataderos,Comuna 9,1440,C1440DYN
-58.5148224406518,-34.5938161758999,561,Escuela J. N. Bialik,Institución Educativa,Judía,4501-2123 / 4501-3657,,http://www.bialik-devoto.edu.ar/index.html,Info@bialik-Devoto.edu.ar,,Av. Gral. Mosconi,3845,,,,,Villa Devoto,Comuna 11,1419,C1419ERE
-58.514718087664,-34.5937648639476,562,Comunidad El Jai,Institución Cultural - Social,Judía,4501-2123,,,,,Av. Gral. Mosconi,3845,,,,,Villa Devoto,Comuna 11,1419,C1419ERE
-58.4480118701266,-34.6115444525988,941,Comunidad Or Israel,Institución Religiosa,Judía,,,http://www.comunidadorisrael.org.ar/,info@comunidadorisrael.org.ar,,Planes,1049,,,,,Caballito,Comuna 6,1405,C1405DBI
-58.4601087411444,-34.6063660569966,949,Comunidad Hertzlia,Institución Cultural - Social,Judía,4581 - 6379,,,Sem. Hernan Kleiner - semikleiner@fibertel.com.ar,,Nicasio Oroño,1661,,,,,Caballito,Comuna 6,1416,C1416BZK
-58.4075629479639,-34.6054294448871,950,Radio Jai,Institución Cultural - Social,Judía,4862-1443,,http://www.radiojai.com/rj/pp.php,produccion@radiojai.com,,Valentín Gómez,2950,,,,,Balvanera,Comuna 3,1191,C1191AAD
-58.4428680874259,-34.6071223616595,952,VIS A VIS,Institución Cultural - Social,Judía,4958-8060,,https://visavis.com.ar/,info@visavis.com.ar,,Olaya,1070,,5,B,,Caballito,Comuna 6,1405,C1405BEB
-58.4085156652122,-34.5991754362963,945,Akedat Itzjak,Institución Cultural - Social,Judía,5368-0678 /11-4078-3775,,http://www.mashaladigital.com/index.php?r=site/showPage&page=100,mashaladigital@hotmail.com,,Anchorena,829,,,,,Balvanera,Comuna 3,1170,C1170ACO
-58.4003263084819,-34.6011755721948,946,Shaarei Hashamaim,Institución Cultural - Social,Judía,4954-2791,,,,,Viamonte,2348,,,,,Balvanera,Comuna 3,1056,C1056ABL
-58.4621265365968,-34.5604997078917,947,Ajdut Israel,Institución Cultural - Social,Judía,4784-6719/ 4783-2831,,http://ajdut.com.ar/,info@ajdut.com.ar,,Moldes,2449,,,,,Belgrano,Comuna 13,1428,C1428CRM
-58.5068645121352,-34.6203748153966,948,Betam Medinath Israel,Institución Cultural - Social,Judía,4639 - 8831,,,Rabbi Ioni Shalom - rabinoioni@bamimarcchagall.edu.ar,,Jonte,4896,,,,,Monte Castro,Comuna 10,1407,C1407GPP
-58.4438621852559,-34.5657670912639,957,Escuela Comunitaria Arlene Fern,Institución Educativa,Judía,4781-6090,,http://www.arlenefern.edu.ar/,secretaria@arlenefern.edu.ar,,Arribeños,1300,,,,,Palermo,Comuna 14,1426,C1426BLB
-58.4387674746864,-34.5953605762974,958,Instituto Educativo Bereshit,Institución Educativa,Judía,3535-2166,,www.escuelabereshit.org.ar/,secretaria@escuelabereshit.org.ar,,Gurruchaga,742,,,,,Villa Crespo,Comuna 15,1414,C1414DHP
-58.451140235164,-34.5863981540628,4,"Nuevo Hogar y Centro de Ancianos para la Comunidad Judía - ""Ledor Vador""",Institución de Salud,Judía,4556-2222,,http://www.hogarledorvador.org/nuevo-esther.html,info@hogarledorvador.org.ar,,Guevara,465,,,,,Chacarita,Comuna 15,1427,C1427BRI
-58.4708294818619,-34.5628459027684,937,Centro de Ana Frank,Institución Cultural - Social,Judía,3533-8505 / 15-6120-9635,,https://www.centroanafrank.com.ar/,argentina@annefrank.nl,,Superí,2647,,,,,Coghlan,Comuna 12,1430,C1430FEI
-58.3766988120972,-34.6085531971572,614,Embajada  de Israel,Embajada,Judía,3724-4500,3724-4624,http://embassies.gov.il/buenos-aires/Pages/Embajada_de_Israel_en_Argentina.aspx,ambassador-sec@be.mfa.gov.il ; info@buenosaires.mfa.gov.il,,Av. de Mayo,701,,10,,,Monserrat,Comuna 1,1084,C1084AAC
-58.3764607306909,-34.6085272274826,615,Consulado  de Israel,Consulado,Judía,4338-2515,4338-2624,http://embassies.gov.il/buenos-aires/ConsularServices/Pages/consular-services.aspx,consulado@buenosaires.mfa.gov.il ; cao-sec@be.mfa.gov.il,,Av. de Mayo,701,,10,,,Monserrat,Comuna 1,1084,C1084AAC
-58.4588964018381,-34.6389449427597,125,Comunidad Or Jadash,Institución Cultural - Social,Judía,4612-1171 / 4612-7840,,,secretariaorjadash@speedy.com.ar,,Varela,850,,,,,Flores,Comuna 7,1406,C1406EKR
-58.4735745844347,-34.6246363980604,124,Residencia Geriátrica Moshab Zekenim,Institución de Salud,Judía,4612-2346,,,Moshabzekenim@gmail.com,,Morón,2968,,,,,Flores,Comuna 7,1406,C1406FVN
-58.468872038306,-34.6260427270642,123,"Hogar de ancianos ""Beit Sion Douer""",Institución de Salud,Judía,4637-2677 / 4637-2678,,,info@beitsiondouer.org.ar,,Condarco,458,,,,,Flores,Comuna 7,1406,C1406AFH
-58.472988787893,-34.6237432739201,122,Escuela Integral Maimonides,Institución Educativa,Judía,4613-7900,,,Maimosecretaria@yahoo.com.ar,,Av. Nazca,750,,,,,Flores,Comuna 7,1406,C1406AJT
-58.4774888325862,-34.58161279697,942,Comunidad Neve Shalom,Institución Cultural - Social,Judía,4522-8417,,https://es-la.facebook.com/comunidadneveshalom/,,,Gándara,2465,,,,,Parque Chas,Comuna 15,1431,C1431DAE
-58.3837867341922,-34.5995629192823,678,Fundación Judaica,Institución Cultural - Social,Judía,4781-0281,,,Info@judaica.org.ar,,Libertad,769,,,,,San Nicolas,Comuna 1,1012,C1012AAO
-58.3853179538648,-34.6041021454951,679,Cámara de Comercio Argentino Israelí,Institución Profesional,Judía,4371-0339 / 4371-6273,,www.ccai.com.ar,info@ccai.com.ar,,Corrientes,1312,,3,EP,,San Nicolas,Comuna 1,1043,C1043ABN
-58.3896963096674,-34.6032089617597,680,Fundación Amigos Argentinos de la Universidad Hebrea de Jerusalem,Institución Cultural - Social,Judía,4374-7045,,www.huji.org.ar,Info@huji.org.ar,,Lavalle,1616,,6,B,,San Nicolas,Comuna 1,1048,C1048AAN
-58.5065204146758,-34.6211290556713,99,Instituto Argentino Hebreo Marc Chagall,Institución Educativa,Judía,4639-8872 / 4639-8873,,http://www.bamimarcchagall.edu.ar/,administracion@marcchagall.edu.ar,,Alcaraz,4969,,,,,Monte Castro,Comuna 10,1407,C1407GIQ
-58.4743824248093,-34.6199264075885,94,Hospital Israelita,Institución de Salud,Judía,4584-2426,,,,,Nazca,1145,,,,,Villa Santa Rita,Comuna 11,1416,C1416ASA
-58.4894560123384,-34.6109717241934,93,Movimiento Sionista Liberal Leumi - LIKUD,Institución Política,Judía,6779-6556,,,likudargentina@gmail.com,,Alvarez Jonte,3340,,,,,Villa Santa Rita,Comuna 11,1407,C1407GON
-58.4599907102252,-34.6062697292796,88,Asociación Argentina Israelita de Sordos,Institución Educativa,Judía,4612-2584,,,elzimmer472@hotmail.com,,Nicasio Oroño,1661,,,,,Caballito,Comuna 6,1416,C1416BZK
-58.4741554733282,-34.606218429434,944,Beit Israel,Institución Cultural - Social,Judía,4582-4825 / 45848-3279,,http://webcache.googleusercontent.com/search?q=cache:http://beitisrael.com.ar/,comunidad.beit.israel@gmail.com,,Juan Agustin Garcia,2250,,,,,Villa Gral. Mitre,Comuna 11,1416,C1416EKZ
-58.447450180789,-34.5624620424585,734,Federación De Comunidades Del Judaismo Conservador - FADECC,Institución Cultural - Social,Judía,4780-0500,,,Presidente@fedecc.org.ar,,Jose Hernandez,1750,,,,,Belgrano,Comuna 13,1426,C1426EOD
-58.4473571676036,-34.5624250934496,735,Seminario Rabínico Latinoamericano,Institución Cultural - Social,Judía,4783-2009 / 4783-6175,,www.seminariorabinico.org.ar,Presidencia@seminariorabinico.org.ar,,José Hernández,1750,,,,,Belgrano,Comuna 13,1426,C1426EOD
-58.4620881750024,-34.5603007288382,736,Escuela Iosef Caro,Institución Educativa,Judía,4783-2831,,http://josecaro.edu.ar/,Administracion@ajdut.com.ar,,Moldes,2449,,,,,Belgrano,Comuna 13,1428,C1428CRM
-58.4637379097849,-34.5696135656306,737,Bet El,Institución Educativa,Judía,4554-3203 / 4554-3901,,www.betel.edu.ar,instituto@betel.edu.ar,,Conde,1860,,,,,Belgrano,Comuna 13,1428,C1428DAB
-58.4598425618942,-34.5644684106213,738,Benei Tikva,Institución Cultural - Social,Judía,4781-9392 / 4786-9374,,www.beneitikva.org.ar,Secretaria@beneitikva.org.ar,,Vidal,2049,,,,,Belgrano,Comuna 13,1428,C1428CSE
-58.4487621596397,-34.5650309461645,739,Hillel Argentina,Institución Cultural - Social,Judía,4789-0088,,www.hillel.org.ar,,,O´Higgins,1560,,,,,Belgrano,Comuna 13,1426,C1426BHF
-58.4610501303622,-34.5583609185412,740,"Asociación Israelita, Luz Naciente ""Or Mizrah""",Institución Cultural - Social,Judía,4784-5945,,,ormizrah@ciudad.com.ar,,Ciudad de la Paz,2555,,,,,Belgrano,Comuna 13,1428,C1428CPQ
-58.4597562863349,-34.5645728997707,741,Benei Tikva,Institución Cultural - Social,Judía,4781-9392,,www.beneitikva.org.ar,secretaria@beneitikva.org.ar,,Vidal,2049,,,,,Belgrano,Comuna 13,1428,C1428CSE
-58.4451059536072,-34.5582575760372,742,Centro de Espiritualidad Judía Mishkan,Institución Cultural - Social,Judía,4781-4070/77,,www.mishkan.org.ar,mishkan@ciudad.com.ar,,Sucre,1420,,,,,Belgrano,Comuna 13,1428,C1428DUR
-58.4519309665578,-34.5556030688929,743,Comunidad Amijai,Institución Cultural - Social,Judía,4131-7033,,www.amijai.org,comunidad@amijai.org,,Arribeños,2355,,,,,Belgrano,Comuna 13,1428,C1428APE
-58.4555829107245,-34.5580648317039,744,Comunidad NCI-Emanu El,Institución Cultural - Social,Judía,4781-0281 / 4787-2414,,,nciemanuel@judaica.org.ar,,Arcos,2319,,,,,Belgrano,Comuna 13,1428,C1428AFK
-58.455475003351,-34.5581791600587,745,"Jazon Artzeinu DR.,",Institución Política,Judía,4781-0281,,,,,Arcos,2319,,,,,Belgrano,Comuna 13,1428,C1428AFK
-58.4178083264019,-34.6070255180569,61,Meretz-Argentina,Institución Política,Judía,4865-2851 / 4865-2810,,,,,Tte. Gral. Juan Domingo Perón,3638,,,,,Almagro,Comuna 5,1198,C1198AAR
-58.4178083264019,-34.6070255180569,52,Centro Comunitario Tzavta,Institución Cultural - Social,Judía,4865-2804 / 4865-2823,,,Tzavta@fibertel.com.ar,,Tte. Gral. Juan D. Perón,3638,,,,,Almagro,Comuna 5,1198,C1198AAR
-58.4978455695044,-34.5932043197758,951,Agencia Judia de Noticias,Institución Cultural - Social,Judía,,,https://agenciaajn.com/,ajn.berliner@gmail.com,,Argerich,3851,,,,,Agronomia,Comuna 15,1419,C1419DAA
-58.4136607556031,-34.579870385492,953,Centro Simon Wiesenthal,Institución Cultural - Social,Judía,4802-1744,,http://www.wiesenthal.com/ https://es-la.facebook.com/CSWLA/,info@cswlatinoamerica.org,,Cabello,3872,,PB,C,,Palermo,Comuna 14,1425,C1425APR
-58.3895166362558,-34.5981965138727,789,Fundación Memoria del Holocausto,Institución Cultural - Social,Judía,4811-3588,,,secretaria@fmh.org.ar,,Montevideo,919,,,,,Recoleta,Comuna 2,1019,C1019ABS
-58.4242306180921,-34.5979255435166,954,Hacoaj,Institución Cultural - Social,Judía,4863-2121,,http://hacoaj.org.ar/,,,Av. Estado de Israel,4156,,,,,Almagro,Comuna 5,1185,C1185AAN
-58.4096373653356,-34.6007164425086,955,Macabi,Institución Cultural - Social,Judía, 4963-8783,,http://www.macabi.com.ar/,secretaria.general@ohamacabi.org,,Tucumán,3135,,,,,Balvanera,Comuna 3,1189,C1189AAI
-58.419465945095,-34.6013441366654,51,Centro de Investigación y Difusión de la Cultura Sefaradí - CIDICSEF,Institución Cultural - Social,Judía,4861-0686,,www.cidicsef.org.ar,Cidicsef@gmail.com,,Salguero,758,,,,,Almagro,Comuna 5,1177,C1177AEN
-58.4084093781274,-34.5907151109921,811,B'nai B'rith Argentina,Institución Cultural - Social,Judía,4824-3821 / 4826-6802,4826-6802,http://www.bnaibrith.org/argentina.html,mirthabnaib@gmail.com,,Santa Fe,3044,,1,,,Recoleta,Comuna 2,1425,C1425BGS
-58.4028765026912,-34.5904009019689,812,Bene Brith,Institución Cultural - Social,Judía,4824-4625 / 4822-0258,,www.bnaibrith.org.ar,bnaib@arnet.com.ar; secrbnaib@arnet.com.ar,,Juncal,2573,,,,,Recoleta,Comuna 2,1425,C1425AYC
-58.3874328809897,-34.5972581455616,813,Campaña Unida Judeo Argentina - CUJA,Institución Cultural - Social,Judía,4815-0688 / 4815-8796,,www.cuja.org.ar,Presidencia@cuja.org.ar,,Marcelo T De Alvear,1430,,7 y 8,,,Recoleta,Comuna 2,1060,C1060AAB
-58.3905519249708,-34.5930639636734,814,Federación Sefaradí De La República Argentina,Institución Cultural - Social,Judía,4772-9008,,,Fesera@fesela.com,,Av Las Heras,1646,,,,,Recoleta,Comuna 2,1018,C1018AAN
-58.3936261658981,-34.5956697206174,815,Fundación Tzedaka,Institución Cultural - Social,Judía,4811-1430,,www.tzedaka.org.ar,Institucional@tzedaka.org.ar,,Av. Santa Fe,1821,,3,,,Recoleta,Comuna 2,1123,C1123AAA
-58.391363206261,-34.5892966475858,816,Hadassah-Argentina,Institución Cultural - Social,Judía,4801-9823,,,,,Ayacucho,1778,,3,,,Recoleta,Comuna 2,1112,C1112AAF
-58.4022494568828,-34.5990272461147,817,Helueni,Gastronomía,Judía,4963-8523,,http://www.heluenicomidasarabes.com/helueni/,,,Cordoba,2495,,,,,Recoleta,Comuna 2,1120,C1120AAG
-58.4433292785834,-34.6042355019516,35,Movimiento Sionista Apartidario,Institución Política,Judía,4811-4500,,,msrargentina@yahoo.com,,Hidalgo 1385,1385,,1,A,,Villa crespo,Comuna 15,,
-58.4432501442293,-34.6008435462941,34,Comunidad Dor Jadash,Institución Cultural - Social,Judía,4857-1034,,,dorjadash@yahoo.com.ar,,Murillo,661,,,,,Villa Crespo,Comuna 15,1414,C1414AFC
-58.443535795617,-34.5976451058309,33,Asociación Comunidad Israelita Sefaradí,Institución Cultural - Social,Judía,4855-6945,,,,,Camargo,870,,,,,Villa Crespo,Comuna 15,1414,C1414AHR
-58.441107950063,-34.5974572272357,32,"Centro Terapéutico Comunitario - Fundación Abraham Katz - ""Horim""",Institución de Salud,Judía,4854-8253 / 4855-1707,,,Cthorim@yahoo.com.ar,,Av. Corrientes,5461,,,,,Villa Crespo,Comuna 15,1414,C1414AJH
-58.4441198183375,-34.5978495658588,31,Escuela Scholem Aleijem,Institución Educativa,Judía,4854-5990,,http://www.scholem.edu.ar/,escuela@scholem.edu.ar,,Serrano,341,,,,,Villa Crespo,Comuna 15,1414,C1414DEG
-58.4421994404383,-34.5990618672913,30,Centro Hebreo Iona,Institución Educativa,Judía,4854-9745,,www.iona.org.ar,Secretaria@iona.org.ar,,Acevedo,276,,,,,Villa Crespo,Comuna 15,1414,C1414DJF
-58.443535795617,-34.5976451058309,29,Asociación Comunidad Israelita Sefaradí de Buenos Aires,Institución Política,Judía,4855-6945,,,,,Camargo,870,,,,,Villa Crespo,Comuna 15,1414,C1414AHR
-58.4368842686458,-34.6022626589082,26,Federación de Entidades Judías en Argentina -ICUF,Institución Cultural - Social,Judía,4856-9898,,http://www.icufargentina.org/,info@icufargentina.org ; icuf@icufargentina.org,,Lavalleja,182,,,,,Villa Crespo,Comuna 15,1414,C1414DTD
-58.4626025068091,-34.6016338357624,10,Comunidad Tel Aviv,Institución Educativa,Judía,4581-8394,,http://telaviv.org.ar/,info@telAviv.org.ar,,Seguí,2130,,,,,Paternal,Comuna 15,1416,C1416BXV
-58.4747146741027,-34.6262491723922,959,Instituto Puertas de Sión,Institución Educativa,Judía,4637 5897,,,direcciongeneralshaaresion@hotmail.com,,Helguera,465,,,,,Flores,Comuna 7,1406,C1406APG
-58.4653121225245,-34.5494565911403,910,Asociación De Genealogía Judía de Argentina,Institución Cultural - Social,Judía,4701-0730,,www.agja.org.ar,Consultas@agja.org.ar,,Juana Azurduy,2223,,8,8,,Nuñez,Comuna 13,1429,C1429BZE
-58.4651330111427,-34.555791430333,917,Comunidad David Wolfsohn,Institución Educativa,Judía,4545-6020,,www.wolfsohn.edu.ar,institucional@wolfsohn.edu.ar,,Amenábar,2972,,,,,Nuñez,Comuna 13,1429,C1429AEB
-58.4540848985865,-34.5497259459025,918,ORT,Institución Educativa,Judía,4782-1005 / 4789-6500,,www.ort.edu.ar,Escuelaort@ort.edu.ar,,Av. del Libertador,6796,,,,,Nuñez,Comuna 13,1429,C1429BMN
-58.4099886690951,-34.6279536913463,943,Templo Comunidad Jerusalem,Institución Cultural - Social,Judía,4957-0012,,http://comunidadjerusalem.org/,comunidad@comunidadjerusalem.org,,24 de Noviembre,1434,,,,,San Cristobal,Comuna 3,1242,C1242AAF
-58.3613122587468,-34.6347807641824,923,Centro Comunitario Guesher,Institución Cultural - Social,Judía,4286-3028,,www.guesher.org.ar,Ccguesher@guesher.org.ar,,Av. Gral. Martin Rodrguez,751,,,,,Boca,Comuna 4,,
-58.4682225742293,-34.556522253819,929,Tarbut,Institución Educativa,Judía,,,,Colegio@tarbut.edu.ar,,Av. Cramer,3019,,,,,Nuñez,Comuna 13,1429,C1429AJC
-58.4099057943477,-34.5961064110075,936,Jabad Lubavitch,Institución Religiosa,Judía,4963-1221,,http://www.jabad.org.ar/,info@jabad.org.ar,,Agüero,1164,,,,,Recoleta,Comuna 2,1425,C1425EHB
-58.4014532717617,-34.607260688279,311,Escuela Natan Gesang,Institución Educativa,Judía,4951-3275,,www.natangesang.edu.ar,Pintes@natangesang.edu.ar,,Tte. Gral. Juan D. Perón,2461,,,,,Balvanera,Comuna 3,1040,C1040AAM
-58.4012255249293,-34.6004572430212,312,Escuela Talpiot,Institución Educativa,Judía,4961-3610,,www.talpiot.edu.ar,Institutotalpiot@yahoo.com.ar,,Azcuénaga,736,,,,,Balvanera,Comuna 3,1029,C1029AAP
-58.4087676673058,-34.6011060317996,313,Hamakom Sheli,Institución Educativa,Judía,4966-2226,,http://www.hamakomsheli.com.ar/index2.html,info@hamakomsheli.com.ar,,Tucumán,3070,,,,,Balvanera,Comuna 3,1189,C1189AAH
-58.406364576272,-34.5992463820192,314,Agudat Israel,Institución Cultural - Social,Judía,4863-2301,,,,,Ecuador,920,,,,,Balvanera,Comuna 3,1214,C1214ACP
-58.403583359233,-34.6004933049738,315,Casa de DAvid Beneficencia y Culto,Institución Cultural - Social,Judía,4962-1091,,,,,Paso,724,,,,,Balvanera,Comuna 3,1031,C1031ABP
-58.4030356998532,-34.6032308890655,316,"Asociación Israelita Sefaradí ""Hijos de la Verdad""",Institución Cultural - Social,Judía,4961-9340 / 4961-4674,,,,,Lavalle,2559,,,,,Balvanera,Comuna 3,1052,C1052AAE
-58.4031224253993,-34.6003569664521,317,Asociación Israelita Puertas de la Oración,Institución Cultural - Social,Judía,4962-2865,,www.fiestajudia.com.ar/cgi-bin/mt_ver_templo_judio.cgi?sinagoga=ASOCIACI%C3%93N%20ISRAELITA%20PUERTAS%20DE%20LA%20ORACI%C3%93N&id=20,,,Paso,733,,,,,Balvanera,Comuna 3,1031,C1031ABO
-58.4015438911883,-34.6032537390604,318,Templo Congregación Yesod Hadat,Institución Cultural - Social,Judía,4961-9299 / 4961-1615,,,congregacion@pla.net.ar,,Lavalle,2449,,,,,Balvanera,Comuna 3,1052,C1052AAC
-58.4034231744111,-34.6044129081429,319,Templo de Paso,Institución Cultural - Social,Judía,4951-2306,,www.grantemplopaso.org.ar,info@grantemplopaso.org.ar,,Paso,423,,,,,Balvanera,Comuna 3,1031,C1031ABI
-58.4003525242655,-34.6013173301876,320,Templo Shaarei Hashamaim,Institución Cultural - Social,Judía,4954-2791,,,,,Viamonte,2348,,,,,Balvanera,Comuna 3,1056,C1056ABL
-58.4070602025902,-34.6026414936154,321,Yeshiva Shuva Israel,Institución Cultural - Social,Judía,,,,,,Ecuador,627,,,,,Balvanera,Comuna 3,1214,C1214ACI
-58.3952899605328,-34.6035218889576,322,Convergencia,Institución Política,Judía,4953-0293 / 4953-9614,,,convergenciajud@ciudad.com.ar,,Ayacucho,483,,,,,Balvanera,Comuna 3,1026,C1026AAA
-58.4012231887115,-34.6005345151491,323,"Mizrahi,DR.",Institución Política,Judía,4952-2390,,,,,Azcuénaga,736,,,,,Balvanera,Comuna 3,1029,C1029AAP
-58.4065134347129,-34.6033264195849,324,Movimiento Sionista Renovador,Institución Política,Judía,4865-7903,,,,,Lavalle,2812,,,,,Balvanera,Comuna 3,1190,C1190AAD
-58.4022359547267,-34.6067066886477,325,Tnuat Haavoda Hatzionit,Institución Política,Judía,4953-6197 / 4953-6267,,,tnuatavoda@ciudad.com.ar,,Larrea,266,,1,1,,Balvanera,Comuna 3,1030,C1030AAF
-58.4030826807935,-34.6001029403295,326,Yafo Kosher,Gastronomía,Judía,4966-0551,,,,,Paso,747,,,,,Balvanera,Comuna 3,1031,C1031ABO
-58.390361754677,-34.6020366175416,693,Presidente de la Asociación de Amistad Argentino-Libanesa,Institución Cultural - Social,Libanesa,5811-1292 / 2320404729,,,jglabake@gmail.com,,Tucumán,1650,,PB 1,,,San Nicolas,Comuna 1,1050,C1050AAH
-58.3788601615288,-34.5978615154635,900,Colegio Marón,Institución Religiosa,Libanesa,4311-7299,,,info@misionlibanesa.com,,Paraguay,834,,,,,Retiro,Comuna 1,1057,C1057AAL
-58.394095112503,-34.590442341154,843,Fundación Bait Al Hikma,Institución Cultural - Social,Libanesa,4806-1394,,,fundacion@altapolitica.com,,Junín,1573,,5,22,,Recoleta,Comuna 2,1113,C1113AAO
-58.3955098991127,-34.5912881733166,842,FUNLAC,Institución Cultural - Social,Libanesa,1563979697,,,m.lucas@outlook.com,,Junin,1462,,,,,Recoleta,Comuna 2,1113,C1113AAN
-58.3978213888821,-34.5941649343348,841,Presidente Fundación Daniela Jozami,Institución Cultural - Social,Libanesa,4823-4457,,,mariaj2727@gmail.com,,Arenales,2171,,PB,,,Recoleta,Comuna 2,1124,C1124AAG
-58.3948930182084,-34.5923907684312,840,Presidente Fundación Los Cedros,Institución Cultural - Social,Libanesa,4806-6353/7850,,,fundacionloscedros@gmail.com,,Ayacucho,1416,,,,,Recoleta,Comuna 2,1111,C1111AAN
-58.3955072790572,-34.5912420251002,839,Presidente de J.U.C.A.L. (Juventud de la Unión Cultural Argentino Libanesa),Institución Cultural - Social,Libanesa,3413-014676,,,presidencia@jucal.org,,Junín,1462,,,,,Recoleta,Comuna 2,1113,C1113AAN
-58.3956428177528,-34.5912157300669,818,Unión Cultural Argentino Libanesa,Institución Cultural - Social,Libanesa,4806-1572,,https://www.facebook.com/clublibanesbsas/,clublibanesbsas@gmail.com; secretariaucalbaires@gmail.com; melinaluques@yahoo.com.ar;aaconsultores@fibertel.com.ar;,,Junin,1462,,,,,Recoleta,Comuna 2,1113,C1113AAN
-58.3759368064681,-34.6065013525503,692,"Presidente Cámara de Comercio
 Argentino Libanesa",Institución Cultural - Social,Libanesa,4326-6585/7889 -,,,presidencia@camaralibanesa.com.ar,,Av. Roque  Saenz Peña,651,,,,,San Nicolas,Comuna 1,1035,C1035AAB
-58.5073373302571,-34.5899819971779,563,Presidente Asociación de Beneficencia Hospital Sirio Libanés,Institución Cultural - Social,Libanesa,4574-4343 / 1562194885,,,rsimes@hospitalsirioslibanes.org,,Campana,4658,,,,,Villa Devoto,Comuna 11,1419,C1419AHN
-58.5071911838464,-34.5901458975728,564,Presidente del Hospital Sirio Libanés,Institución Cultural - Social,Libanesa,4574-4343 / 1544166822,,,rsimes@hospitalsirioslibanes.org,,Campana,4658,,,,,Villa Devoto,Comuna 11,1419,C1419AHN
-58.4147863570921,-34.5792708521437,544,Presidenta Asociación de Damas Ortodoxas San Jorge,Institución Cultural - Social,Libanesa,4802-6211,,,damassanjorge@yahoo.com.ar,,Cabello,3963,,2,A,,Palermo,Comuna 14,1425,C1425APS
-58.4251779291032,-34.5932525296447,543,Presidente Amigas del Líbano de Buenos Aires,Institución Cultural - Social,Libanesa,1541763342,,,anaelyar@yahoo.com.ar,,Julián Alvarez,1416,,,,,Palermo,Comuna 14,1414,C1414DSD
-58.3940806420131,-34.5918201776691,838,Presidenta de la Comisión de Damas del Club Sirio Libanés de Bs. As.,Institución Cultural - Social,Libanesa,4806-3002,,,info@clubsiriolibanes.org.ar,,Ayacucho,1496,,,,,Recoleta,Comuna 2,1111,C1111AAN
-58.4038523117382,-34.579561178148,542,Presidente Fundación Ninawa Daher,Institución Cultural - Social,Libanesa,1544787474,,,aliciadaher@gmail.com,,Cnel Díaz,2861,,1,,,Palermo,Comuna 14,1425,C1425DRB
-58.4053144125315,-34.5803931374846,498,Embajada del Líbano,Embajada,Libanesa,4802-0466 / 4802-4492,4802-2909,http://www.ellibano.com.ar/,embajada@ellibano.com.ae,,Av.del Libertador 2354,,,,,,Palermo,Comuna 14,,
-58.4777267624861,-34.6290788418616,140,Presidente Fearaba Argentina,Institución Cultural - Social,Libanesa,4611-2087 / 1551833064,,,assadforo@hotmail.com,,Bogotá,3449,,,,,Floresta,Comuna 10,1407,C1407ESC
-58.370093082857,-34.6125401116284,625,Director Oficina de Cultura y Difusión Islámica,Institución Cultural - Social,Libanesa,4331-7447/42 / 4331-7243,,,info@islamerica.org.ar,,Av. Belgrano,258,,7,,,Monserrat,Comuna 1,1092,C1092AAP
-58.405367727806,-34.580351237785,499,Consulado del Líbano,Consulado,Libanesa,4802-0466,4802-2909,http://www.ellibano.com.ar/docs/es/consul.php,historias@ellibano.com.ar - instituciones@ellibano.com.ar  - galladgeorge@yahoo.com,,Av. del Libertador 2354,,,,,,Palermo,Comuna 14,,
-58.4295942001974,-34.5922302323377,500,Cheff Iusef,Gastronomía,Libanesa,4773-0450,,,,,Malabia,1378,,,,,Palermo,Comuna 14,1414,C1414DMB
-58.4776304189899,-34.6290599572488,141,Presidente Asociación Arabe Argentina Islámica,Institución Cultural - Social,Libanesa,4613-1257,,,,,Bogotá,3449,,,,,Floresta,Comuna 10,1407,C1407ESC
-58.4180261416575,-34.5839757884077,501,Al Rawshe,Gastronomía,Libanesa,4831-0608,,https://www.facebook.com/Rawshebistro?fref=ts,,,Av Santa e,3870,,,,,Palermo,Comuna 14,1425,C1425BHN
-58.3955550857836,-34.5912706184636,837,Presidente Consejo Nacional Unión Cultural Argentino Libanesa,Institución Cultural - Social,Libanesa,1556912121,,,cnucal@gmail.com,,Junín,1462,,,,,Recoleta,Comuna 2,1113,C1113AAN
-58.3941302914848,-34.5918102964076,836,Presidente del Club Sirio-Libanés y Asociación Sirio Libanesa,Institución Cultural - Social,Libanesa,4806-3002 / 4544-6967,,,info@clubsiriolibanes.org.ar,,Ayacucho,1496,,,,,Recoleta,Comuna 2,1111,C1111AAN
-58.447759931768,-34.5614390006912,759,"Presidenta de la Comisión de Damas Santa Cruz""""",Institución Cultural - Social,Libanesa,4776-2283 S.Jorge - 4383-7500fáb,,,deas42@gmail.com,,Arribeños,1774,,14,,,Belgrano,Comuna 13,1426,C1426BLL
-58.4523016525427,-34.5618570159495,760,Presidente del Consejo de la Comunidad Drusa en la Argentina,Institución Cultural - Social,Libanesa,03488-475756,,,sayourarslan@yahoo.com.ar,,Arcos,1929,,7,,,Belgrano,Comuna 13,1428,C1428AFC
-58.3955604479266,-34.5912112898472,835,Presidente del Club Libanés de Buenos Aires,Institución Cultural - Social,Libanesa,4806-1572 / 1555263538,,,adalargentina@gmail.com,,Junín,1462,,,,,Recoleta,Comuna 2,1113,C1113AAN
-58.3956029402417,-34.5912398802681,834,Presidente Unión Cultural Argentino Libanesa U.C.A.L. Filial Buenos Aires,Institución Cultural - Social,Libanesa,4806-1572,,,secretariaucalbaires@gmail.com,,Junín,1462,,,,,Recoleta,Comuna 2,1113,C1113AAN
-58.4282161266216,-34.5926219662301,541,Presidente Asociacion De Beneficencia Drusa,Institución Cultural - Social,Libanesa,4823-6963,,,daniel.attar@gmail.com,,Jose Antonio Cabrera,4625,,,,,Palermo,Comuna 14,1414,C1414BGI
-58.4669945993836,-34.5777912190155,358,Eparquía Maronita,Institución Religiosa,Libanesa,4311-7299 / 4312-8313,,,padre.charbel@hotmail.com,,Tronador,1464,,,,,Villa Ortuzar,Comuna 15,1427,C1427CSD
-58.4733501381774,-34.6121258438829,353,Presidente Union Libanesa Mundial Consejo Nac. De la Rep. Argentina,Institución Cultural - Social,Libanesa,4942-8628/8717 / 1544138248,,,ulm1@ciudad.com.ar,,Artigas,1651,,,,,Villa Gral. Mitre,Comuna 11,1416,C1416AKM
-58.3893762070272,-34.6028268957383,694,Presidente de la Cámara de Comercio Argentino Arabe,Institución Cultural - Social,Libanesa,4372-8167 / 4371-2561,,,president@ccaa.com.ar,,Montevideo,513,,6,,,San Nicolas,Comuna 1,1019,C1019ABK
-58.3956136114578,-34.5911871469642,819,Consejo Nacional Unión Cultural Argentino Libanesa,Institución Cultural - Social,Libanesa,1556912121 / 3621-7985,,https://www.facebook.com/UcalNacional/,cnucal@gmail.com,,Junin,1462,,,,,Recoleta,Comuna 2,1113,C1113AAN
-58.4738041878081,-34.6943806452115,552,Argentinos Lietiuviu Centras,Institución Cultural - Social,Lituana,4605-0496 / 4638-3325,,http://www.centrolituano.com/,centrolituano@hotmail.com,,Tabaré,6950,,,,,Villa Riachuelo,Comuna 8,1439,C1439DGR
-58.3698291615006,-34.6108607793301,616,Consulado Honorario de Lituania,Consulado,Lituana,4331-1525 / 433 115 28,,,snunes@abogados.net.ar,,Paseo Colón 275 11º Piso (1063),,,,,,Monserrat,Comuna 1,,
-58.440165181574,-34.567784740867,503,Consulado de Malasia,Consulado,Malasia,4776-0504 / 4776-2553 / 4777-8420,4776-0604,www.kln.gov.my/perwakilan/buenosaires,mwbaires@ciudad.com.ar,,Villanueva 1040 (1426),,,,,,Palermo,Comuna 14,,
-58.4402682068155,-34.5677095025173,502,Embajada de Malasia,Embajada,Malasia,4776-0504 / 4776-2553 / 4777-8420,4776-0604,http://www.kln.gov.my/web/arg_buenos-aires/home,mwbuenosaires@kln.gov.my,,Villanueva 1040 (C1426),,,,,,Palermo,Comuna 14,,
-58.4065166414128,-34.5772923708707,504,Embajada de Marruecos,Embajada,Marroquí,4801-8154/55/56/57,4802-0136,,sifamarruecos@fibertel.com.ar,,Castex 3461 (C1425),,,,,,Palermo,Comuna 14,,
-58.4256362730192,-34.5881093185471,506,Bereber,Gastronomía,Marroquí,4833-5662,,,,,Armenia,1880,,,,,Palermo,Comuna 14,1414,C1414DKN
-58.4387867084966,-34.5809594209598,507,Tetuan,Gastronomía,Marroquí,,,https://www.facebook.com/TetuanBraseroMarroqui/,,,Ravignani,1780,,,,,Palermo,Comuna 14,1414,C1414CPP
-58.399716101645,-34.5786595947027,505,Consulado de Marruecos,Consulado,Marroquí,4801-8154 / 4801-8157,4802-0136,www.visitmorocco.com,marruecoscomercio@fibertel.com.ar,,Mariscal Ramón Castilla 2952 (1425,,,,,,Palermo,Comuna 14,,
-58.4504397553047,-34.5646215525137,746,Embajada de México,Embajada,Mexicana,4118-8826/4118-8827 / 4118-8800,4118-8837/8800,https://embamex.sre.gob.mx/argentina/ Y https://embamex.sre.gob.mx/argentina/index.php/directorio,mgomezo@sre.gob.mx,,Arcos 1650 (1426),,,,,,Belgrano,Comuna 13,,
-58.4288431970997,-34.5830022978652,510,Maria Felix,Gastronomía,Mexicana,47750380,,http://www.mariafelix.com.ar/,,,Guatemala,5200,,,,,Palermo,Comuna 14,1425,C1425BUV
-58.3704027954678,-34.6180983047932,209,Che Taco,Gastronomía,Mexicana,4361-1707,,http://chetacoarg.com.ar/,,,Balcarce,873,,,,,San Telmo,Comuna 1,1064,C1064AAQ
-58.4503843212606,-34.5647138162154,747,Consulado de México,Consulado,Mexicana,4118-8826/27  FAX 4118-8837/8800,,www.embamex.int.ar,aalba@sre.gob.mx,,Arcos 1650 (1426),,,,,,Belgrano,Comuna 13,,
-58.502354851296,-34.5707079914071,234,Casa Parador Todos Santos,Gastronomía,Mexicana,4571-3416,,https://www.facebook.com/CasaParadorTodosSantos/,,,Manuela Pedraza,6074,,,,,Villa Urquiza,Comuna 12,1431,C1431AKD
-58.4282892275198,-34.588857969864,511,Xalapa,Gastronomía,Mexicana,4833-6102,,,,,El Salvador,4800,,,,,Palermo,Comuna 14,1414,C1414BPL
-58.3883534537744,-34.6223595914857,146,"Comunidad ""Ángel de México A.C.""",Institución Cultural - Social,Mexicana,4306-4878 / 1563599452 / 49531191,,,kebja@yahoo.com.mx; kebja73@hotmail.com; helen-mo@hotmail.com,,Av. San Juan,1581,,2,A,,Constitucion,Comuna 1,1148,C1148AAD
-58.4301749870351,-34.5871256773714,508,MENAR,Institución Cultural - Social,Mexicana,4833-1032,,,info@menar.mx;jmorales@mexicoenargentina.com;juan_22_1994@hotmail.com;idelegarreta@menar.mx;mariabaso1@hotmail.com;,,El Salvador,5017,,,,,Palermo,Comuna 14,1414,C1414BPQ
-58.4034638958528,-34.586741137717,820,Taco Box,Gastronomía,Mexicana,4807-4804,,,,,Peña,2893,,,,,Recoleta,Comuna 2,1425,C1425AVG
-58.4303032128833,-34.5723293760984,512,Lupita,Gastronomía,Mexicana,4771-0759,,http://lupitamexicanbar.com/#2,,,Baez,227,,,,,Palermo,Comuna 14,1426,C1426BRE
-58.4319307822128,-34.58915429362,509,La fabrica del Taco,Gastronomía,Mexicana,4838-0815,,http://lafabricadeltaco.com/,,,Gorriti,5062,,,,,Palermo,Comuna 14,1414,C1414BJR
-58.3850789151299,-34.6094841052475,617,Malinche,Gastronomía,Mexicana,5660-0425,,https://www.facebook.com/malinchemex/,,,Av. de Mayo,1316,,,,,Monserrat,Comuna 1,1085,C1085ABQ
-58.3841636302524,-34.5948232404776,890,Embajada de Montenegro,Embajada,Montenegrina,4816-6701,,,argentina@mfa.gov.me; colectividaddemontenegroenbsas@gmail.com,,Libertad,1173,,1,A,,Retiro,Comuna 1,1012,C1012AAW
-58.3746860070364,-34.6089786890327,618,Montenegrina en Buenos Aires,Institución Cultural - Social,Montenegrina,1551074819 / 1536339831,,,colectividadmontenegrinabsas@gmail.com,,Perú,84,,,,15,Monserrat,Comuna 1,1067,C1067AAB
-58.3841804274971,-34.5947096498073,891,Consulado de Montenegrao,Consulado,Montenegrina,4816-6701,,,argentina@mfa.gov.me; colectividaddemontenegroenbsas@gmail.com,,Libertad,1173,,1,A,,Retiro,Comuna 1,1012,C1012AAW
-58.431316796419,-34.5717366868849,461,Bar Holandes: Van Koning,Institución Cultural - Social,Neerlandesa,4772-9909,,http://www.vankoning.com/,,,Baez,325,,,,,Palermo,Comuna 14,1426,C1426BRG
-58.3642245193205,-34.606451176641,927,Embajada,Embajada,Neerlandesa,4338-0050 / 4338-0050,,www.embassypages.com / argentina.nlEmbajada.org,bue@minbuza.nl,,Olga Cossettini,831,,3º,,,Puerto madero,Comuna 1,,
-58.3730680065276,-34.5953668085307,856,Cámara de Comercio Argentino Holandesa,Institución Profesional,Neerlandesa,5252 0839,,www.ccah.org.ar,info@ccah.org.ar,,Avenida L.N. Alem,1074 – 12,,,,,Retiro,Comuna 1,,
-58.4262514946043,-34.6169987865603,460,"Escuela Holandesa Stichting ""De Knikkers""",Institución Educativa,Neerlandesa,4775-8876 / 1556545869 / 4793-3456,,https://deknikkers.wordpress.com/,deknikkers.info@gmail.com,,Quito,4227,,,,,Almagro,Comuna 5,1212,C1212ABM
-58.3813232203583,-34.5913415918129,894,Embajada de Nueva Zelandia,Embajada,Neozelandesa,5070-0700,,,kiwiarg@speedy.com.ar,,Carlos Pellegrini,1427,,5,,,Retiro,Comuna 1,1011,C1011AAC
-58.3813259664947,-34.5912095564395,895,Consulado de Nueva Zelandia,Consulado,Neozelandesa,5070-0700,,www.nzembassy.com/argentina,kiwiarg@speedy.com.ar,,Carlos Pellegrini,1427,,5,,,Retiro,Comuna 1,1011,C1011AAC
-58.482922167497,-34.6030933246898,39,Asociación Argentino Montenegrina,Institución Cultural - Social,Nicaragüense,,,http://www.montenegrinos.com.ar/index.php?m=3&c=0,info@montenegrinos.com.ar,,Bolivia,2666,,,,,Villa Del Parque,Comuna 11,1417,C1417DCF
-58.3939291440731,-34.5956578182086,821,Consulado  de Nicaragua,Consulado,Nicaragüense,4811-0973  FAX 4816-6315,,,rcastillo@cancilleria.gob.ni,,Av. Santa Fe,1845,,7,A,,Recoleta,Comuna 2,1123,C1123AAA
-58.375415488369,-34.6488238943674,367,Asociación Nigerianos en el Río de la Plata,Institución Cultural - Social,Nigeriana,4301-3148 / 1540880847,,,secretary@asociaciondenigeria.org,,Av. Iriarte,1944,,,,,Barracas,Comuna 4,1291,C1291ABN
-58.381328499476,-34.5912961399022,893,Consulado de Noruega,Consulado,Noruega,3724-1200,,www.noruega.org.ar,emb.buenosaires@mfa.no,,Carlos Pellegrini,1427,,2,,,Retiro,Comuna 1,1011,C1011AAC
-58.3813311590805,-34.5912528507888,892,Embajada de Noruega,Embajada,Noruega,3724-1200,,,emb.buenosaires@mfa.no,,Carlos Pellegrini,1427,,2,,,Retiro,Comuna 1,1011,C1011AAC
-58.4414470917823,-34.5682203935775,513,Consulado de Pakistán,Consulado,Pakistaní,4775-1294  /4773-8081,,http://mofa.gov.pk/argentina/,pakistan2130@gmail.com,,Olleros,2130,,,,,Palermo,Comuna 14,1426,C1426CRN
-58.441485819692,-34.5682592470489,514,Embajada de Pakistán,Embajada,Pakistaní,4775-1294  /4773-8081,,http://mofa.gov.pk/argentina/,pakistan2130@gmail.com,,Olleros,2130,,,,,Palermo,Comuna 14,1426,C1426CRN
-58.3944727822822,-34.5978166064596,803,Consulado de Palestina,Consulado,Palestina,4816-6651 / 4816-7021,,www.palestina.int.ar,Consulado@palestina.irt.ae,,Riobamba,981,,,,,Recoleta,Comuna 2,1116,C1116ABC
-58.3944859718743,-34.5977532413035,802,Embajada de Palestina,Embajada,Palestina,4816-6651 / 4816-7021,,,emb.palestina.arg@gmail.com; palestina@palestina.int.ar; Embajada@palestina.int.ar; husni@palestina.int.ar,,Riobamba,981,,,,,Recoleta,Comuna 2,1116,C1116ABC
-58.3961128877583,-34.5880993991267,805,Asociacion Latinoamericana argentina panameña para el intercambio cultural y la asistencia humanitaria -ALAPAH,Institución Cultural - Social,Panameña,4805-3786/ 4807-7786 /1560564146,,,lucrecia@alapah.org; romina@alapah.org; ritaperez_74@hotmail.com,,Av. Las Heras,2231,,PB,B,,Recoleta,Comuna 2,1127,C1127AAE
-58.3716077966581,-34.6009521169097,666,Consulado de Panamá,Consulado,Panameña,4315-6444,,,informes@panaconsul.com.ar,,Tucumán,326,,2,1er cuerpo,,San Nicolas,Comuna 1,1049,C1049AAH
-58.3879271838475,-34.5955698080744,804,Embajada de Panamá,Embajada,Panameña,4811-1254 / 4814-3655 / 4471-3475,,www.Embajadadepanama.com.ar,embpanamaargentina@mire.gob.pa,,Av. Santa Fe,1461,,1,,,Recoleta,Comuna 2,1060,C1060ABA
-58.3997261810418,-34.6315126923905,187,Centro Artiguense,Institución Cultural - Social,Paraguaya,4308-0050,,,emigdioayal@yahoo.com.ar,,Brasil,2548,,,,,Parque Patricios,Comuna 4,1260,C1260AAU
-58.3769074698799,-34.6027276060944,667,FEPARA,Institución Cultural - Social,Paraguaya,4322-0989 / 4307-2508,,,federacion_fepara@yahoo.com.ar; trigidio.gonzalezcandia@gmail.com,,Maipu,464,,3,,202/203,San Nicolas,Comuna 1,1006,C1006ACD
-58.3740703851466,-34.5968783400075,884,Asociación Civil de Damas Paraguayas,Institución Cultural - Social,Paraguaya,,,,damasparaguayas@gmail.com,,San Martín,945,,,,,Retiro,Comuna 1,1004,C1004AAS
-58.4365786510568,-34.6139881413258,85,E.P.P.A. Equipo Pastoral Paraguayo en la Argentina,Institución Religiosa,Paraguaya,4903-3800,,,eppacentral@yahoo.com.ar,,Bogotá,329,,,,,Caballito,Comuna 6,1405,C1405CLG
-58.3746582963841,-34.628145902283,363,Club Atlético Deportivo Paraguayo,Institución Cultural - Social,Paraguaya,,,,deportivoparaguayo@yahoo.com.ar,,Piedras,1676,,,,,Barracas,Comuna 4,1140,C1140ABJ
-58.3861076532231,-34.6003669639058,668,Cámara de Comercio Argentino Paraguaya,Institución Profesional,Paraguaya,4371-9395,,www.ccarpa.com.ar,ccapy@speedy.com.ar,,Viamonte,1355,,4º,C,,San Nicolas,Comuna 1,1053,C1053ACA
-58.3912649092521,-34.6166692632121,609,Casa Paraguaya de Buenos Aires,Institución Cultural - Social,Paraguaya,,,,casa.paraguaya@yahoo.com.ar,,Chile,1769,,,,,Monserrat,Comuna 1,1100,C1100AAE
-58.4705324384576,-34.6136219483303,350,Centro de Residentes Iteños en Buenos Aires,Institución Cultural - Social,Paraguaya,,,,lucianosantander@hotmail.com,,Bufano,1539,,,,,Villa Gral. Mitre,Comuna 11,1416,C1416AJG
-58.4415116415335,-34.5628414044984,476,Centro Capiateño Res. en Bs. As.,Institución Cultural - Social,Paraguaya,,,,marisol_1011luz@yahoo.com,,Zabala,1540,,,,,Palermo,Comuna 14,1426,C1426DQB
-58.389032025288,-34.6015847073395,669,Centro Pilarenses Residentes en Buenos Aires,Institución Cultural - Social,Paraguaya,4373-5547,,,centropilarensebsas@gmail.com,,Tucumán,1567,,9,,50.,San Nicolas,Comuna 1,1050,C1050AAE
-58.4703000516202,-34.5952696133814,8,Centro Acevalense,Institución Cultural - Social,Paraguaya,,,,tacuareepoty@yahoo.com.ar,,Punta Arenas,1486,,,,,Paternal,Comuna 15,1427,C1427DRO
-58.3935166471333,-34.6006595172652,277,Consulado de Paraguay,Consulado,Paraguaya,4815-8656 / 4814-4803 / 4816-3271,,www.consulparbaires.co.cc,consulparbaires@gmail.com,,Viamonte,1851,,,,,Balvanera,Comuna 3,1056,C1056ABA
-58.3993273210766,-34.5853056419819,806,Embajada de Paraguay,Embajada,Paraguaya,4802-3826 / 3432 / 1538141120,,,secretaria@paraguay.int.ar; argentinaembaparsc@mre.gov.pv,,Las Heras,2545,,,,,Recoleta,Comuna 2,1425,C1425ASC
-58.4632624710387,-34.629197013111,121,Hermandad del señor de los milagros en Buenos Aires,Institución Cultural - Social,Peruana,1559978344 / 1535886238,,,hsenormilagrosenbsas@gmail.com,,Av. Rivadavia,6950,,,,,Flores,Comuna 7,1406,C1406GLZ
-58.4317827103129,-34.5870298644665,529,SIPAN,Gastronomía,Peruana,,,,,,Uriarte,1648,,,,,Palermo,Comuna 14,1414,C1414DAR
-58.4360639885813,-34.5824948157193,528,"PARU, Inka sushi & grill",Gastronomía,Peruana,,,,,,Bondpland,1823,,,,,Palermo,Comuna 14,1414,C1414CMW
-58.4309321205498,-34.57963126866,527,El Peruanito Ray,Gastronomía,Peruana,,,,,,Fitz Roy,2299,,,,,Palermo,Comuna 14,1425,C1425FVC
-58.4245614863026,-34.5776967529733,526,Perú Deli,Gastronomía,Peruana,,,,,,berutti,4602,,,,,Palermo,Comuna 14,,
-58.4328328578656,-34.5809318878512,525,Osaka,Gastronomía,Peruana,,,,,,Soler,5608,,,,,Palermo,Comuna 14,1425,C1425BYH
-58.4286354549909,-34.5935881019408,524,Inca Si señor,Gastronomía,Peruana,,,,,,Scalabrini Ortiz,1235,,,,,Palermo,Comuna 14,1414,C1414DNM
-58.4375039422413,-34.5781425606082,523,La Mar,Gastronomía,Peruana,,,,,,Arévalo,2024,,,,,Palermo,Comuna 14,1414,C1414CQP
-58.4322560867353,-34.5871004347106,522,Cocos,Gastronomía,Peruana,,,,,,Honduras,5237,,,,,Palermo,Comuna 14,1414,C1414BMU
-58.4169638736443,-34.5976520696267,521,Nazca,Gastronomía,Peruana,,,,,,Av. Córdoba,3579,,,,,Palermo,Comuna 14,1188,C1188AAB
-58.373889602738,-34.6064458277579,670,Consulado de Perú,Consulado,Peruana,4341-0006 / 4341-0010  / 4341-0035  / 4341-0015,,www.Consuladoperubaires.org,Mail Sec: conperbaires@Consuladoperubaires.org; jsalamanca@consuladoperubaires.org,,San Martín,128,,,,,San Nicolas,Comuna 1,1004,C1004AAD
-58.3908205440036,-34.608694713817,671,Asociacion civil cultural Yanapacuna,Institución Cultural - Social,Peruana,,,,,,Rodrigez Peña,40,,,9,,San nicolas,Comuna 1,,
-58.3881005336726,-34.6079145924257,673,Hermandad del señor de los milagros en Buenos Aires,Institución Religiosa,Peruana,4381-1322,,,josetelentasini@hotmail.com sfidel_ato@hotmail.com,,Bartolomé Mitre,1524,,,,,San Nicolas,Comuna 1,1037,C1037ABD
-58.3894876874168,-34.604044385226,682,La Farándula,Gastronomía,Peruana,,,,,,Corrientes,1601,,,,,San Nicolas,Comuna 1,1042,C1042AAC
-58.3791767754424,-34.6014423248313,686,Coya,Gastronomía,Peruana,,,,,,Tucumán,874,,,,,San Nicolas,Comuna 1,1049,C1049AAR
-58.3906144409313,-34.6039018960379,687,Tataki,Gastronomía,Peruana,,,,,,Rodriguez Peña,433,,,,,San Nicolas,Comuna 1,1020,C1020ADI
-58.3783531225506,-34.6020732834764,688,Sabores del Perú,Gastronomía,Peruana,,,,,,Esmeralda,526,,,,,San Nicolas,Comuna 1,1007,C1007ABD
-58.3851256762744,-34.6061744871111,689,PASAMAYO,Gastronomía,Peruana,,,,,,J D Perón,1307,,,,,San Nicolas,Comuna 1,1038,C1038ABA
-58.3849492484081,-34.6033267467647,690,Rawa,Gastronomía,Peruana,,,,,,Talcahuano,447,,,,,San Nicolas,Comuna 1,1013,C1013AAI
-58.4817847655524,-34.6231114162914,97,Inca Si señor 2,Gastronomía,Peruana,,,,,,Juan B justo,6302,,,,,Villa Santa Rita,Comuna 11,1407,C1407FAO
-58.4764348353954,-34.6180042202618,96,Machu Picchu,Gastronomía,Peruana,,,,,,Nazca,1348,,,,,Villa Santa Rita,Comuna 11,1416,C1416ASP
-58.47511094004,-34.619667211237,95,Las Delicias II,Gastronomía,Peruana,,,,,,nazca,1194,,,,,Villa Santa Rita,Comuna 11,1416,C1416ASN
-58.4436333781291,-34.6078682966126,89,El Sabrosón de Ñana,Gastronomía,Peruana,,,,,,Av Diaz Velez,5499,,,,,Caballito,Comuna 6,1405,C1405DCJ
-58.4433877423659,-34.6079081741803,87,Mujeres en accion,Institución Cultural - Social,Peruana,4982-8411 / 1562108070,,,norkahelgueropacheco@yahoo.com.ar,,Av. General Díaz Vélez,5479,,PB,C,,Caballito,Comuna 6,,
-58.4014958172123,-34.6105803312804,337,Rico Chimbote,Gastronomía,Peruana,,,,,,Alberti,66,,,,,Balvanera,Comuna 3,1082,C1082AAB
-58.4265471276038,-34.5804379837835,477,Asociacion Palpa Club peruano,Institución Cultural - Social,Peruana,,,,,,Calle Godoy Cruz,2539,,1,E,,Palermo,Comuna 14,,
-58.3741998024012,-34.6176541683783,210,Chifa Man-San,Gastronomía,Peruana,,,,,,Perú,832,,,,,San Telmo,Comuna 1,1068,C1068AAH
-58.4001983450828,-34.6106219978845,338,Rico Chimbote 2,Gastronomía,Peruana,,,,,,Matheu,78,,,,,Balvanera,Comuna 3,1082,C1082ABB
-58.4623049035689,-34.5971666816857,9,Mujeres peruanas Unidas Migrantes y Refugiadas,Institución Cultural - Social,Peruana,,,,asociacion_mpumr@yahoo.com.es,,Calle Dr. Adolfo Dickman,972,,,,,Paternal,Comuna 15,,
-58.4065143072433,-34.6064015783908,334,Rústico Perú,Gastronomía,Peruana,,,,,,sarmiento,2839,,,,,Balvanera,Comuna 3,1196,C1196AAA
-58.4042513068668,-34.6173794059224,348,La casita del Juane,Gastronomía,Peruana,,,,,,av Jujuy 625,625,,,,,Balvanera,Comuna 3,,
-58.4484577011255,-34.5583649577949,749,Contigo Perú,Gastronomía,Peruana,,,,,,echevarria,1627,,,,,Belgrano,Comuna 13,,
-58.4609408062166,-34.5600658023349,750,El Imperio del Sol,Gastronomía,Peruana,,,,,,Amenabar,2415,,,,,Belgrano,Comuna 13,1428,C1428CQM
-58.4612939947219,-34.5563748230734,751,La Norteñita,Gastronomía,Peruana,,,,,,Manuel Ugarte,2390,,,,,Belgrano,Comuna 13,1428,C1428BSJ
-58.4515233567368,-34.5559134425402,752,Lúcuma,Gastronomía,Peruana,,,,,,Olazábal,1679,,,,,Belgrano,Comuna 13,1428,C1428DGH
-58.453298519529,-34.5528725152902,753,Primavera Trujillana,Gastronomía,Peruana,,,,,,Franklin D. Roosevelt,1627,,,,,Belgrano,Comuna 13,1428,C1428BNC
-58.4601593962694,-34.5611207071037,754,El Cocoroco 2,Gastronomía,Peruana,,,,,,amenabar,2301,,,,,Belgrano,Comuna 13,1428,C1428CQK
-58.4600266152888,-34.5609627290013,755,El Cocoroco,Gastronomía,Peruana,,,,,,Olazábal,2571,,,,,Belgrano,Comuna 13,1428,C1428DHH
-58.4540238717629,-34.5532870775071,756,Inca Wasi,Gastronomía,Peruana,,,,,,Roosevelt,1695,,,,,Belgrano,Comuna 13,1428,C1428BNC
-58.4764807579555,-34.5657708293082,229,Asociacion de Medicos peruanos,Institución Cultural - Social,Peruana,4543-5639 / 1563974508,,,castillovizcarra@gmail.com,,Pedro Ignacio Rivera,3944,,1,8,,Coghlan,Comuna 12,1430,C1430BFB
-58.4731263630843,-34.5592068315256,231,Sazón,Gastronomía,Peruana,,,,,,Balvin,3017,,,,,Coghlan,Comuna 12,,
-58.4127091557374,-34.6014507740215,63,Rompe y Raja,Gastronomía,Peruana,,,,,,Gallo,702,,,,,Almagro,Comuna 5,1172,C1172ABP
-58.3986862239021,-34.6127222390025,347,Lo de Yolita,Gastronomía,Peruana,,,,,,pichincha,268,,,,,Balvanera,Comuna 3,1082,C1082ACF
-58.4001378005274,-34.6115208644857,339,Sabores de mi tierra,Gastronomía,Peruana,,,,,,mathew,154,,,,,Balvanera,Comuna 3,,
-58.4112089951368,-34.6056194058617,278,Academia de Marinera Asi Baila mi Perú,Institución Cultural - Social,Peruana,,,,jainor.l@gmail.com,,Tomás de Anchorena,362,,,,,Balvanera,Comuna 3,1170,C1170ACF
-58.4094053495013,-34.6101947949262,279,Asociacion civil cultural Kaymillajtay - Esta es mi tierra,Institución Cultural - Social,Peruana,4863-9582 / 15 41610448,,www.kaymillajtay.com.ar,kaymillajtay@hotmail.com,,Av. Bernardino Rivadavia,3033,,4,38,,Balvanera,Comuna 3,,
-58.4152739500749,-34.6040602067841,56,Los trujillanitos,Gastronomía,Peruana,,,,,,Corrientes,3564,,,,,Almagro,Comuna 5,1194,C1194AAO
-58.4191526748208,-34.6022728231645,55,CEPAR -Centro de Peruanos en Argentina,Institución Cultural - Social,Peruana,,,fonado@hotmail.com,,,Jeronimo Salguero,687,,,,,Almagro,Comuna 5,1177,C1177AEK
-58.409068876184,-34.6107984745218,280,La Conga,Gastronomía,Peruana,,,,,,la rioja,39,,,,,Balvanera,Comuna 3,1214,C1214ADA
-58.4093202129958,-34.6042675401283,281,La Catedral del Pisco,Gastronomía,Peruana,,,,,,corrientes,3126,,,,,Balvanera,Comuna 3,1193,C1193AAQ
-58.4043828959793,-34.6156561436076,346,Cebicheria la flor de la canela,Gastronomía,Peruana,,,,,,Jujuy,494,,,,,Balvanera,Comuna 3,1083,C1083AAR
-58.4113318267602,-34.6131922589141,345,Mi Barrunto,Gastronomía,Peruana,,,,,,Adolfo Alsina,3200,,,,,Balvanera,Comuna 3,1207,C1207AAH
-58.408474538198,-34.6129162105583,344,Huanchaco,Gastronomía,Peruana,,,,,,la rioja,222,,,,,Balvanera,Comuna 3,1214,C1214ADF
-58.4103729921895,-34.6114713804128,343,Lio sam,Gastronomía,Peruana,,,,,,Hipólito Yrigoyen,3101,,,,,Balvanera,Comuna 3,1207,C1207ABD
-58.4085132381851,-34.6123954364996,335,Sabor Norteño,Gastronomía,Peruana,,,,,,La Rioja,186,,,,,Balvanera,Comuna 3,1214,C1214ADD
-58.4086430187623,-34.6124250291407,336,Inti Raymi,Gastronomía,Peruana,,,,,,Alsina,2999,,,,,Balvanera,Comuna 3,1207,C1207AAC
-58.4116607902603,-34.6045706056742,282,el rey,Gastronomía,Peruana,,,,,,agüero,457,,,,,Balvanera,Comuna 3,1171,C1171ABE
-58.4097391367806,-34.6030136267862,283,Chabuca Granda,Gastronomía,Peruana,,,,,,Anchorena,571,,,,,Balvanera,Comuna 3,1170,C1170ACI
-58.4110554316541,-34.6003935854756,284,Brasita Chicken,Gastronomía,Peruana,,,,,,agüero,806,,,,,Balvanera,Comuna 3,1171,C1171ABN
-58.4113319892361,-34.612560083878,342,Como en peru,Gastronomía,Peruana,,,,,,24 de noviembre,164,,,,,Balvanera,Comuna 3,1170,C1170AAD
-58.4109880525295,-34.6019706563833,285,Mamani,Gastronomía,Peruana,,,,,,Agüero,707,,,,,Balvanera,Comuna 3,1171,C1171ABK
-58.408592200934,-34.6043358278877,286,Carlitos,Gastronomía,Peruana,,,,,,corrientes,3070,,,,,Balvanera,Comuna 3,1193,C1193AAP
-58.4081899433036,-34.6046601102667,287,El Primo,Gastronomía,Peruana,,,,,,Ecuador,460,,,,,Balvanera,Comuna 3,1214,C1214ACF
-58.407743530596,-34.6046897823915,288,La Rica Vicky 1,Gastronomía,Peruana,,,,,,Ecuador,467,,,,,Balvanera,Comuna 3,1214,C1214ACE
-58.4012847271047,-34.6009564396491,289,Leo s,Gastronomía,Peruana,,,,,,Viamonte,2421,,,,,Balvanera,Comuna 3,1056,C1056ABM
-58.4105942571488,-34.605235774509,290,La ale,Gastronomía,Peruana,,,,,,Anchorena,399,,,,,Balvanera,Comuna 3,1170,C1170ACE
-58.3981676891922,-34.5832806858811,807,Embajada de Perú,Embajada,Peruana,4802-2000/2551/2438,,,contacto@Embajadadelperu.int.ar,,Av. del Libertador,1720,,,,,Recoleta,Comuna 2,1425,C1425AAQ
-58.4118596099942,-34.6036761568683,291,Restaurant Lung Fung,Gastronomía,Peruana,,,,,,Agüero,532,,,,,Balvanera,Comuna 3,1171,C1171ABH
-58.408182814075,-34.6027865947844,292,El Chosicano,Gastronomía,Peruana,,,,,,Lavalle,2977,,,,,Balvanera,Comuna 3,1190,C1190AAE
-58.4058600947362,-34.6019153903264,293,Milagritos,Gastronomía,Peruana,,,,,,Tucumán,2796,,,,,Balvanera,Comuna 3,1189,C1189AAB
-58.446242343974,-34.5887177598087,6,Sabor Real,Gastronomía,Peruana,,,,,,Dorrego,1098,,,,,Chacarita,Comuna 15,1414,C1414CKS
-58.410304448794,-34.6126165833887,341,Marymar,Gastronomía,Peruana,,,,,,Urquiza,195,,,,,Balvanera,Comuna 3,1215,C1215ADC
-58.4002421680481,-34.6099871242791,340,Rincon Criollo 1,Gastronomía,Peruana,,,,,,Mathew,16,,,,,Balvanera,Comuna 3,,
-58.3644278112377,-34.627923705771,926,Grupo Liturgia,Institución Religiosa,Peruana,4361-5063 - 1551591192,,,vvargas@fi.uba.ar,,Calle General Mariano Necochea,312,,,,,Boca,Comuna 4,,
-58.4536763203372,-34.600991896469,37,Luchito,Gastronomía,Peruana,,,,,,Juan B. Justo 3447,,,,,,Villa crespo,Comuna 15,,
-58.4437505569468,-34.5950040935515,36,Rincón Criollo 2,Gastronomía,Peruana,,,,,,Corrientes,5749,,,,,Villa Crespo,Comuna 15,1414,C1414AJK
-58.4535619603568,-34.5872866040183,5,El Pollo Rico,Gastronomía,Peruana,,,,,,Olleros,4172,,,,,Chacarita,Comuna 15,1427,C1427EEN
-58.4118937009248,-34.6038124603025,329,Mochica,Gastronomía,Peruana,,,,,,agüero,520,,,,,Balvanera,Comuna 3,1171,C1171ABH
-58.4366247392257,-34.5543028437931,930,Parú Inkas Sushi and Grill,Gastronomía,Peruana,,,,,,La Pampa,717,,,,,Belgrano,Comuna 13,1428,C1428DYO
-58.3838998718893,-34.5878956071353,931,Parú Inkas Sushi and Grill,Gastronomía,Peruana,,,,,,Av. Libertador,798,,,,,Retiro,Comuna 1,1001,C1001ABU
-58.4055190498123,-34.5815326921791,932,Parú Inkas Sushi and Grill,Gastronomía,Peruana,,,,,,Cerviño,3212,,,,,Palermo,Comuna 14,1425,C1425AGO
-58.4046196056192,-34.5996646661174,330,Chimu,Gastronomía,Peruana,,,,,,San Luis,2741,,,,,Balvanera,Comuna 3,1186,C1186ACA
-58.4081837771253,-34.6064843381346,294,La Perla Marina,Gastronomía,Peruana,,,,,,Sarmiento,2961,,,,,Balvanera,Comuna 3,1196,C1196AAC
-58.4375348459038,-34.5905665715388,28,Asociacion de Mujeres Unidas Migrantes y Refugiadas en Argentina - AMUMRA,Institución Cultural - Social,Peruana,4864-4593 (oficina ) / 4772-6995,,www.amumra.org.ar,amumra@gmail.com //naty_amumra@yahoo.com.ar,,Juan Jufré,1051,,PB,2,,Villa crespo,Comuna 15,,
-58.4126010159429,-34.6042953198555,295,La Piurana,Gastronomía,Peruana,,,,,,Av. Corrientes,3362,,,,,Balvanera,Comuna 3,1193,C1193AAS
-58.396540886901,-34.6047162740396,331,Manos Criollas,Gastronomía,Peruana,,,,,,junin,389,,,,,Balvanera,Comuna 3,1026,C1026ABG
-58.4081588371217,-34.6045798034181,296,Polleria El Dorado,Gastronomía,Peruana,,,,,,Ecuador,468,,,,,Balvanera,Comuna 3,1214,C1214ACF
-58.4122309877391,-34.6049952491453,297,Lo Máximo Resto Bar,Gastronomía,Peruana,,,,,,Agüero,404,,,,,Balvanera,Comuna 3,1171,C1171ABF
-58.4094565889199,-34.6024536125298,298,Puro Corazón,Gastronomía,Peruana,,,,,,Lavalle,3083,,,,,Balvanera,Comuna 3,1190,C1190AAG
-58.4015097302474,-34.6045126187317,300,Casa del Perú en Argentina,Institución Cultural - Social,Peruana,4661-9322,,casadelperu09@gmail.com - revistacasadelperu@gmail.com,,,Av. Corrientes,2451,,1,,local 14,Balvanera,Comuna 3,1046,C1046AAC
-58.4093980183544,-34.6124705538764,301,Los Incontrastables Wankas en Buenos Aires,Institución Cultural - Social,Peruana,3529-5909 / 4932-8255,,,,,Adolfo Alsina,3049,,,,,Balvanera,Comuna 3,1207,C1207AAE
-58.4727051535679,-34.6025844278519,11,La Chiclayanita,Gastronomía,Peruana,,,,,,Terrero,2502,,,,,Paternal,Comuna 15,1416,C1416BND
-58.3957447260578,-34.6034480711177,332,Nikkey 2020,Gastronomía,Peruana,,,,,,lavalle,2020,,,,,Balvanera,Comuna 3,1051,C1051ABF
-58.4004145534545,-34.604844215533,302,Asociacion civil ALASS para la asistencia social cultural y deportiva - ALASS,Institución Cultural - Social,Peruana,49528219,,,victorgalarza_dt@hotmail.com,,Av Corrientes,2372,,2,9,,Balvanera,Comuna 3,1046,C1046AAO
-58.4000648819718,-34.6023984594727,303,Centro de Peruanos en Argentina,Institución Cultural - Social,Peruana,1563549400,,,fonado@hotmail.com,,Calle Tucumán,2328,,,,,Balvanera,Comuna 3,,
-58.3952610015417,-34.6083634163755,333,Inka Sí señor,Gastronomía,Peruana,,,,,,bartolome mitre,2022,,,,,Balvanera,Comuna 3,1039,C1039AAF
-58.402242943863,-34.6100932168309,304,Residentes Peruanos Siglo XXI,Institución Cultural - Social,Peruana,4218-1683,,,,,Av. Bernardino Rivadavia,2530,,PB,B,,Balvanera,Comuna 3,,
-58.4164721534777,-34.6481771041975,379,La Cumbre,Gastronomía,Peruana,,,,,,Av La Plata,2998,,,,,Nueva Pompeya,Comuna 4,1437,C1437DHU
-58.3992406420275,-34.6390409539067,188,Cooperativa de vivienda la caridad del cobre,Institución Cultural - Social,Peruana,4932-4382 / 15 34433639,,,leonrgarcia@hotmail.com,,Calle Luna,254,,,,,Parque patricios,Comuna 4,,
-58.4181300757385,-34.6556525144365,378,Mis Milagros,Gastronomía,Peruana,,,,,,Centenera,3507,,,,,Nueva Pompeya,Comuna 4,1437,C1437ACH
-58.526048472173,-34.6380801948036,571,Puerto Huarmey,Gastronomía,Peruana,,,,,,Av. Viedma,6863,,,,,Liniers,Comuna 9,,
-58.5263242953547,-34.6379767809865,572,Somos Perú,Gastronomía,Peruana,,,,,,Gana,127,,,,,Liniers,Comuna 9,1408,C1408BNA
-58.5271434396605,-34.6418488107405,573,Mi Peru,Gastronomía,Peruana,,,,,,Ibarrola,7186,,,,,Liniers,Comuna 9,1408,C1408DXR
-58.5264480153429,-34.6421029788526,574,El Cesar,Gastronomía,Peruana,,,,,,Montiel,237,,,,,Liniers,Comuna 9,1408,C1408FVE
-58.5264273336461,-34.6424223575676,575,Mi Esperanza,Gastronomía,Peruana,,,,,,Montiel,265,,,,,Liniers,Comuna 9,1408,C1408FVE
-58.3552527807336,-34.6189313823204,578,Junta vecinal barrio Rodrigo Bueno,Institución Cultural - Social,Peruana,,,,marino-sosa@hotmail.com,,A. España,1800,,,,,Boca,Comuna 4,,
-58.3553237543743,-34.6187832030406,579,Asociacion cultural de artistas peruanos en argentina,Institución Cultural - Social,Peruana,4865-3544,,,luis_edr@hotmail.com / mylady10_ar@hotmail.com,,A. España,1800,,,,,Boca,Comuna 4,,
-58.4007786156706,-34.6251698492284,163,Brisas del mar,Gastronomía,Peruana,,,,,,Cochabamba,2538,,,,,San Cristobal,Comuna 3,1252,C1252AAP
-58.3991164876168,-34.6235638574026,162,El Plato de Oro,Gastronomía,Peruana,,,,,,Av. San Juan,2400,,,,,San Cristobal,Comuna 3,1232,C1232AAS
-58.3934435673324,-34.6184264637883,161,Las Delicias 3,Gastronomía,Peruana,,,,,,Independencia,1918,,,,,San Cristobal,Comuna 3,1225,C1225AAO
-58.3935018450358,-34.618427410877,160,Delicias 3,Gastronomía,Peruana,,,,,,av independencia,1918,,,,,San Cristobal,Comuna 3,1225,C1225AAO
-58.4163864938761,-34.6460520613515,377,Juanita y Paul,Gastronomía,Peruana,,,,,,Av Sáenz,575,,,,,Nueva Pompeya,Comuna 4,1437,C1437DNF
-58.4164721534777,-34.6481771041975,376,Sur Latino,Gastronomía,Peruana,,,,,,Av Sáenz,695,,,,,Nueva Pompeya,Comuna 4,1437,C1437DNG
-58.4159478071198,-34.6452008494201,375,Costa Verde,Gastronomía,Peruana,,,,,,Av Sáenz,496,,,,,Nueva Pompeya,Comuna 4,1437,C1437DNR
-58.3837493287889,-34.6087804073536,610,Casa Peruana de Cultura,Institución Cultural - Social,Peruana,4865-3376,,,casaperuanaweb@hotmail.com,,Av. Bernardino Rivadavia,1220,,,,,Monserrat,Comuna 1,,
-58.3826952074554,-34.616337952808,612,Agrupación de Danzas Afroperuanas Q'Kumbe,Institución Cultural - Social,Peruana,1559300951,,lizbarzola@yahoo.com,,,Chile,1177,,PB,10,,Monserrat,Comuna 1,1098,C1098AAW
-58.4725245404475,-34.6131841775453,352,El Pollón de Oro,Gastronomía,Peruana,,,,,,Artigas,1543,,,,,Villa Gral. Mitre,Comuna 11,1416,C1416AKK
-58.3887539071243,-34.6109696752742,621,Status,Gastronomía,Peruana,,,,,,virrey Cevallos,178,,,,,Monserrat,Comuna 1,1077,C1077AAD
-58.3859581709262,-34.6101199453836,622,Chan Chan,Gastronomía,Peruana,,,,,,hipolito yrigoyen,1386,,,,,Monserrat,Comuna 1,1086,C1086AAX
-58.3902295300676,-34.6139011526336,623,Delicias Peruanas,Gastronomía,Peruana,,,,,,Belgrano,1696,,,,,Monserrat,Comuna 1,1093,C1093AAR
-58.3791396896545,-34.6150679402499,624,La Rica Vicky 2,Gastronomía,Peruana,,,,,,Tacuari,593,,,,,Monserrat,Comuna 1,1071,C1071AAK
-58.3931540263929,-34.6260462176043,158,Agrupación de Danzas Folklóricas Raices del Peru,Institución Cultural - Social,Peruana,1559223334 / 1551341682,,,,,Sarandí 1460,1460,,,,,San cristobal,Comuna 3,,
-58.3782880643544,-34.6195484901093,148,Sabores del Perú,Gastronomía,Peruana,,,,,,Carlos Calvo,873,,,,,Constitucion,Comuna 1,1102,C1102AAQ
-58.4756643850014,-34.6303533992443,137,Tradiciones del Peru,Institución Cultural - Social,Peruana,,,,tradicionesdelperu@hotmail.com,,Gral. Venecio Flores,3321,,,,,Floresta,Comuna 10,,
-58.4702766839822,-34.6310693839976,127,Manos peruanas,Gastronomía,Peruana,,,,,,av Rivadavia,7446,,,,,Flores,Comuna 7,1406,C1406GMR
-58.4725585804671,-34.6131412132598,351,El Pollón de Oro,Gastronomía,Peruana,,,,,,Artigas,1543,,,,,Villa Gral. Mitre,Comuna 11,1416,C1416AKK
-58.4280809906927,-34.5871229599746,537,Asociación de Ex Combatientes Polacos (SPK),Institución Cultural - Social,Polaca,,,,,,Jorge Luis Borges,1818,,,,,Palermo,Comuna 14,1414,C1414DGF
-58.4209259494271,-34.5955539494504,533,Asociación Civil “Ognisko Polskie” (“El Hogar Polaco”),Institución Cultural - Social,Polaca,,,,,,Gorriti,3972,,,,,Palermo,Comuna 14,1172,C1172ACL
-58.4257718719133,-34.585665812793,536,Asociación Cultural Argentino Polaca,Institución Cultural - Social,Polaca,4899-0937,,www.acapweb.com.ar,info@acapweb.com.ar,,Jorge Luis Borges,2076,,,,,Palermo,Comuna 14,1425,C1425FFB
-58.4022458504183,-34.5797502285512,530,Embajada de Polonia,Embajada,Polaca,4808-1700,,http://buenosaires.msz.gov.pl/es/,,,A.M. de Aguado,2870,,,,,Palermo,Comuna 14,1425,C1425CEB
-58.4208758101125,-34.595550162843,535,Asociación Cultural Argentino Polaca (ACAP),Institución Cultural - Social,Polaca,,,,https://www.facebook.com/OgniskoPolskieElHogarPolaco/,,Gorriti,3972,,,,,Palermo,Comuna 14,1172,C1172ACL
-58.4258250803165,-34.5856925523942,534,Biblioteca Polaca Ignacio Domeyko,Institución Cultural - Social,Polaca,4774-7621,,http://bibliotecadomeyko.com.ar/wordpress/pl/,,,Jorge Luis Borges,2076,,,,,Palermo,Comuna 14,1425,C1425FFB
-58.4022363210919,-34.5798828621112,531,Consulado de Polonia,Consulado,Polaca,4808-1710 / 4808-1711,,,consulado.buenosaires@msz.gov.pl,,A.M. de Aguado,2870,,,,,Palermo,Comuna 14,1425,C1425CEB
-58.4258725872784,-34.5857177182804,532,Unión de Polacos en Argentina- UPRA,Institución Cultural - Social,Polaca,4774-7621 / 1558880401 / 4553-3642  / 1556512829,,lalkaw@yahoo.com.ar; heniekk47@gmail.com,secretaria@upranet.com.ar; acw_2004@hotmail.com,,Jorge Luis Borges,2076,,,,,Palermo,Comuna 14,1425,C1425FFB
-58.377157475187,-34.5969737151576,896,Embajada de Portugal,Embajada,Portuguesa,4312-3524,,,embpor@buenosaires.dgaccp.pt,,Maipú,942,,17,,,Retiro,Comuna 1,1006,C1006ACN
-58.3771573523816,-34.5970935056109,897,Consulado de Portugal,Consulado,Portuguesa,4312-3524 FAX 4311-2586,,www.embaixadaportugal.com.ar,seconsular@buenosaires.dgaccp.pt; seconsular_bs.as@ciudad.com.ar,,Maipú,942,,17,,,Retiro,Comuna 1,1006,C1006ACN
-58.4478808657549,-34.6278428798328,90,Club Portugues,Institución Cultural - Social,Portuguesa,,,www.clubportugues.com.ar,,,Av. Pedro Goyena,1468,,,,,Caballito,Comuna 6,1406,C1406GWQ
-58.4848743881821,-34.563323136773,235,Centro Patria Portuguesa,Institución Cultural - Social,Portuguesa,4543-9233,,http://ccpargentina.com.ar/centropatria.html,centropatriaportuguesa@ yahoo.com.ar,,Gral. Mariano Acha,3265,,,,,Villa Urquiza,Comuna 12,1430,C1430DVM
-58.3808656558368,-34.5917130884587,898,Embajada de Rumania,Embajada,Rumana,4326-5888 / 4322-8656,,,embarombue@rumania.org.ar,,Arroyo,962/970,,,,,Retiro,Comuna 1,,
-58.3809667943922,-34.5917182589659,899,Consulado de Rumania,Consulado,Rumana,4326-5888 / 4322-8656,,www.buenosaires.mae.ro,embarombue@rumania.org.ar,,Arroyo,962/970,,,,,Retiro,Comuna 1,,
-58.4087465894329,-34.5921675897193,824,Asociación Rumano Argentina  -AS. ROM. AR.,Institución Cultural - Social,Rumana,4832-2301 / 4826-1713,,www.geocities.com/asromar,ceopyd@fibertel.com.ar,,Güemes,2962,,,,,Recoleta,Comuna 2,1425,C1425BKB
-58.4719501381494,-34.5785742361373,356,Asociación Cristiana Ortodoxa Rumana en Argentina -A.C.O.R.A,Institución Religiosa,Rumana,4951-8723,,,acrora_03@hotmail.com,,Mariano Acha,1499,,1,A,,Villa Ortuzar,Comuna 15,1430,C1430DUC
-58.3699861742481,-34.625127233292,211,"Asociación Ortodoxa Rusa en la Argentina ""Hermandad San Sergio""",Institución Religiosa,Rusa,4361-4274,,www.iglesiarusa.org.ar,info@iglesiarusa.org.ar,,Brasil,315,,,,,San Telmo,Comuna 1,1154,C1154AAC
-58.4255803866597,-34.6136842527231,66,Casa de Rusia en Buenos Aires,Institución Cultural - Social,Rusa,4982-2442 / 4981-5596,,www.casaderusia.org,argentina@rs.gov.ru,,Av. RivadAvia,4266,,,,,Almagro,Comuna 5,1205,C1205AAP
-58.4243354074943,-34.6171022352409,67,Restaurante Molino Dorado,Gastronomía,Rusa,3528-8940,,facebook.com/pages/El-Molino-Dorado/226455604148444,,,Quito,4100,,,,,Almagro,Comuna 5,1212,C1212ABJ
-58.4983585833067,-34.6148445326787,100,Acociacion de Profesionales Universotarios de habla Ruso -APUR,Institución Cultural - Social,Rusa,,,https://www.facebook.com/AsociacionProfesionalesUniversitariosRusos,apur.ar2010@gmail.com,,Chivilcoy,2067,,2,B,,Monte Castro,Comuna 10,1417,C1417ATA
-58.3842145086352,-34.604037411022,691,Sadko,Institución Cultural - Social,Rusa,4794-8323,,,voldemardetan@yandex.ru,,Corrientes,1236,,,,,San Nicolas,Comuna 1,1043,C1043AAZ
-58.4774965825854,-34.5555064929677,228,Iglesia Ortodoxa Rusa en el Extranjero,Institución Religiosa,Rusa,4541-7691,,www.synod.com,episkop.ioann@gmail.com,,Núñez,3541,,,,,Saavedra,Comuna 12,1430,C1430AMC
-58.4144592358911,-34.5913480933928,538,Iglesia Ortodoxa Rusa del Patriarcado de Moscú.,Institución Religiosa,Rusa,4823-6534,,southamerica.cerkov.ru,secrdiocese@mail.ru,,Bulnes,1743,,,,,Palermo,Comuna 14,1425,C1425DKC
-58.5185193175458,-34.6192656948512,103,Systema Sudamerica,Institución Cultural - Social,Rusa,,,systemasudamerica.com,info@systemasudamerica.com,,lope de Vega,2376,,,,,Villa Real,Comuna 10,1417,C1417COU
-58.3942575254761,-34.6059778031034,349,De Rusia Con Amor,Gastronomía,Rusa,4953-8590,,https://www.facebook.com/derusiaconamor/,,,Sarmiento,1940,,,,,Balvanera,Comuna 3,1044,C1044AAD
-58.4432345771836,-34.5505340190134,757,Representación Comercial de la Federación de Rusia en la República Argentina,Institución Política,Rusa,4787-0225,4487-0344,,rcomrusia@gmail.com,,Dragones,2350,,,,,Belgrano,Comuna 13,1428,C1428AZL
-58.461243950057,-34.5621294709216,758,La Comideria,Gastronomía,Rusa,4781-0996,,facebook.com/La-Comideria-358415117663022/,,,olazabal,2734,,,,,Belgrano,Comuna 13,1428,C1428DHW
-58.3885382673016,-34.5909185095199,826,Consulado de Ruisa,Consulado,Rusa,4812-1794,4812-1794,argentina.mid.ru,consulrusoarg@gmail.com,,Guido,1677,,,,,Recoleta,Comuna 2,1016,C1016AAC
-58.3883588679922,-34.5906091963433,825,Embajada de la Federación de Rusia en la República Argentina,Embajada,Rusa,4813-1552/8039,4815-6293,argentina.mid.ru,argentina@mid.ru; embrusia@gmail.com,,Rodriguez Peña,1741,,,,,Recoleta,Comuna 2,1021,C1021ABK
-58.3894835472174,-34.5915853214045,784,Embajada del Salvador,Embajada,Salvadoreña,4813-2525,,www.embajadaelsalvador.com.ar,embajadasv@gmail.com,,Rodriguez Peña,1627,,3,,,Recoleta,Comuna 2,1021,C1021ABI
-58.4240090973134,-34.6006719505188,68,Asociación de Residentes Senegaleses en Argentina,Institución Cultural - Social,Senegalesa,3559-5703 /1567631410,,http://www.sunuarsa.com.ar,moustafass@hotmail.com; ascivil.senegalesa@gmail.com,,Gascón,878,,,D,,Almagro,Comuna 5,1181,C1181ACP
-58.3919322926129,-34.5970392558483,828,Consulado de Serbia,Consulado,Serbia,4812-9133 / 4813-3445 / 4813-3446 / 4811-2860,,,Consuladoserbia@fibertel.com.ar,,M.T.de Alvear,1705,,,,,Recoleta,Comuna 2,1060,C1060AAG
-58.3920174161725,-34.5970422680567,827,Embajada de Serbia,Embajada,Serbia,4812-9133 / 4813-3445 / 4813-3446 / 4811-2860,,,ebajserbia@fibertel.com.ar; despachoserbia@fibertel.com.ar,,M.T.de Alvear,1705,,,,,Recoleta,Comuna 2,1060,C1060AAG
-58.3871028505013,-34.6314387380895,149,Iglesia ortodoxa catolica serbia Rodjenje Presvete Majke Bogorodice,Institución Religiosa,Serbia,,,,spc.buenosaires@gmail.com,,15 de noviembre,1536,,,,,Constitucion,Comuna 1,1130,C1130ABJ
-58.3734546166696,-34.627540368293,368,Iglesia ortodoxa catolica serbia San Saba,Institución Religiosa,Serbia,4307-7751,,,spc.buenosaires@gmail.com,,Peru,1656,,,,,Barracas,Comuna 4,1141,C1141ACJ
-58.3933386408008,-34.5979443165354,829,Embajada de Siria,Embajada,Siria,4813-2113 / 4813-5438,,,Embajadasiria@speedy.com.ar,,Av. Callao,956,,,,,Recoleta,Comuna 2,1023,C1023AAP
-58.4283679575811,-34.5934095967609,539,Iglesia Catolica Apostolica Ortodoxa del Patriarcado de Antioquia,Institución Religiosa,Siria,4776-0208,,,arzobispado@acoantioquena.com,,Av.Raul Scalabrini Ortiz,1261,,,,,Palermo,Comuna 14,1414,C1414DNM
-58.444135256057,-34.6214342800428,91,Asociación Cultural Siria,Institución Cultural - Social,Siria,4308-3850,,,culturalsiria@gmail.com,,Rivadavia,5581,,,,,Caballito,Comuna 6,1424,C1424CEK
-58.4778214743667,-34.6291044753304,139,Fearab Argentina,Institución Cultural - Social,Siria,4611-2087,,,presidencia@fearab.org.ar,,Bogota,3449,,,,,Floresta,Comuna 10,1407,C1407ESC
-58.4659344855069,-34.5809774635613,357,Iglesia Siriana Ortodoxa de Antioquia,Institución Religiosa,Siria,1559941020,,,morchysostom@yahoo.com,,Tronador,1067,,,,,Villa Ortuzar,Comuna 15,1427,C1427CRU
-58.4813792699012,-34.6255696125323,138,FEIRA-Federacion de Entidades Islamicas de la Rep Arge -FEIRA,Institución Cultural - Social,Siria,1568042020,,,info@feira.org.ar,,Felipe Vallese,3614,,3,,,Floresta,Comuna 10,1407,C1407MHH
-58.3933412397093,-34.5979189196203,830,Consulado de Siria,Consulado,Siria,4813-2113 / 4813-5438,,,embajadasiria@speedy.com.ar,,Av. Callao,956,,,,,Recoleta,Comuna 2,1023,C1023AAP
-58.4080261168318,-34.624318896152,164,Centro Islámico de la Republica Argentina,Institución Religiosa,Siria,4931-3577,,,secretaria.cira@islam.com.ar,,Av. San Juan,3051,,,,,San Cristobal,Comuna 3,1233,C1233ABA
-58.3940909498722,-34.5917748844067,833,Diario Sirio libanes en Buenos Aires,Institución Cultural - Social,Siria,4803-4162,,,info@diraiosiriolibanes.org.ar,,Ayacucho,1496,,,,,Recoleta,Comuna 2,1111,C1111AAN
-58.3941098153974,-34.5917310115489,832,Fearab Buenos Aires,Institución Cultural - Social,Siria,1554663961 / 4362-4385,,,fearabuenosaires@gmail.com,,Ayacucho,1496,,,,,Recoleta,Comuna 2,1111,C1111AAN
-58.3941416666829,-34.59174986016,831,Presidente del Club Sirio-Libanés y Asociación Sirio Libanesa,Institución Cultural - Social,Siria,4806-3002 / 4544-6967,,,info@clubsiriolibanes.org.ar,,Ayacucho,1496,,,,,Recoleta,Comuna 2,1111,C1111AAN
-58.3753109149732,-34.5963392841048,901,Embajada de Sudáfrica,Embajada,Sudafricana,4317-2900,,,info.argentina@dirco.gov.za,,Marcelo T. de Alvear,590,,8,,,Retiro,Comuna 1,1058,C1058AAF
-58.3751526054735,-34.5963411541083,902,Consulado de Sudáfrca,Consulado,Sudafricana,4317-2900,,www.sudafrica.org.ar,info.argentina@dirco.gov.za,,Marcelo T. de Alvear,590,,8,,,Retiro,Comuna 1,1058,C1058AAF
-58.3792896519436,-34.6115079127111,626,"Instituto de Cultura Sueca ""August Strindberg""",Institución Educativa,Sueca,4334-2176,,www.cultura-sueca.com.ar,culturasueca@gmail.com,,Tacuarí,281,,4,D,,Monserrat,Comuna 1,1071,C1071AAE
-58.3664177083901,-34.6244149661475,214,Asociación Sueca de Beneficencia,Institución Cultural - Social,Sueca,49783079,,,adrianabergstrom@hotmail.com,,Azopardo,1428,,,,,San Telmo,Comuna 1,1107,C1107ADZ
-58.3664296396697,-34.624325349114,213,Iglesia Sueca en Buenos Aires -Svenska Kyrkan i Buenos Aires,Institución Religiosa,Sueca,4361-7304,,www.iglesiasueca.com.ar,iglesianordica@infovia.com.ar,,Azopardo,1428,,,,,San Telmo,Comuna 1,1107,C1107ADZ
-58.3664376114056,-34.6242503951001,212,Asociación Sueca,Institución Cultural - Social,Sueca,4978-3079,,,karin@clubsueco.com.ar; jorge@jedfo.com.ar,,Azopardo,1428,,1,,,San Telmo,Comuna 1,1107,C1107ADZ
-58.3642621987579,-34.6059310207527,580,Embajada de Suiza,Embajada,Sueca,4319-5100,,,ambassaden.buenos-aires@gov.se,,Olga Cossettini,731,,,,,Puerto Madero,Comuna 1,1107,C1107CDA
-58.364243777547,-34.6055486973033,581,Consulado de Suiza,Consulado,Sueca,4319-5100,,www.sweedenabroad.com/es-ES/Embassies/Buenos-Aires/,ambassaden.buenos-aires@gov.se,,Olga Cossettini,731,,,,,Puerto Madero,Comuna 1,1107,C1107CDA
-58.3810676721599,-34.5986107955585,903,Cámara de Comercio Sueco Argentina,Institución Profesional,Sueca,4342-8867,,www.ccsa.com.ar,,,C.PELLEGRINI,833,,3,A,,Retiro,Comuna 1,1009,C1009ABQ
-58.3791705821669,-34.5953414518516,905,Consulado de Suiza,Consulado,Suiza,4311-6491 / 4313-2998,,www.eda.admin.ch/buenosaires,ccrsudamerica@edea.admin.ch,,Av. Santa Fe,846,,12,,,Retiro,Comuna 1,1059,C1059ABP
-58.4622305942081,-34.5627153537012,761,"Iglesia Evangéliga Reformada de Buenos Aires ""IERBA""",Institución Religiosa,Suiza,4784-7121,,iglesiareformada-ba.blogspot.com,ierba@fibertel.org.ar,,Olazabal,2842,,,,,Belgrano,Comuna 13,1428,C1428DHX
-58.4908569836742,-34.6485963496486,195,Centro Valesano Buenos Aires,Institución Cultural - Social,Suiza,4683-2356,,,,,Escalada,1167,,,,,Mataderos,Comuna 9,1407,C1407LDW
-58.3730598953837,-34.5952739659109,907,Club Suizo de Buenos Aires,Institución Cultural - Social,Suiza,4312-2812,,www.clubsuizobaires.org.ar,clubsuizo@yahoo.com.ar,,Leandro N. Alem,1074,,10,,,Retiro,Comuna 1,1001,C1001AAS
-58.3730296551689,-34.5953520812171,906,Cámara de Comercio Suizo Argentina,Institución Profesional,Suiza,4311-7187,,www.suiza.org.ar,,,Av. Leandro N. Alem,1074,,10,,,Retiro,Comuna 1,1001,C1001AAS
-58.3792125584417,-34.5953451347864,904,Embajada de Suiza,Embajada,Suiza,4311-6491,,,ccrsudamerica@edea.admin.ch,,Av. Santa Fe,846,,12,,,Retiro,Comuna 1,1059,C1059ABP
-58.4361821521775,-34.5852988344647,548,Sunae Asian Cantina,Gastronomía,Tailandesa,4776-8122,,https://sunaeasiancantina.com/,reservas@sunaeasiancantina.com,,Humboldt,1626,,,,,Palermo,Comuna 14,1414,C1414CTP
-58.3730334702863,-34.5975231959377,908,Thaisu,Gastronomía,Tailandesa,5252-8424,,http://www.thaisu.com.ar/,,,Paraguay,406,,,,,Retiro,Comuna 1,1057,C1057AAD
-58.4321649320934,-34.5803455880141,546,Sudestada Restaurant,Gastronomía,Tailandesa,4776-3777,,,,,Guatemala,5602,,,,,Palermo,Comuna 14,1425,C1425BVJ
-58.3711033760582,-34.6005381139743,695,Green Curry,Gastronomía,Tailandesa,4312-8337,,http://www.greencurry.com.ar/,contacto@greencurry.com.ar,,Tucumán,271,,,,,San Nicolas,Comuna 1,1049,C1049AAE
-58.4272851391318,-34.5916817889559,547,Koh lanta,Gastronomía,Tailandesa,4831-0440,,http://www.kohlanta.com.ar/,info@kohlanta.com.ar,,Gorriti,4647,,,,,Palermo,Comuna 14,1414,C1414BJI
-58.4512005714349,-34.5564472870024,764,Lotus Neo Thai,Gastronomía,Tailandesa,4783-7993,,http://www.restaurantelotus.com.ar/,,,Arribeños,2265,,,,,Belgrano,Comuna 13,1428,C1428APC
-58.4542404335295,-34.5628153761947,763,Consulado de Tailandia,Consulado,Tailandesa,4780-0555 / 4783-6412,,www.thaiembargen.org,thaiembargen@fibertel.com.ar,,Vuelta de Obligado,1947,,12,,,Belgrano,Comuna 13,1428,C1428ADC
-58.4222854746292,-34.5940036299533,545,Phuket,Gastronomía,Tailandesa,4861-1679 / 4861-4772,,,,,Honduras,4169,,,,,Palermo,Comuna 14,1180,C1180ACI
-58.4543157449556,-34.5627187171271,762,Embajada de Tailandia,Embajada,Tailandesa,4780-0555 / 4783-6412,,,thaiembargen@fibertel.com.ar,,Vuelta de Obligado,1947,,12,,,Belgrano,Comuna 13,1428,C1428ADC
-58.3895546198142,-34.5982845549869,844,Centro de Lengua y Cultural Turca/ Centro de Díalogo Intercultural ALBA,Institución Cultural - Social,Turca,5811-4602 / 5811-4595 / 1527271280,,,info@dialogar.org.ar,,Paraguay,1591,,,,,Recoleta,Comuna 2,1061,C1061ABC
-58.4886399822871,-34.632183716305,183,Fundación de Amistad Argentino Turca,Institución Cultural - Social,Turca,4671-0632,,http://www.fundargentinoturca.com.ar/,info@fundargentinoturca.com.ar; BORS@DIALOGAR.ORG.AR,,Av. Avellaneda,4434,,,,,Velez Sarsfield,Comuna 10,1407,C1407EJY
-58.4455280994323,-34.5656449377837,549,Embajada / Consulado de Turquía,Embajada,Turca,4785-7203 / 4788-3239 / 4785-7203 / 4788-3239,,,embajada.buenosaires@mfa.gov.tr,,11 de septiembre,1382,,,,,Palermo,Comuna 14,1426,C1426BKN
-58.3735389815138,-34.5987534499503,683,Cámara de Comercio e Industria Argentino Ucrania,Institución Profesional,Ucraniana,4312-0073,,www.cauci.com.ar/index.php,cauci@arnetbiz.com.ar,,Av. Córdoba,456,,1,A,,San Nicolas,Comuna 1,1054,C1054AAQ
-58.4280499353781,-34.5842312290269,517,Unión de Mujeres de Prosvita,Institución Cultural - Social,Ucraniana,4775–0226,,,ozp.prosvita@yahoo.com.ar,,Soler,5039,,,,,Palermo,Comuna 14,1425,C1425BXK
-58.4163293732731,-34.6127791064861,65,Representación Central  Ucrania,Institución Cultural - Social,Ucraniana,4552-9564 /1540395636,,http://www.rcucrania.com.ar/language/es/,mczinko@yahoo.com.ar; marusiazinko@yahoo.com.ar;  info@rcucrania.com.ar,,Maza,150,,,,,Almagro,Comuna 5,1206,C1206ACD
-58.4163463320809,-34.6127324478123,64,Asociación Ucraniana Renacimiento,Institución Cultural - Social,Ucraniana,4864 7831,,,constantinoholik@gmail.com,,Maza,150,,,,,Almagro,Comuna 5,1206,C1206ACD
-58.4216309175678,-34.6293965801545,171,Hermandad de la Iglesia Autocéfala Ortodoxa Ucrania del Patrocinio de la Virgen,Institución Religiosa,Ucraniana,4923-2629,,,,,Tarija,4063,,,,,Boedo,Comuna 5,1253,C1253ACO
-58.4819994313458,-34.6354633893332,182,Iglesia Greco Católica Ucrania Hermandad Santa Sofía de la,Institución Religiosa,Ucraniana,4671-4192 / 4674-2895,,,pokrov@ciudad.com.ar,,Ramón Falcón,3960,,,,,Velez Sarsfield,Comuna 10,1407,C1407GSN
-58.4279641957516,-34.5843020915266,516,"Asociación Ucrania de Cultura""PROSVITA""",Institución Cultural - Social,Ucraniana,4775-0226,4778-3088,www.prosvita.org,prosvita.argentina@gmail.com; jmdanylyszyn@gmail.com; mariodmytrow@yahoo.com.ar;maslukpedro@gmail.com,,Soler,5039,,,,,Palermo,Comuna 14,1425,C1425BXK
-58.479108760772,-34.6396531296954,371,Asociación Ucrania Plast Juvenil,Institución Cultural - Social,Ucraniana,,,www.plast.org.ar,,,José E Rodó,3868,,,,,Parque Avellaneda,Comuna 9,1407,C1407HDD
-58.4421473838378,-34.5683190609887,515,Consulado de Ucrania,Consulado,Ucraniana,4773-6137,,http://argentina.mfa.gov.ua/es,consulucrania@gmail.com,,Olleros,2169,,,,,Palermo,Comuna 14,1426,C1426CRM
-58.4640286807879,-34.6321529430126,126,Fundación Taras Shevchenko,Institución Cultural - Social,Ucraniana,,,,f_tshevchenko@ucrania.com,,Av. Juan B. Alberdi,2578,,2,C,,Flores,Comuna 7,1406,C1406GSO
-58.4420979649566,-34.5682804363704,550,Embajada de Ucrania,Embajada,Ucraniana,4775-3476,,http://argentina.mfa.gov.ua/es,emb_ar@mfa.gov.ua,,Olleros,2169,,,,,Palermo,Comuna 14,1426,C1426CRM
-58.3892491170633,-34.5982632090733,823,Casa de Uruguay,Institución Cultural - Social,Uruguaya,1531806452,,,comunicación@casadeuruguay.com.ar; jlarroyo@fibertel.com.ar,,Paraguay,1571,,,,,Recoleta,Comuna 2,1061,C1061ABC
-58.3892073523097,-34.5982593463029,822,Embajada de Uruguay,Embajada,Uruguaya,6009-4020,,,uruargentina@mrree.gub.uy,,Paraguay,1571,,,,,Recoleta,Comuna 2,1061,C1061ABC
-58.3947493027048,-34.6175259758247,328,Esuskal Echea,Institución Educativa,Vasca,4122-5150,,www.euskalechea.esc.edu.ar,info@euskalechea.org.ar,,Sarandí,735,,,,,Balvanera,Comuna 3,1222,C1222ACE
-58.3823764999954,-34.6133540578384,619,Centro Laurak Bat,Institución Cultural - Social,Vasca,4381-0682 / 1545331800 / 1565281794,,www.laurakbat.com.ar/,info@laurakbat.com.ar,,Av. Belgrano,1144,,,,,Monserrat,Comuna 1,1092,C1092AAY
-58.3787236125887,-34.6054666317306,681,Juan de Garay,Institución Cultural - Social,Vasca,4328-6906,,www.juandegaray.org.ar,fundacionjuandegaray@gmail.com,,Roque Saenz Peña,846,,1,,102,San Nicolas,Comuna 1,1035,C1035AAQ
-58.3970919373898,-34.6070132689265,327,Club Vasco Gure Echea,Institución Cultural - Social,Vasca,4953 8328,,,,,Tte. Juan D. Perón,2143,,,,,Balvanera,Comuna 3,1040,C1040AAG
-58.4182772947375,-34.6148657900178,62,Centro Navarro,Institución Cultural - Social,Vasca,4956-0399,,www.centronavarro.org.ar,,,Moreno,3682,,,,,Almagro,Comuna 5,1209,C1209ABR
-58.3796416877685,-34.6178542924078,147,EUSKALTZALEAK / Asociación Escuela de Lengua Vasca,Institución Cultural - Social,Vasca,4307-6308 / 1563063559,,,tdezavaleta@yahoo.com.ar; idiomavasco@gmail.com; euskaltzaleak@yahoo.com.ar,,Bernardo de Yrigoyen,826,,,,,Constitucion,Comuna 1,,
-58.3856844013416,-34.6124161290536,620,Centro Vasco Francés,Institución Cultural - Social,Vasca,4381-5415,,http://www.rvascofrances.com.ar/,,,Moreno,1370,,,,,Monserrat,Comuna 1,1091,C1091ABB
-58.4313199260436,-34.5750107869721,519,Embajada de Venezuela,Embajada,Venezolana,4129-0800,,www.la-embajada.com.ar,despacho.argentina@mtpre.gob.ve,,Av. Luis María Campos,170,,,,,Palermo,Comuna 14,1425,C1425GEO
-58.4313038893594,-34.5750558351331,520,Consulado de Venezuela,Consulado,Venezolana,4129-0826 al 30,,www.la-embajada.com.ar,despacho.argentina@mtpre.gob.ve,,Av. Luis María Campos,170,,,,,Palermo,Comuna 14,1425,C1425GEO
-58.4800951482088,-34.6031367919151,40,Asociación Venezolanos en Argentina,Institución Cultural - Social,Venezolana,1549177998,,,presidenteasoven@gmail.com; infoasoven@gmail.com,,Terrero,3263,,14,B,,Villa Del Parque,Comuna 11,1417,C1417GXC
-58.3769306151522,-34.6021631931641,685,Cámara de Comercio,Institución Educativa,Vietnamita,4322-4965,,,ccomsud@ciudad.com.ar,,Maipú,510,,9,A,,San Nicolas,Comuna 1,1006,C1006ACF
-58.4460321399244,-34.5650557651589,748,Embajada de Vietnam,Embajada,Vietnamita,,,,atn.sqvn@gmail.com,,11 de septiembre,1442,,,,,Belgrano,Comuna 13,1426,C1426BKP
